Name,Phone,City,Neighborhood,Address,Gmaps_URL,Plus_Code,Lat,Lng,Category,statu
Pharmacie Mercury صيدلية بن تاشفين,+212 5226-20650,Casablanca,,"278, Bd Ibn Tachfine, 20320 Quartier: Ain Borja, Casablanca 20100, Morocco","https://www.google.com/maps/place/%D8%B5%D9%8A%D8%AF%D9%84%D9%8A%D8%A9+%D8%A8%D9%86+%D8%AA%D8%A7%D8%B4%D9%81%D9%8A%D9%86%E2%80%AD/@33.5811281,-7.7160394,12z/data=!4m9!1m3!2m2!1sPharmacies+in+Casablanca+Morocco!6e2!3m4!1s0xda7cd22397c8a51:0xbf6f0873a4cb41a0!8m2!3d33.5851182!4d-7.574511?hl=en","HCPG+25 Casablanca, Morocco","33,5851182","-7,574511",Pharmacy,ok
Pharmacie Abrar Alonat,+212 5227-42325,Casablanca,,"Casablanca, Morocco","https://www.google.com/maps/place/Abrar+Alonat+Pharmacy/@33.5806935,-7.5541238,12z/data=!4m9!1m3!2m2!1sPharmacies+in+Casablanca+Morocco!6e2!3m4!1s0xda7cb2862b55be5:0xf6ea006543b6aae0!8m2!3d33.5806935!4d-7.484086?hl=en","HGJ8+79 Casablanca, Morocco","33,5806935","-7,484086",Pharmacy,ok
Pharmacie Adiba,+212 5223-73936,Casablanca,,"382 Avenue Reda Guedira, Casablanca, Morocco","https://www.google.com/maps/place/Adiba+Pharmacy/@33.5811281,-7.7160394,12z/data=!4m9!1m3!2m2!1sPharmacies+in+Casablanca+Morocco!6e2!3m4!1s0xda632d07d08d625:0x794828746b9ea8e!8m2!3d33.5540422!4d-7.5763095?hl=en","HC3F+JF Casablanca, Morocco","33,5540422","-7,5763095",Pharmacy,ok
Pharmacie Al Abe ,+212 5229-74065,Casablanca,,"Casablanca, Morocco","https://www.google.com/maps/place/Al+Abe+Pharmacie/@33.5811281,-7.7160394,12z/data=!4m9!1m3!2m2!1sPharmacies+in+Casablanca+Morocco!6e2!3m4!1s0xda62d1f2b7dd413:0x2a49e6d9eba7e99f!8m2!3d33.5354296!4d-7.6495319?hl=en","G9P2+55 Casablanca, Morocco","33,5354296","-7,6495319",Pharmacy,ok
Pharmacie Al Atfal ,+212 5229-10598,Casablanca,,"Boulevard Oued Ouargha, Casablanca 20240, Morocco","https://www.google.com/maps/place/Al+Atfal+Pharmacy/@33.5811281,-7.7160394,12z/data=!4m9!1m3!2m2!1sPharmacies+in+Casablanca+Morocco!6e2!3m4!1s0xda62cadcd828267:0x790c29057362d698!8m2!3d33.5526617!4d-7.6897635?hl=en","H836+33 Casablanca, Morocco","33,5526617","-7,6897635",Pharmacy,ok
Pharmacie AnfaPlace ,+212 5227-97031,Casablanca,,"shopping center Anfaplace, Bd de la corniche, Casablanca 20000, Morocco","https://www.google.com/maps/place/AnfaPlace+Pharmacy/@33.5811281,-7.7160394,12z/data=!4m8!1m2!2m1!1sPharmacies+in+Casablanca+Morocco!3m4!1s0xda7d30600b49647:0x8351cef58a879df2!8m2!3d33.5979541!4d-7.6647969?hl=en","H8XP+53 Casablanca, Morocco","33,5979541","-7,6647969",Pharmacy,ok
Pharmacie Anoual ,+212 5228-61120,Casablanca,,"Rue Abou Maâchar, Casablanca 20250, Morocco","https://www.google.com/maps/place/Anoual+Pharmacy/@33.5811281,-7.7160394,12z/data=!4m9!1m3!2m2!1sPharmacies+in+Casablanca+Morocco!6e2!3m4!1s0xda7d2aeb82563ab:0xaaea8a29b3b9a18a!8m2!3d33.5689193!4d-7.6175568?hl=en","H99J+HX Casablanca, Morocco","33,5689193","-7,6175568",Pharmacy,ok
Pharmacie Aourir ,+212 5229-93123,Casablanca,,"Rue de Lagramta, Casablanca 12000, Morocco","https://www.google.com/maps/place/Aourir+Pharmacy/@33.5811281,-7.7160394,12z/data=!4m8!1m2!2m1!1sPharmacies+in+Casablanca+Morocco!3m4!1s0xda62d4a61037b17:0x82986fb9ad0a16ff!8m2!3d33.5582185!4d-7.6318948?hl=en","H959+76 Casablanca, Morocco","33,5582185","-7,6318948",Pharmacy,ok
Pharmacie Arabic Maghreb ,+212 5375-31310,Casablanca,,"Rue 17, Casablanca 20250, Morocco","https://www.google.com/maps/place/Arabic+Maghreb+pharmacy/@33.6331799,-7.5445652,12z/data=!4m9!1m3!2m2!1sPharmacies+in+Mohammedia+Morocco!6e2!3m4!1s0xda7cb75ec70c939:0x4a73bfee31532ff5!8m2!3d33.6123768!4d-7.5072779?hl=en","JF6V+X3 Casablanca, Morocco","33,6123768","-7,5072779",Pharmacy,ok
Pharmacie Attawfik  (Garde),+212 625-048231,Casablanca,,"Boulevard Moulouya, Casablanca, Morocco","https://www.google.com/maps/place/Attawfik+Pharmacy+(Garde)/@33.5811281,-7.7160394,12z/data=!4m9!1m3!2m2!1sPharmacies+in+Casablanca+Morocco!6e2!3m4!1s0xda62cb463b21a79:0x7ac391f491d6f167!8m2!3d33.5551882!4d-7.6810491?hl=en","H849+3H Casablanca, Morocco","33,5551882","-7,6810491",Pharmacy,ok
Pharmacie Ba Ahmed ,+212 5222-47539,Casablanca,,"82, Bd Ba Hmad, 20300 Quartier: Belv?d?re, Casablanca 20100, Morocco","https://www.google.com/maps/place/Ba+Ahmed+Pharmacy/@33.5811281,-7.7160394,12z/data=!4m9!1m3!2m2!1sPharmacies+in+Casablanca+Morocco!6e2!3m4!1s0xda7cd13ab2e9bc9:0x17d75bbc451ceca0!8m2!3d33.5945653!4d-7.5868297?hl=en","HCV7+R7 Casablanca, Morocco","33,5945653","-7,5868297",Pharmacy,ok
Pharmacie Bouabid ,+212 5227-31517,Casablanca,,"1, Bloc 113 Boulevard Bensaïd Saleh Mohamed, Casablanca 20600, Morocco","https://www.google.com/maps/place/Bouabid+Pharmacy/@33.6292043,-7.6253702,11z/data=!4m9!1m3!2m2!1sPharmacies+in+Mohammedia+Morocco!6e2!3m4!1s0xda7cb0ac2c64db9:0x62a18bfb212c0668!8m2!3d33.6116789!4d-7.5018266?hl=en","JF6X+M7 Casablanca, Morocco","33,6116789","-7,5018266",Pharmacy,ok
Pharmacie Chaab ,+212 5225-26617,Casablanca,,"Hay Moulay Abdallah, Rue 226 N°23-25 Casablanca، Rue 232 Hay Moulay Abdellah, Casablanca, Morocco","https://www.google.com/maps/place/Chaab+Pharmacy/@33.5811281,-7.7160394,12z/data=!4m9!1m3!2m2!1sPharmacies+in+Casablanca+Morocco!6e2!3m4!1s0xda632ea7b4e7cf9:0xabc1c4163fe3815a!8m2!3d33.540953!4d-7.5878524?hl=en","GCR6+9V Casablanca, Morocco","33,540953","-7,5878524",Pharmacy,ok
Pharmacie Chaabia ,+212 5227-67958,Casablanca,,"1, Lot. Anassi, Grp. 11 Ahl Loghlam, 20630 Quartier: Sidi Moumen, Casablanca 20100, Morocco","https://www.google.com/maps/place/Chaabia+Pharmacy/@33.5811281,-7.7160394,12z/data=!4m9!1m3!2m2!1sPharmacies+in+Casablanca+Morocco!6e2!3m4!1s0xda7cb3e84450a83:0x9abe5c60328b66d9!8m2!3d33.5922996!4d-7.4930332?hl=en","HGR4+WQ Casablanca, Morocco","33,5922996","-7,4930332",Pharmacy,ok
Pharmacie Cinema Anfa ,+212 5223-68762,Casablanca,,"Boulevard Sidi Abderrahmane, Casablanca 20250, Morocco","https://www.google.com/maps/place/Cinema+Anfa+Pharmacy/@33.5811281,-7.7160394,12z/data=!4m8!1m2!2m1!1sPharmacies+in+Casablanca+Morocco!3m4!1s0xda7d3395f705d7f:0x509be8ffcc5a5ac!8m2!3d33.5742918!4d-7.6711366?hl=en","H8FH+PG Casablanca, Morocco","33,5742918","-7,6711366",Pharmacy,ok
Pharmacie Consulats ,+212 5222-62418,Casablanca,,"81 bis Boulevard Moulay Youssef, Casablanca 20020, Morocco","https://www.google.com/maps/place/Consulats+Pharmacy/@33.5811281,-7.7160394,12z/data=!4m9!1m3!2m2!1sPharmacies+in+Casablanca+Morocco!6e2!3m4!1s0xda7d29278af46f1:0xf5691fa9f4c9ab5d!8m2!3d33.5946889!4d-7.630041?hl=en","H9V9+VX Casablanca, Morocco","33,5946889","-7,630041",Pharmacy,ok
Pharmacie Danton ,+212 5222-50978,Casablanca,,"47, Bd Bir Anzarane, 20330 Quartier: Maarif, Casablanca 20100, Morocco","https://www.google.com/maps/place/Danton+Pharmacy/@33.5811281,-7.7160394,12z/data=!4m9!1m3!2m2!1sPharmacies+in+Casablanca+Morocco!6e2!3m4!1s0xda7d2c19ce9a07f:0x68a748b76f46cc7!8m2!3d33.5803974!4d-7.6375365?hl=en","H9J6+5X Casablanca, Morocco","33,5803974","-7,6375365",Pharmacy,ok
Pharmacie El Hank ,+212 5229-49422,Casablanca,,"Casablanca 20250, Morocco","https://www.google.com/maps/place/El+Hank+Pharmacy/@33.5811281,-7.7160394,12z/data=!4m9!1m3!2m2!1sPharmacies+in+Casablanca+Morocco!6e2!3m4!1s0xda7d25568ae7237:0xc53f97d378b09824!8m2!3d33.6043864!4d-7.6526761?hl=en","J83W+QW Casablanca, Morocco","33,6043864","-7,6526761",Pharmacy,ok
Pharmacie Emile Zola ,+212 5222-42383,Casablanca,,"Boulevard Emile Zola, Casablanca 20250, Morocco","https://www.google.com/maps/place/Emile+Zola+Pharmacy/@33.5811281,-7.7160394,12z/data=!4m8!1m2!2m1!1sPharmacies+in+Casablanca+Morocco!3m4!1s0xda7cd6efb951c2d:0xcdf7c10a918d5ba2!8m2!3d33.5940805!4d-7.5964518?hl=en","HCV3+JC Casablanca, Morocco","33,5940805","-7,5964518",Pharmacy,ok
Pharmacie Fatima Zahra ,+212 5220-10186,Casablanca,,"Casablanca, Morocco","https://www.google.com/maps/place/Fatima+Zahra+Pharmacy/@33.5811281,-7.7160394,12z/data=!4m9!1m3!2m2!1sPharmacies+in+Casablanca+Morocco!6e2!3m4!1s0xda7cb278d4090cf:0x8cf80e5ea2acb0ce!8m2!3d33.5829643!4d-7.4820113?hl=en","HGM9+55 Casablanca, Morocco","33,5829643","-7,4820113",Pharmacy,ok
Pharmacie Florida ,+212 5223-21959,Casablanca,,"Lotiss. Florida Lot 281, Sidi Ma?rouf, 20270 Quartier: Sidi Maar, Casablanca 20100, Morocco","https://www.google.com/maps/place/Florida+Pharmacy/@33.54504,-7.6539398,12z/data=!4m9!1m3!2m2!1sPharmacies+in+Casablanca+Morocco!6e2!3m4!1s0xda632c3d15e5a97:0x950390b31fc07fbd!8m2!3d33.54504!4d-7.583902?hl=en","GCW8+2C Casablanca, Morocco","33,54504","-7,583902",Pharmacy,ok
Pharmacie Franceville ,+212 5222-30421,Casablanca,,"406, Bd Ghandi, 20410 Quartier: Oasis, Casablanca 20100, Morocco","https://www.google.com/maps/place/Franceville+Pharmacy/@33.5811281,-7.7160394,12z/data=!4m9!1m3!2m2!1sPharmacies+in+Casablanca+Morocco!6e2!3m4!1s0xda7d2b4ffe9986d:0xf6037d8ef2122c52!8m2!3d33.5634773!4d-7.6328911?hl=en","H978+9R Casablanca, Morocco","33,5634773","-7,6328911",Pharmacy,ok
Pharmacie Ghizlane ,+212 5226-20050,Casablanca,,"120 Bis, Bd Du Fouarat, Hay Jamal, 20570 Quartier: A?n Borja, Casablanca 20100, Morocco","https://www.google.com/maps/place/Ghizlane+Pharmacy/@33.5811281,-7.7160394,12z/data=!4m9!1m3!2m2!1sPharmacies+in+Casablanca+Morocco!6e2!3m4!1s0xda7ccc489680fcd:0x8a5371b5cfefb604!8m2!3d33.57393!4d-7.5745812?hl=en","HCFG+H5 Casablanca, Morocco","33,57393","-7,5745812",Pharmacy,ok
Pharmacie Gouraud ,+212 5222-77145,Casablanca,,"142, Avenue Moulay Hassan 1Er, 20070 Quartier: Lusitania, Casablanca 20100, Morocco","https://www.google.com/maps/place/Gouraud+Pharmacy/@33.5811281,-7.7160394,12z/data=!4m8!1m2!2m1!1sPharmacies+in+Casablanca+Morocco!3m4!1s0xda7d29ac78554fd:0x2a2ac282feb6a94!8m2!3d33.5922732!4d-7.626067?hl=en","H9RF+WH Casablanca, Morocco","33,5922732","-7,626067",Pharmacy,ok
Pharmacie Grande  Commerciale,+212 5222-22373,Casablanca,,"9, Bd Mohammed V, 20000 Quartier: Centre Ville, Casablanca 20100, Morocco","https://www.google.com/maps/place/Grande+Pharmacie+Commerciale/@33.5811281,-7.7160394,12z/data=!4m8!1m2!2m1!1sPharmacies+in+Casablanca+Morocco!3m4!1s0xda7d29cab5b6d99:0x336d2c9b07643c67!8m2!3d33.5954829!4d-7.6165397?hl=en","H9WM+59 Casablanca, Morocco","33,5954829","-7,6165397",Pharmacy,ok
Pharmacie Grande  Of Paris,+212 5222-74210,Casablanca,,"60 Boulevard Ben Abdellah, Casablanca 20000, Morocco","https://www.google.com/maps/place/Grande+Pharmacy+Of+Paris/@33.5811281,-7.7160394,12z/data=!4m8!1m2!2m1!1sPharmacies+in+Casablanca+Morocco!3m4!1s0xda7cd62a616e2a9:0x9fbc39fe381561ff!8m2!3d33.5957069!4d-7.6149868?hl=en","H9WP+72 Casablanca, Morocco","33,5957069","-7,6149868",Pharmacy,ok
Pharmacie Guard  Essafa,+212 689-387093,Casablanca,,"25 Boulevard Haj Fateh, Casablanca 20240, Morocco","https://www.google.com/maps/place/Guard+Pharmacy+Essafa/@33.5811281,-7.7160394,12z/data=!4m9!1m3!2m2!1sPharmacies+in+Casablanca+Morocco!6e2!3m4!1s0xda62cae5f16c627:0x8dff1f1890c8616f!8m2!3d33.5504103!4d-7.6899724?hl=en","H826+52 Casablanca, Morocco","33,5504103","-7,6899724",Pharmacy,ok
Pharmacie Hached ,+212 5222-83946,Casablanca,,"Casablanca 20250, Morocco","https://www.google.com/maps/place/Hached+Pharmacy/@33.5666263,-7.6201988,14z/data=!4m9!1m3!2m2!1sPharmacies+in+Berrechid+Morocco!6e2!3m4!1s0xda7cd524f985919:0xca1cde13447db8b6!8m2!3d33.5666263!4d-7.6026893?hl=en","H98W+MW Casablanca, Morocco","33,5666263","-7,6026893",Pharmacy,ok
Pharmacie Hay El Hassani ,+212 5229-03522,Casablanca,,"Rue 4, Casablanca 20250, Morocco","https://www.google.com/maps/place/Hay+El+Hassani+Pharmacy/@33.5811281,-7.7160394,12z/data=!4m9!1m3!2m2!1sPharmacies+in+Casablanca+Morocco!6e2!3m4!1s0xda7d336c28bffaf:0x5662996f439c985b!8m2!3d33.5662016!4d-7.6723814?hl=en","H88H+F2 Casablanca, Morocco","33,5662016","-7,6723814",Pharmacy,ok
Pharmacie Hay El Massira 3 ,+212 5227-15522,Casablanca,,"Rue 80, Casablanca 20670, Morocco","https://www.google.com/maps/place/Hay+El+Massira+3+Pharmacy/@33.5811281,-7.7160394,12z/data=!4m9!1m3!2m2!1sPharmacies+in+Casablanca+Morocco!6e2!3m4!1s0xda633485870ff3f:0x9cf649b409b66df4!8m2!3d33.5570569!4d-7.5446085?hl=en","HF44+R5 Casablanca, Morocco","33,5570569","-7,5446085",Pharmacy,ok
Pharmacie Hay Raja ,+212 5228-60525,Casablanca,,"Rue des pléiades, Casablanca 20250, Morocco","https://www.google.com/maps/place/Hay+Raja+Pharmacy/@33.5811281,-7.7160394,12z/data=!4m9!1m3!2m2!1sPharmacies+in+Casablanca+Morocco!6e2!3m4!1s0xda7d2ac370c5d3f:0x3152c29aa5ab5ef7!8m2!3d33.5664307!4d-7.6166686?hl=en","H98M+H8 Casablanca, Morocco","33,5664307","-7,6166686",Pharmacy,ok
Pharmacie Hay Salama ,,Casablanca,,"Casablanca 20670, Morocco","https://www.google.com/maps/place/Hay+Salama+Pharmacy/@33.5811281,-7.7160394,12z/data=!4m9!1m3!2m2!1sPharmacies+in+Casablanca+Morocco!6e2!3m4!1s0xda6332c22c42c9f:0x3d1ef72b2536b054!8m2!3d33.5608373!4d-7.5612304?hl=en","HC6Q+8G Casablanca, Morocco","33,5608373","-7,5612304",Pharmacy,ok
Pharmacie Ismailia ,+212 5223-69744,Casablanca,,"Casablanca 20250, Morocco","https://www.google.com/maps/place/Ismailia+Pharmacy/@33.5811281,-7.7160394,12z/data=!4m9!1m3!2m2!1sPharmacies+in+Casablanca+Morocco!6e2!3m4!1s0xda7d2fa4f1eb2e3:0x10b18c2882a81539!8m2!3d33.5974349!4d-7.6461441?hl=en","H9W3+XG Casablanca, Morocco","33,5974349","-7,6461441",Pharmacy,ok
Pharmacie Jamila ,+212 5223-72107,Casablanca,,"283 Boulevard Commandant Driss Al Harti, Casablanca, Morocco","https://www.google.com/maps/place/Jamila+Pharmacy/@33.5460332,-7.6464934,12z/data=!4m9!1m3!2m2!1sPharmacies+in+Casablanca+Morocco!6e2!3m4!1s0xda632dcf6d8ff69:0x4814140e682f94ec!8m2!3d33.5460332!4d-7.5764556?hl=en","GCWF+CC Casablanca, Morocco","33,5460332","-7,5764556",Pharmacy,ok
Pharmacie Jawhara ,+212 5229-80034,Casablanca,,"Casablanca 20250, Morocco","https://www.google.com/maps/place/Jawhara+Pharmacy/@33.5811281,-7.7160394,12z/data=!4m9!1m3!2m2!1sPharmacies+in+Casablanca+Morocco!6e2!3m4!1s0xda7d2b41aee4ff7:0xf5e64b6316dec4a2!8m2!3d33.566405!4d-7.6284868?hl=en","H98C+HJ Casablanca, Morocco","33,566405","-7,6284868",Pharmacy,ok
Pharmacie Lahjajma ,+212 5222-02867,Casablanca,,"Av Phare Residence, Rue de Taghazout, Casablanca 20000, Morocco","https://www.google.com/maps/place/Lahjajma+Pharmacy/@33.5811281,-7.7160394,12z/data=!4m9!1m3!2m2!1sPharmacies+in+Casablanca+Morocco!6e2!3m4!1s0xda7d2fb054e916f:0x9e52dc38e1f8a4b8!8m2!3d33.595756!4d-7.647295?hl=en","H9W3+83 Casablanca, Morocco","33,595756","-7,647295",Pharmacy,ok
Pharmacie Large  Of Morocco,+212 5223-04228,Casablanca,,"27 Rue Mohammed Diouri, Casablanca 20250, Morocco","https://www.google.com/maps/place/Large+Pharmacy+Of+Morocco/@33.5811281,-7.7160394,12z/data=!4m8!1m2!2m1!1sPharmacies+in+Casablanca+Morocco!3m4!1s0xda7cd63999c79dd:0x1980ea867f591792!8m2!3d33.592772!4d-7.6071132?hl=en","H9VV+45 Casablanca, Morocco","33,592772","-7,6071132",Pharmacy,ok
Pharmacie Louvre ,+212 5222-53205,Casablanca,,"Maarif 20250, Morocco","https://www.google.com/maps/place/Louvre+Pharmacy/@33.5811281,-7.7160394,12z/data=!4m9!1m3!2m2!1sPharmacies+in+Casablanca+Morocco!6e2!3m4!1s0xda7d2bfcbeeee93:0x252ae294d75b0cfd!8m2!3d33.5824415!4d-7.6306835?hl=en","H9J9+XP Casablanca, Morocco","33,5824415","-7,6306835",Pharmacy,ok
Pharmacie Malika ,+212 5228-07559,Casablanca,,"Boulevard Modibo Keita, Casablanca, Morocco","https://www.google.com/maps/place/Malika+Pharmacy/@33.5811281,-7.7160394,12z/data=!4m9!1m3!2m2!1sPharmacies+in+Casablanca+Morocco!6e2!3m4!1s0xda62d55576ab0b7:0xbde78cfcc278220f!8m2!3d33.5618652!4d-7.6115753?hl=en","H96Q+P9 Casablanca, Morocco","33,5618652","-7,6115753",Pharmacy,ok
Pharmacie Mehdi ,+212 5222-58289,Casablanca,,"Casablanca, Morocco","https://www.google.com/maps/place/Mehdi+Pharmacy/@33.5811281,-7.7160394,12z/data=!4m9!1m3!2m2!1sPharmacies+in+Casablanca+Morocco!6e2!3m4!1s0xda7d2c6d00eb5cf:0x3f59c1a339c435f6!8m2!3d33.576968!4d-7.6364574?hl=en","H9G7+QC Casablanca, Morocco","33,576968","-7,6364574",Pharmacy,ok
Pharmacie Mercury ,+212 5222-74626,Casablanca,,"28 Rue Al Woroud, Casablanca 20250, Morocco","https://www.google.com/maps/place/Mercury+Pharmacy/@33.5811281,-7.7160394,12z/data=!4m9!1m3!2m2!1sPharmacies+in+Casablanca+Morocco!6e2!3m4!1s0xda7d298130159f7:0x5a28c192ca2429f3!8m2!3d33.5850248!4d-7.6210604?hl=en","H9PH+2H Casablanca, Morocco","33,5850248","-7,6210604",Pharmacy,ok
Pharmacie METRO ,+212 5222-91013,Casablanca,,"Avenue Al Wahda Al Ifriquia, Casablanca, Morocco","https://www.google.com/maps/place/METRO+Pharmacy/@33.5811281,-7.7160394,12z/data=!4m9!1m3!2m2!1sPharmacies+in+Casablanca+Morocco!6e2!3m4!1s0xda632b6427e0e57:0x37dd7ff9c8eecfb8!8m2!3d33.5567093!4d-7.5915956?hl=en","HC45+M9 Casablanca, Morocco","33,5567093","-7,5915956",Pharmacy,ok
Pharmacie Murdoch ,+212 5222-00664,Casablanca,,"Casablanca 20250, Morocco","https://www.google.com/maps/place/Murdoch+Pharmacy/@33.5811281,-7.7160394,12z/data=!4m9!1m3!2m2!1sPharmacies+in+Casablanca+Morocco!6e2!3m4!1s0xda7d2907814ebc7:0x1eb7b6bc7b576d97!8m2!3d33.593019!4d-7.6223364?hl=en","H9VH+63 Casablanca, Morocco","33,593019","-7,6223364",Pharmacy,ok
Pharmacie Oscar  In GUARD,+212 5225-20446,Casablanca,,"Andalous 3 Rue 7 N 121 ain chock، Casablanca 20000, Morocco","https://www.google.com/maps/place/Oscar+Pharmacy+In+GUARD/@33.5811281,-7.7160394,12z/data=!4m9!1m3!2m2!1sPharmacies+in+Casablanca+Morocco!6e2!3m4!1s0xda632aeb27aa449:0xbc40006f7a6596ef!8m2!3d33.556216!4d-7.605878?hl=en","H94V+FJ Casablanca, Morocco","33,556216","-7,605878",Pharmacy,ok
Pharmacie Oued Zem ,+212 5223-85936,Casablanca,,"Boulevard Oued Zem, Casablanca, Morocco","https://www.google.com/maps/place/Oued+Zem+Pharmacy/@33.5811281,-7.7160394,12z/data=!4m9!1m3!2m2!1sPharmacies+in+Casablanca+Morocco!6e2!3m4!1s0xda632c8d5dcf257:0xb4ac4d6d1e68bb68!8m2!3d33.5547787!4d-7.5845709?hl=en","HC38+W5 Casablanca, Morocco","33,5547787","-7,5845709",Pharmacy,ok
Pharmacie & ParaPharmacie Acima,+212 5228-74912,Casablanca,,"avenue du Deux Mars, c.com Acima Inara mag. B6 Aïn Chok, Casablanca, Morocco","https://www.google.com/maps/place/Pharmacie+%26+Parapharmacie+Acima/@33.5398657,-7.6714141,12z/data=!4m9!1m3!2m2!1sPharmacies+in+Casablanca+Morocco!6e2!3m4!1s0xda6329810e82719:0xabe29da177043d7!8m2!3d33.5398657!4d-7.6013763?hl=en","G9QX+WC Casablanca, Morocco","33,5398657","-7,6013763",Pharmacy,ok
Pharmacie 15 Ramadan,+212 5223-06880,Casablanca,,"Casablanca 20250, Morocco","https://www.google.com/maps/place/Pharmacie+15+Ramadan/@33.5811281,-7.7160394,12z/data=!4m9!1m3!2m2!1sPharmacies+in+Casablanca+Morocco!6e2!3m4!1s0xda7cd60f00e5a89:0x2f84a908c4976841!8m2!3d33.5869877!4d-7.6080889?hl=en","H9PR+QQ Casablanca, Morocco","33,5869877","-7,6080889",Pharmacy,ok
Pharmacie Abazid,+212 5225-80119,Casablanca,,"39 Lotissement Assia, Casablanca, Morocco","https://www.google.com/maps/place/Pharmacie+Abazid/@33.5087242,-7.7191643,12z/data=!4m9!1m3!2m2!1sPharmacies+in+Casablanca+Morocco!6e2!3m4!1s0xda62daea1ec8043:0x8cd386b24eed308e!8m2!3d33.5087242!4d-7.6491265?hl=en","G952+F8 Casablanca, Morocco","33,5087242","-7,6491265",Pharmacy,ok
Pharmacie Abdelkader Essahraoui,+212 5225-55550,Casablanca,,"52, Avenue Abdelkader Essahraoui, Quartier: Hay Moulay Rachid, Casablanca 20100, Morocco","https://www.google.com/maps/place/Pharmacie+Abdelkader+Essahraoui/@33.5811281,-7.7160394,12z/data=!4m9!1m3!2m2!1sPharmacies+in+Casablanca+Morocco!6e2!3m4!1s0xda7cb5542c40615:0xa37563ffda183493!8m2!3d33.569102!4d-7.523985?hl=en","HF9G+JC Casablanca, Morocco","33,569102","-7,523985",Pharmacy,ok
Pharmacie Abdelmoumen,+212 5222-31872,Casablanca,,"187 Boulevard Abdelmoumen, Casablanca 20250, Morocco","https://www.google.com/maps/place/Pharmacie+Abdelmoumen/@33.5811281,-7.7160394,12z/data=!4m9!1m3!2m2!1sPharmacies+in+Casablanca+Morocco!6e2!3m4!1s0xda7d2bbb0b76d77:0xd32a0fc7c2588dbb!8m2!3d33.57611!4d-7.6259571?hl=en","H9GF+CJ Casablanca, Morocco","33,57611","-7,6259571",Pharmacy,ok
Pharmacie Abna Achouhada,+212 5226-21704,Casablanca,,"127-129 Rue 10, Casablanca 20250, Morocco","https://www.google.com/maps/place/Pharmacie+Abna+Achouhada/@33.5811281,-7.7160394,12z/data=!4m9!1m3!2m2!1sPharmacies+in+Casablanca+Morocco!6e2!3m4!1s0xda7cce23ee0d50f:0xc389d7f313b5be31!8m2!3d33.5921461!4d-7.5611997?hl=en","HCRQ+VG Casablanca, Morocco","33,5921461","-7,5611997",Pharmacy,ok
Pharmacie ABOU CHOUAIB DOUKALI,+212 5228-21884,Casablanca,,"Casablanca, Morocco","https://www.google.com/maps/place/Pharmacie+ABOU+CHOUAIB+DOUKALI/@33.5630715,-7.602533,15z/data=!4m9!1m3!2m2!1sPharmacies+in+Essaouira+Morocco!6e2!3m4!1s0xda632b4c83a1d79:0x929b8ada1b63373a!8m2!3d33.5630715!4d-7.5937783?hl=en","HC74+6F Casablanca, Morocco","33,5630715","-7,5937783",Pharmacy,ok
Pharmacie Abou Soulaïmane,+212 5228-29044,Casablanca,,"Rue Abou Soulaimane Al Khattabi, Casablanca 20250, Morocco","https://www.google.com/maps/place/Pharmacie+Abou+Soula%C3%AFmane/@33.5811281,-7.7160394,12z/data=!4m8!1m2!2m1!1sPharmacies+in+Casablanca+Morocco!3m4!1s0xda7cdacab6715c9:0x852ddccf140dcfb3!8m2!3d33.5728761!4d-7.6109959?hl=en","H9FQ+5J Casablanca, Morocco","33,5728761","-7,6109959",Pharmacy,ok
Pharmacie abou zaid,+212 5227-02284,Casablanca,,"Casablanca 20250, Morocco","https://www.google.com/maps/place/pharmacie+abou+zaid/@31.6295016,-10.8860664,7z/data=!4m9!1m3!2m2!1sPharmacies+in+Tiznit+Morocco!6e2!3m4!1s0xda7cd6109e616e7:0x592b96ad5928db4!8m2!3d33.5746406!4d-7.5465672?hl=en","HFF3+V9 Casablanca, Morocco","33,5746406","-7,5465672",Pharmacy,ok
Pharmacie Abouab Essalam,+212 5220-10721,Casablanca,,"lotiss. Essalam II, Lot J 38 Quartier Sidi Moumen، N9, Casablanca, Morocco","https://www.google.com/maps/place/Pharmacie+Abouab+Essalam/@33.6292043,-7.6253702,11z/data=!4m9!1m3!2m2!1sPharmacies+in+Mohammedia+Morocco!6e2!3m4!1s0xda7cb27c113e5ab:0xfd9493f935e2b813!8m2!3d33.5810326!4d-7.479604?hl=en","HGJC+C5 Casablanca, Morocco","33,5810326","-7,479604",Pharmacy,ok
Pharmacie Achraf,,Casablanca,,"cnprint, Casablanca, Morocco","https://www.google.com/maps/place/Pharmacie+Achraf/@33.5700607,-7.6520094,14z/data=!4m9!1m3!2m2!1sPharmacies+in+Bouznika+Morocco!6e2!3m4!1s0xda7d305fcd6b477:0x5dd37c40fe6c6676!8m2!3d33.5700607!4d-7.6344999?hl=en","H9C8+26 Casablanca, Morocco","33,5700607","-7,6344999",Pharmacy,ok
Pharmacie Addiar,,Casablanca,,"Rue 10, Casablanca, Morocco","https://www.google.com/maps/place/Pharmacie+Addiar/@33.5309351,-7.6791321,12z/data=!4m9!1m3!2m2!1sPharmacies+in+Casablanca+Morocco!6e2!3m4!1s0xda6329d1be182ad:0x8689a9fe6cf9474d!8m2!3d33.5309351!4d-7.6090943?hl=en","G9JR+99 Casablanca, Morocco","33,5309351","-7,6090943",Pharmacy,ok
Pharmacie Ahmed Ali,+212 5229-73216,Casablanca,,"Lotissement El Fath 2, Casablanca, Morocco","https://www.google.com/maps/place/Pharmacie+Ahmed+Ali/@33.5390365,-7.7191704,12z/data=!4m9!1m3!2m2!1sPharmacies+in+Casablanca+Morocco!6e2!3m4!1s0xda62d221929e1cb:0xe6d81dee1e837ab0!8m2!3d33.5390365!4d-7.6491326?hl=en","G9Q2+J8 Casablanca, Morocco","33,5390365","-7,6491326",Pharmacy,ok
Pharmacie AIDA,+212 5222-63253,Casablanca,,"196 Boulevard Mohamed Zerktouni, Casablanca 20250, Morocco","https://www.google.com/maps/place/Pharmacie+AIDA/@33.5811281,-7.7160394,12z/data=!4m9!1m3!2m2!1sPharmacies+in+Casablanca+Morocco!6e2!3m4!1s0xda7d294e621e55d:0x8a639acbbe43f109!8m2!3d33.5869588!4d-7.6314973?hl=en","H9P9+QC Casablanca, Morocco","33,5869588","-7,6314973",Pharmacy,ok
Pharmacie Ain harrouda,,Casablanca,Aïn Harrouda,"Boulevard Ibn Rochd, Âïn-Harrouda, Morocco","https://www.google.com/maps/place/Pharmacie+Ain+harrouda/@33.6843399,-7.461493,12z/data=!4m9!1m3!2m2!1sPharmacies+in+Mohammedia+Morocco!6e2!3m4!1s0xda7ca12e625fac1:0x7c3e2aa2eb1e0cc3!8m2!3d33.6406267!4d-7.451005?hl=en","JGRX+7H Aïn Harrouda, Morocco","33,6406267","-7,451005",Pharmacy,ok
Pharmacie Aït Taleb,,Casablanca,Aïn Harrouda,"Boulevard Al Fath, Âïn-Harrouda, Morocco","https://www.google.com/maps/place/Pharmacie+A%C3%AFt+Taleb/@33.636261,-7.5231939,12z/data=!4m9!1m3!2m2!1sPharmacies+in+Mohammedia+Morocco!6e2!3m4!1s0xda7ca6c8afc1a4b:0x3a1fffc60d330421!8m2!3d33.636261!4d-7.4531561?hl=en","JGPW+GP Aïn Harrouda, Morocco","33,636261","-7,4531561",Pharmacy,ok
Pharmacie AL ALIA,+212 5222-37928,Casablanca,,"83 Boulevard Al Massira Al Khadra, Casablanca 20250, Morocco","https://www.google.com/maps/place/Pharmacy+AL+ALIA/@33.5811281,-7.7160394,12z/data=!4m9!1m3!2m2!1sPharmacies+in+Casablanca+Morocco!6e2!3m4!1s0xda7d2e918635217:0x7310e0686bd4edd6!8m2!3d33.5870512!4d-7.6407216?hl=en","H9P5+RP Casablanca, Morocco","33,5870512","-7,6407216",Pharmacy,ok
Pharmacie Al Antaria,+212 5223-56629,Casablanca,,"Casablanca 20250, Morocco","https://www.google.com/maps/place/Pharmacie+Al+Antaria/@33.5811281,-7.7160394,12z/data=!4m9!1m3!2m2!1sPharmacies+in+Casablanca+Morocco!6e2!3m4!1s0xda7ccbfe50e5d91:0x99bfd1308bc4de4b!8m2!3d33.5881865!4d-7.5455756?hl=en","HFQ3+7Q Casablanca, Morocco","33,5881865","-7,5455756",Pharmacy,ok
Pharmacie Al Azhar,+212 5222-15966,Casablanca,,"Casablanca, Morocco","https://www.google.com/maps/place/Pharmacie+Al+Azhar/@33.5811281,-7.7160394,12z/data=!4m9!1m3!2m2!1sPharmacies+in+Casablanca+Morocco!6e2!3m4!1s0xda632bea086a5ff:0xcf424daa593a51ce!8m2!3d33.5455751!4d-7.5951338?hl=en","GCW3+6W Casablanca, Morocco","33,5455751","-7,5951338",Pharmacy,ok
Pharmacie Al Azhar Bernoussi,+212 5227-56120,Casablanca,,"Casablanca, Morocco","https://www.google.com/maps/place/Pharmacie+Al+Azhar+Bernoussi/@33.6331799,-7.5445652,12z/data=!4m9!1m3!2m2!1sPharmacies+in+Mohammedia+Morocco!6e2!3m4!1s0xda7cafd94376f77:0xa4dfed2eda2c5edc!8m2!3d33.6077647!4d-7.4802719?hl=en","JG59+4V Casablanca, Morocco","33,6077647","-7,4802719",Pharmacy,ok
Pharmacie Al Azhar صيدلية الأزهر,+212 5229-09447,Casablanca,,"Quartier Lissasfa (route d'El Jadida), q. AlFarah Dar Essalam Gh 42 n°8، Casablanca, Morocco","https://www.google.com/maps/place/Pharmacie+Al+Azhar+%D8%B5%D9%8A%D8%AF%D9%84%D9%8A%D8%A9+%D8%A7%D9%84%D8%A3%D8%B2%D9%87%D8%B1%E2%80%AD/@33.5811281,-7.7160394,12z/data=!4m9!1m3!2m2!1sPharmacies+in+Casablanca+Morocco!6e2!3m4!1s0xda62ca06757bb3f:0xfd1d8ff1dc86dc05!8m2!3d33.5383823!4d-7.6950703?hl=en","G8Q3+9X Casablanca, Morocco","33,5383823","-7,6950703",Pharmacy,ok
Pharmacie Al Badr,,Casablanca,Tit Mellil,"Tit Mellil, Morocco","https://www.google.com/maps/place/Pharmacie+Al+Badr/@33.5811281,-7.7160394,12z/data=!4m9!1m3!2m2!1sPharmacies+in+Casablanca+Morocco!6e2!3m4!1s0xda7caccd1415873:0xbaac2249940a9dc2!8m2!3d33.573646!4d-7.4691762?hl=en","HGFJ+F8 Tit Mellil, Morocco","33,573646","-7,4691762",Pharmacy,ok
Pharmacie Al Boudour صيدلية البدور,+212 5228-60468,Casablanca,,"115 Rue de Ceuta, Casablanca 20250, Morocco","https://www.google.com/maps/place/Pharmacie+Al+Boudour+%D8%B5%D9%8A%D8%AF%D9%84%D9%8A%D8%A9+%D8%A7%D9%84%D8%A8%D8%AF%D9%88%D8%B1%E2%80%AD/@33.5811281,-7.7160394,12z/data=!4m9!1m3!2m2!1sPharmacies+in+Casablanca+Morocco!6e2!3m4!1s0xda7d2a3db5f6657:0x9234baa0ab14f198!8m2!3d33.5792754!4d-7.6174052?hl=en","H9HM+P2 Casablanca, Morocco","33,5792754","-7,6174052",Pharmacy,ok
Pharmacie Al Fidae صيدلية الفداء,+212 5222-81237,Casablanca,,"Boulevard El Fida, Casablanca 20250, Morocco","https://www.google.com/maps/place/%D8%B5%D9%8A%D8%AF%D8%A7%D9%8A%D8%A9+%D8%A7%D9%84%D9%81%D8%AF%D8%A7%D8%A1.%E2%80%AD/@33.5811281,-7.7160394,12z/data=!4m9!1m3!2m2!1sPharmacies+in+Casablanca+Morocco!6e2!3m4!1s0xda7cd53952a4779:0x220e51e7ead5a42!8m2!3d33.5675929!4d-7.6058185?hl=en","H99V+2M Casablanca, Morocco","33,5675929","-7,6058185",Pharmacy,ok
Pharmacie Al Hamd,+212 5227-36203,Casablanca,,"Boulevard Qadi Ayad, Casablanca, Morocco","https://www.google.com/maps/place/Pharmacie+Al+Hamd/@33.6614948,-7.5366037,11z/data=!4m9!1m3!2m2!1sPharmacies+in+Mohammedia+Morocco!6e2!3m4!1s0xda7ca54df881d4f:0x4d932e1e46bafaa5!8m2!3d33.6177821!4d-7.4801874?hl=en","JG99+4W Casablanca, Morocco","33,6177821","-7,4801874",Pharmacy,ok
Pharmacie Al Kasbat,,Casablanca,,"Casablanca, Morocco","https://www.google.com/maps/place/Pharmacie+Al+Kasbat/@32.9945585,-8.1797067,9z/data=!4m9!1m3!2m2!1sPharmacies+in+Settat+Morocco!6e2!3m4!1s0xda62c97bced7125:0xe0ad129d197443ae!8m2!3d33.5336505!4d-7.6857646?hl=en","G8M7+FM Casablanca, Morocco","33,5336505","-7,6857646",Pharmacy,ok
Pharmacie AL MAHD,+212 662-230016,Casablanca,Aïn Harrouda,"N1, Aïn Harrouda, Morocco","https://www.google.com/maps/place/PHARMACIE+AL+MAHD/@33.6419948,-7.4987465,12z/data=!4m9!1m3!2m2!1sPharmacies+in+Mohammedia+Morocco!6e2!3m4!1s0xda7b5f6fa70d8b1:0xd82e2d7a46d2c3e9!8m2!3d33.6419948!4d-7.4287087?hl=en","JHRC+QG Aïn Harrouda, Morocco","33,6419948","-7,4287087",Pharmacy,ok
Pharmacie Al Mamounia,+212 5222-45642,Casablanca,,"N, 20 Boulevard Sidi Mohamed Ben Abdellah, Casablanca 20250, Morocco","https://www.google.com/maps/place/Pharmacie+Al+Mamounia/@33.6292043,-7.6253702,11z/data=!4m9!1m3!2m2!1sPharmacies+in+Mohammedia+Morocco!6e2!3m4!1s0xda7cdc9ddb96a35:0x99771744261e4f15!8m2!3d33.5902019!4d-7.5930236?hl=en","HCR4+3Q Casablanca, Morocco","33,5902019","-7,5930236",Pharmacy,ok
Pharmacie Al Massira,+212 5354-30094,Casablanca,,"32 Avenue Massira Hmimid, Rue El Hajeb, Casablanca 20100, Morocco","https://www.google.com/maps/place/Pharmacie+Al+Massira/@33.6614948,-7.5366037,11z/data=!4m9!1m3!2m2!1sPharmacies+in+Mohammedia+Morocco!6e2!3m4!1s0xda7cba9b8ff844f:0x43541788f4ecb6e8!8m2!3d33.616041!4d-7.488687?hl=en","JG86+CG Casablanca, Morocco","33,616041","-7,488687",Pharmacy,ok
Pharmacie AL WAHDA,,Casablanca,,"Avenue du 10 Mars 1982, Casablanca, Morocco","https://www.google.com/maps/place/pharmacie+AL+WAHDA/@33.5455541,-7.6147468,12z/data=!4m9!1m3!2m2!1sPharmacies+in+Casablanca+Morocco!6e2!3m4!1s0xda633b3ab894ad9:0xdc5b642508b52df!8m2!3d33.5455541!4d-7.544709?hl=en","GFW4+64 Casablanca, Morocco","33,5455541","-7,544709",Pharmacy,ok
Pharmacie Albalsam,,Casablanca,,"A3, Casablanca, Morocco","https://www.google.com/maps/place/Pharmacie+Albalsam/@33.5903385,-7.6009721,12z/data=!4m9!1m3!2m2!1sPharmacies+in+Mohammedia+Morocco!6e2!3m4!1s0xda7cd6bf8da3e0b:0x3044111ab121ffd3!8m2!3d33.5903385!4d-7.5309343?hl=en","HFR9+4J Casablanca, Morocco","33,5903385","-7,5309343",Pharmacy,ok
Pharmacie Alokhowa,,Casablanca,,"Casablanca, Morocco","https://www.google.com/maps/place/pharmacie+Alokhowa/@32.9945585,-8.1797067,9z/data=!4m9!1m3!2m2!1sPharmacies+in+Settat+Morocco!6e2!3m4!1s0xda632c86f7297bb:0xef891d5290f11063!8m2!3d33.5536546!4d-7.5877843?hl=en","HC36+FV Casablanca, Morocco","33,5536546","-7,5877843",Pharmacy,ok
Pharmacie Alquodous,+212 5229-32675,Casablanca,,"Casablanca, Morocco","https://www.google.com/maps/place/Pharmacie+Alquodous/@33.5367201,-7.7526753,12z/data=!4m9!1m3!2m2!1sPharmacies+in+Casablanca+Morocco!6e2!3m4!1s0xda62cbdef62d44f:0xd0b8018a35a4d07b!8m2!3d33.5367201!4d-7.6826375?hl=en","G8P8+MW Casablanca, Morocco","33,5367201","-7,6826375",Pharmacy,ok
Pharmacie Altcherq,,Casablanca,,"Casablanca 20250, Morocco","https://www.google.com/maps/place/Pharmacy+Altcherq/@33.5811281,-7.7160394,12z/data=!4m9!1m3!2m2!1sPharmacies+in+Casablanca+Morocco!6e2!3m4!1s0xda7ccaa06285925:0xc32f7452c4dd24a2!8m2!3d33.5726445!4d-7.524929?hl=en","HFFG+32 Casablanca, Morocco","33,5726445","-7,524929",Pharmacy,ok
Pharmacie Amine,+212 5229-72585,Casablanca,,"Lotissement Amine Lot N65, Casablanca 20190, Morocco","https://www.google.com/maps/place/Pharmacie+Amine/@33.5175964,-7.6709579,14z/data=!4m9!1m3!2m2!1sPharmacies+in+Sidi+Slimane+Morocco!6e2!3m4!1s0xda62d0037e1832f:0x3f1933a63ad816ec!8m2!3d33.5175964!4d-7.6534484?hl=en","G89W+2J Casablanca, Morocco","33,5175964","-7,6534484",Pharmacy,ok
Pharmacie Amira Malak Elyamani,,Casablanca,,"Boulevard Al Massira Al Khadra, Casablanca 20250, Morocco","https://www.google.com/maps/place/Pharmacie+Amira+Malak+Elyamani/@33.5811281,-7.7160394,12z/data=!4m9!1m3!2m2!1sPharmacies+in+Casablanca+Morocco!6e2!3m4!1s0xda7d2e96129df55:0xfd5b9d63187397bc!8m2!3d33.5870643!4d-7.6387699?hl=en","H9P6+RF Casablanca, Morocco","33,5870643","-7,6387699",Pharmacy,ok
Pharmacie Andalous,,Casablanca,,"Boulevard Panoramique, Casablanca, Morocco","https://www.google.com/maps/place/Pharmacie+Andalous/@33.5811281,-7.7160394,12z/data=!4m9!1m3!2m2!1sPharmacies+in+Casablanca+Morocco!6e2!3m4!1s0xda6338974c150d5:0xc94b4aaa844d0e7e!8m2!3d33.5539022!4d-7.6038141?hl=en","H93W+HF Casablanca, Morocco","33,5539022","-7,6038141",Pharmacy,ok
Pharmacie Annahda,+212 5227-51234,Casablanca,,"Casablanca, Morocco","https://www.google.com/maps/place/Pharmacie+Annahda/@33.5908146,-7.642096,11z/data=!4m9!1m3!2m2!1sPharmacies+in+Mohammedia+Morocco!6e2!3m4!1s0xda7cb3feef8ca7f:0xa5e009240ab74867!8m2!3d33.5908146!4d-7.5020203?hl=en","HFRX+85 Casablanca, Morocco","33,5908146","-7,5020203",Pharmacy,ok
Pharmacie Aoussred,+212 5288-97536,Casablanca,,"Boulevard Dakhla, 73000, Morocco","https://www.google.com/maps/place/Pharmacie+Aoussred/@33.5811281,-7.7160394,12z/data=!4m9!1m3!2m2!1sPharmacies+in+Casablanca+Morocco!6e2!3m4!1s0xda633e11be59091:0x3b46fb90bf3689b2!8m2!3d33.5501759!4d-7.5805996?hl=en","HC29+3Q Casablanca, Morocco","33,5501759","-7,5805996",Pharmacy,ok
Pharmacie Arafat,+212 5227-40724,Casablanca,,"Casablanca, Morocco","https://www.google.com/maps/place/Pharmacie+Arafat/@33.6049426,-7.555513,12z/data=!4m9!1m3!2m2!1sPharmacies+in+Mohammedia+Morocco!6e2!3m4!1s0xda7cb033fffffff:0x5881440ea54999e6!8m2!3d33.6049426!4d-7.4854752?hl=en","JG37+XR Casablanca, Morocco","33,6049426","-7,4854752",Pharmacy,ok
Pharmacie Arrochd,+212 5228-93989,Casablanca,,"Hay Nassim, Mosqu?e Fatna Bokchane N? 2, 20190 Quartier: Oulfa, Casablanca 20100, Morocco","https://www.google.com/maps/place/Pharmacie+Arrochd/@33.2679611,-7.8590119,10z/data=!4m9!1m3!2m2!1sPharmacies+in+Berrechid+Morocco!6e2!3m4!1s0xda632ee63dcf59f:0x2dd5101690a9b79!8m2!3d33.533333!4d-7.583333?hl=en",,"33,533333","-7,583333",Pharmacy,ok
Pharmacie Asmara صيدلية اسمارة,+212 5226-09130,Casablanca,,"43 Boulevard Ali Yaata (Foum Lahc Lotissement Smara, Casablanca 20100, Morocco","https://www.google.com/maps/place/%D8%B5%D9%8A%D8%AF%D9%84%D9%8A%D8%A9+%D8%A7%D8%B3%D9%85%D8%A7%D8%B1%D8%A9%E2%80%AD/@33.5938253,-43.417435,3z/data=!4m8!1m2!2m1!1sPharmacies+in+Smara+Morocco!3m4!1s0xda7cce5e3763427:0xd48256198aefa5f0!8m2!3d33.5938253!4d-7.55806?hl=en","HCVR+GQ Casablanca, Morocco","33,5938253","-7,55806",Pharmacy,ok
Pharmacie Aswak Aljoumla,+212 5225-94582,Casablanca,,"Avenue Du Dix Mars, Lotiss. Fadi, N?29, 20700 Quartier: Sidi Oth, Casablanca 20100, Morocco","https://www.google.com/maps/place/Pharmacie+Aswak+Aljoumla/@33.5811281,-7.7160394,12z/data=!4m9!1m3!2m2!1sPharmacies+in+Casablanca+Morocco!6e2!3m4!1s0xda632ee63dcf59f:0x1d71744513721ce4!8m2!3d33.533333!4d-7.583333?hl=en",,"33,533333","-7,583333",Pharmacy,ok
Pharmacie Athina,,Casablanca,,"Rue 6, Casablanca 20250, Morocco","https://www.google.com/maps/place/pharmacie+Athina/@33.6331799,-7.5445652,12z/data=!4m9!1m3!2m2!1sPharmacies+in+Mohammedia+Morocco!6e2!3m4!1s0xda7cbd1515fd8cf:0xe9dfe8e42e36ed96!8m2!3d33.6045805!4d-7.520708?hl=en","JF3H+RP Casablanca, Morocco","33,6045805","-7,520708",Pharmacy,ok
Pharmacie Athina,+212 656-238485,Casablanca,,"Cit? Chabab, Grp. C 2 N?7 Ain Sebaa, Quartier: A?n Seba?, Casablanca 20100, Morocco","https://www.google.com/maps/place/Pharmacie+Athina/@33.5881025,-7.6190063,13z/data=!4m9!1m3!2m2!1sPharmacies+in+Mohammedia+Morocco!6e2!3m4!1s0xda7cc8d3eb542cd:0x206b7c5c3448475e!8m2!3d33.601564!4d-7.545368?hl=en",,"33,601564","-7,545368",,ok
Pharmacie Atiki Darwa,,Casablanca,,"Boulevard El Qods, Casablanca, Morocco","https://www.google.com/maps/place/Pharmacie+Atiki+Darwa/@33.5811281,-7.7160394,12z/data=!4m9!1m3!2m2!1sPharmacies+in+Casablanca+Morocco!6e2!3m4!1s0xda63297c7c46e11:0x5811eb4a91b0651d!8m2!3d33.5397123!4d-7.5986024?hl=en","GCQ2+VH Casablanca, Morocco","33,5397123","-7,5986024",Pharmacy,ok
Pharmacie Attaqwa,,Casablanca,,"Rue L, Casablanca, Morocco","https://www.google.com/maps/place/Pharmacie+Attaqwa/@33.5811281,-7.7160394,12z/data=!4m9!1m3!2m2!1sPharmacies+in+Casablanca+Morocco!6e2!3m4!1s0xda632d9fb20c935:0x8c122f541c4b44d7!8m2!3d33.553238!4d-7.5729062?hl=en","HC3G+7R Casablanca, Morocco","33,553238","-7,5729062",Homeopathic pharmacy,ok
Pharmacie AYA صيدلية اية,+212 5376-93388,Casablanca,,"Kebibate, Rabat, Morocco","https://www.google.com/maps/place/PHARMACIE+AYA+%D8%B5%D9%8A%D8%AF%D9%84%D9%8A%D8%A9+%D8%A7%D9%8A%D8%A9%E2%80%AD/@33.2679611,-7.8590119,10z/data=!4m9!1m3!2m2!1sPharmacies+in+Berrechid+Morocco!6e2!3m4!1s0xda6329bd97d43af:0x46d03270b5c02eaf!8m2!3d33.5347382!4d-7.6041742?hl=en","G9MW+V8 Casablanca, Morocco","33,5347382","-7,6041742",Pharmacy,ok
Pharmacie AZZAHRA,+212 5226-58247,Casablanca,,"CENTRE COMMERCIAL AL AZHAR GH A2 MAG 16 HAY HASSANI CASABLNCAa,، Morocco","https://www.google.com/maps/place/PHARMACIE+AZZAHRA/@33.5811281,-7.7160394,12z/data=!4m9!1m3!2m2!1sPharmacies+in+Casablanca+Morocco!6e2!3m4!1s0xda62ca841d16e23:0x75a5ad66305a892!8m2!3d33.5469262!4d-7.6959709?hl=en","G8W3+QJ Casablanca, Morocco","33,5469262","-7,6959709",Pharmacy,ok
Pharmacie Bab Echifa,+212 5229-75465,Casablanca,,"Route 109,douar drabna , sidi maarouf، Casablanca 20180, Morocco","https://www.google.com/maps/place/Pharmacie+Bab+Echifa/@32.9945585,-8.1797067,9z/data=!4m9!1m3!2m2!1sPharmacies+in+Settat+Morocco!6e2!3m4!1s0xda62cdfc7690e43:0x96b1d7525eed2a96!8m2!3d33.5066696!4d-7.6298859?hl=en","G94C+M2 Casablanca, Morocco","33,5066696","-7,6298859",Pharmacy,ok
Pharmacie Bab MARRAKECH,+212 5222-61207,Casablanca,,"زنقة موحى وسعيد، Casablanca 20250, Morocco","https://www.google.com/maps/place/Pharmacie+Bab+MARRAKECH/@33.5811281,-7.7160394,12z/data=!4m9!1m3!2m2!1sPharmacies+in+Casablanca+Morocco!6e2!3m4!1s0xda7d28578093f67:0xf485e2e0b2cd8998!8m2!3d33.5980008!4d-7.6214971?hl=en","H9XH+6C Casablanca, Morocco","33,5980008","-7,6214971",Pharmacy,ok
Pharmacie Bachkou,+212 5228-33545,Casablanca,,"Casablanca, Morocco","https://www.google.com/maps/place/Pharmacie+Bachkou/@33.5811281,-7.7160394,12z/data=!4m9!1m3!2m2!1sPharmacies+in+Casablanca+Morocco!6e2!3m4!1s0xda62d496705350f:0xa655fab9ec7f956f!8m2!3d33.5552146!4d-7.6293713?hl=en","H94C+37 Casablanca, Morocco","33,5552146","-7,6293713",Pharmacy,ok
Pharmacie Badiâ,+212 5229-13873,Casablanca,,"20000, Casablanca 20000, Morocco","https://www.google.com/maps/place/Pharmacie+Badi%C3%A2/@33.5811281,-7.7160394,12z/data=!4m9!1m3!2m2!1sPharmacies+in+Casablanca+Morocco!6e2!3m4!1s0xda7d4a4615fbf87:0x86afebbcf13f45d6!8m2!3d33.5722849!4d-7.7061035?hl=en","H7CV+WH Casablanca, Morocco","33,5722849","-7,7061035",Pharmacy,ok
Pharmacie Balsam Al Yassamine,+212 5226-50510,Casablanca,,"Casablanca, Morocco","https://www.google.com/maps/place/Pharmacie+Balsam+Al+Yassamine/@33.5811281,-7.7160394,12z/data=!4m9!1m3!2m2!1sPharmacies+in+Casablanca+Morocco!6e2!3m4!1s0xda62cbd4f81497d:0xb3a7a663c619e94b!8m2!3d33.5363974!4d-7.6867088?hl=en","G8P7+H8 Casablanca, Morocco","33,5363974","-7,6867088",Pharmacy,ok
Pharmacie BASSATINE AL AZHAR,+212 5226-57948,Casablanca,,"GH48B, imm. 176, N°16 AL AZHAR HAY HASSANI، Casablanca 20000, Morocco","https://www.google.com/maps/place/PHARMACIE+BASSATINE+AL+AZHAR/@33.5811281,-7.7160394,12z/data=!4m9!1m3!2m2!1sPharmacies+in+Casablanca+Morocco!6e2!3m4!1s0xda62ca64347ecb1:0xf2bfaef9b92f70ee!8m2!3d33.544163!4d-7.694414?hl=en","G8V4+M6 Casablanca, Morocco","33,544163","-7,694414",Pharmacy,ok
Pharmacie BASSATINE صيدلية بساتن,,Casablanca,,"Casablanca 20670, Morocco","https://www.google.com/maps/place/PHARMACIE+BASSATINE+%D8%B5%D9%8A%D8%AF%D9%84%D9%8A%D8%A9+%D8%A8%D8%B3%D8%A7%D8%AA%D9%86%E2%80%AD/@33.5811281,-7.7160394,12z/data=!4m9!1m3!2m2!1sPharmacies+in+Casablanca+Morocco!6e2!3m4!1s0xda63348db2dc839:0x9ff18e10922948c2!8m2!3d33.5577042!4d-7.5418521?hl=en","HF55+37 Casablanca, Morocco","33,5577042","-7,5418521",Pharmacy,ok
Pharmacie Bella Madina,+212 5225-25808,Casablanca,,"98 Avenue Tetouan, Casablanca, Morocco","https://www.google.com/maps/place/Pharmacie+Bella+Madina/@33.5339537,-7.7058256,12z/data=!4m9!1m3!2m2!1sPharmacies+in+Casablanca+Morocco!6e2!3m4!1s0xda62d14882517e1:0x7a014f3c4bcf136a!8m2!3d33.5339537!4d-7.6357878?hl=en","G9M7+HM Casablanca, Morocco","33,5339537","-7,6357878",Pharmacy,ok
Pharmacie Belvedere,+212 5222-42643,Casablanca,,"Casablanca, Morocco","https://www.google.com/maps/place/Pharmacie+Belvedere/@33.5811281,-7.7160394,12z/data=!4m9!1m3!2m2!1sPharmacies+in+Casablanca+Morocco!6e2!3m4!1s0xda7cd6c61fe7075:0xfe92dfe7adc536e2!8m2!3d33.5925353!4d-7.5924756?hl=en","HCV5+22 Casablanca, Morocco","33,5925353","-7,5924756",Pharmacy,ok
Pharmacie Benjdia,+212 5223-16689,Casablanca,,"Benjdia, 12, Rue De Metz, Lot Essaada, 20120 Quartier:, Casablanca 20100, Morocco","https://www.google.com/maps/place/Pharmacie+Benjdia/@33.5811281,-7.7160394,12z/data=!4m9!1m3!2m2!1sPharmacies+in+Casablanca+Morocco!6e2!3m4!1s0xda7cd608242064f:0x5ad9e78fb02090a7!8m2!3d33.5850127!4d-7.6082638?hl=en","H9PR+2M Casablanca, Morocco","33,5850127","-7,6082638",Pharmacy,ok
Pharmacie Bennour,+212 5225-53316,Casablanca,,"Casablanca, Morocco","https://www.google.com/maps/place/Pharmacie+Bennour/@33.5605077,-7.6033806,13z/data=!4m9!1m3!2m2!1sPharmacies+in+Sidi+Bennour+Morocco!6e2!3m4!1s0xda632d5f6b7c233:0x87693a96a85431a8!8m2!3d33.5605077!4d-7.5683617?hl=en","HC6J+6M Casablanca, Morocco","33,5605077","-7,5683617",Pharmacy,ok
Pharmacie Bensalah,+212 5227-00569,Casablanca,,"26, Avenue Sa?d Abou Jemaa, 20670 Quartier: Hay Moulay Rachid, Casablanca 20100, Morocco","https://www.google.com/maps/place/Pharmacie+Bensalah/@33.5811281,-7.7160394,12z/data=!4m9!1m3!2m2!1sPharmacies+in+Casablanca+Morocco!6e2!3m4!1s0xda7cccf41a7bb5b:0x7dc01ff1afa46cf6!8m2!3d33.5760182!4d-7.5529974?hl=en","HCGW+CR Casablanca, Morocco","33,5760182","-7,5529974",Pharmacy,ok
Pharmacie Besmi Allah,,Casablanca,,"75 Rue 22, Casablanca, Morocco","https://www.google.com/maps/place/Pharmacie+Besmi+Allah/@33.5811281,-7.7160394,12z/data=!4m9!1m3!2m2!1sPharmacies+in+Casablanca+Morocco!6e2!3m4!1s0xda632c3c736104b:0xa46fecf79a49aacf!8m2!3d33.5457495!4d-7.5830501?hl=en","GCW8+7Q Casablanca, Morocco","33,5457495","-7,5830501",Pharmacy,ok
Pharmacie Bin Lamdoune,+212 5222-81424,Casablanca,,"Cooperative El Fida 2, Casablanca 20100, Morocco","https://www.google.com/maps/place/Pharmacie+Bin+Lamdoune/@33.5372499,-7.6690569,14z/data=!4m9!1m3!2m2!1sPharmacies+in+Khouribga+Morocco!6e2!3m4!1s0xda62d1f7b0fffff:0x26b4effed0fae597!8m2!3d33.5372499!4d-7.6515474?hl=en",,"33,5372499","-7,6515474",Pharmacy,ok
Pharmacie Bnou Zohr,+212 5229-02067,Casablanca,,"Casablanca, Morocco","https://www.google.com/maps/place/Pharmacie+Bnou+Zohr/@33.5811281,-7.7160394,12z/data=!4m9!1m3!2m2!1sPharmacies+in+Casablanca+Morocco!6e2!3m4!1s0xda7d34ff022382d:0x157d46f6b4c81b36!8m2!3d33.5680119!4d-7.6871145?hl=en","H897+65 Casablanca, Morocco","33,5680119","-7,6871145",Pharmacy,ok
Pharmacie Borj Elbernoussi صيدلية برج البرنوصي,+212 5227-40685,Casablanca,,"612, Avenue Souhaib Erroumi -Ex H, Casablanca 20100, Morocco","https://www.google.com/maps/place/Pharmacie+Borj+Elbernoussi+%D8%B5%D9%8A%D8%AF%D9%84%D9%8A%D8%A9+%D8%A8%D8%B1%D8%AC+%D8%A7%D9%84%D8%A8%D8%B1%D9%86%D9%88%D8%B5%D9%8A%E2%80%AD/@33.6292043,-7.6253702,11z/data=!4m9!1m3!2m2!1sPharmacies+in+Mohammedia+Morocco!6e2!3m4!1s0xda7cb706dfdf53d:0xbf81a9189f0d068!8m2!3d33.6088302!4d-7.5007975?hl=en","JF5X+GM Casablanca, Morocco","33,6088302","-7,5007975",Pharmacy,ok
Pharmacie Bourgogne,,Casablanca,,"Casablanca 20250, Morocco","https://www.google.com/maps/place/Pharmacie+Bourgogne/@33.5811281,-7.7160394,12z/data=!4m9!1m3!2m2!1sPharmacies+in+Casablanca+Morocco!6e2!3m4!1s0xda7d2f228415665:0x369b726eadf8c2ad!8m2!3d33.5963857!4d-7.6384314?hl=en","H9W6+HJ Casablanca, Morocco","33,5963857","-7,6384314",Pharmacy,ok
Pharmacie Bouzoubaâ,+212 5229-84414,Casablanca,,"285, Bd Ghandi, 20390 Quartier: Al Batha, Casablanca 20100, Morocco","https://www.google.com/maps/place/Pharmacie+Bouzouba%C3%A2/@33.5811281,-7.7160394,12z/data=!4m9!1m3!2m2!1sPharmacies+in+Casablanca+Morocco!6e2!3m4!1s0xda7d2ce96efc839:0xc28def6acf5e8ab5!8m2!3d33.5671877!4d-7.6401098?hl=en","H985+VX Casablanca, Morocco","33,5671877","-7,6401098",Pharmacy,ok
Pharmacie Btissam,,Casablanca,,"Casablanca, Morocco","https://www.google.com/maps/place/Pharmacie+Btissam/@33.506484,-7.6756226,14z/data=!4m9!1m3!2m2!1sPharmacies+in+Settat+Morocco!6e2!3m4!1s0xda62c52525d48cd:0x9d55f014cc3c933d!8m2!3d33.506484!4d-7.6581131?hl=en","G84R+HQ Casablanca, Morocco","33,506484","-7,6581131",Pharmacy,ok
Pharmacie Californie صيدلية كاليفورنيا,+212 5225-21999,Casablanca,,"435, Bd Panoramique, 20460 Quartier: A?n Chok, Casablanca 20100, Morocco","https://www.google.com/maps/place/%D8%B5%D9%8A%D8%AF%D9%84%D9%8A%D8%A9+%D9%83%D8%A7%D9%84%D9%8A%D9%81%D9%88%D8%B1%D9%86%D9%8A%D8%A7%E2%80%AD/@33.550064,-7.6910934,12z/data=!4m9!1m3!2m2!1sPharmacies+in+Casablanca+Morocco!6e2!3m4!1s0xda632ee63dcf59f:0xc835532c334c8026!8m2!3d33.550064!4d-7.6210556?hl=en","H92H+2H Casablanca, Morocco","33,550064","-7,6210556",Pharmacy,ok
Pharmacie Camya,+212 5225-80842,Casablanca,,"Casablanca, Morocco","https://www.google.com/maps/place/Pharmacie+Camya/@33.5811281,-7.7160394,12z/data=!4m9!1m3!2m2!1sPharmacies+in+Casablanca+Morocco!6e2!3m4!1s0xda62d0720f5ddd1:0x8fade262e1345d77!8m2!3d33.5183022!4d-7.6482499?hl=en","G992+8P Casablanca, Morocco","33,5183022","-7,6482499",Pharmacy,ok
Pharmacie CASAVIEW,+212 5226-96464,Casablanca,,"Centre commercial Casaview, Mag N°1 Nassim, Casablanca, Morocco","https://www.google.com/maps/place/Pharmacie+CASAVIEW/@33.2679611,-7.8590119,10z/data=!4m9!1m3!2m2!1sPharmacies+in+Berrechid+Morocco!6e2!3m4!1s0xda62ddc73007821:0xcadcd47bb2f4857c!8m2!3d33.5091269!4d-7.6710427?hl=en","G85H+MH Casablanca, Morocco","33,5091269","-7,6710427",Pharmacy,ok
Pharmacie Centrale Aïn Borja,+212 5226-04176,Casablanca,,"Hay Arsalane, Rue 7 Lot. 82, 20320 Quartier:،, Casablanca, Morocco","https://www.google.com/maps/place/Pharmacie+Centrale+A%C3%AFn+Borja/@33.5811281,-7.7160394,12z/data=!4m9!1m3!2m2!1sPharmacies+in+Casablanca+Morocco!6e2!3m4!1s0xda7cd23ad06147f:0x525843ee924192ac!8m2!3d33.5823283!4d-7.5805217?hl=en","HCJ9+WQ Casablanca, Morocco","33,5823283","-7,5805217",Pharmacy,ok
Pharmacie Centre,+212 5224-05259,Casablanca,,"Boulevard Mohammed V, Casablanca 20250, Morocco","https://www.google.com/maps/place/Pharmacie+Centre/@33.5811281,-7.7160394,12z/data=!4m9!1m3!2m2!1sPharmacies+in+Casablanca+Morocco!6e2!3m4!1s0xda7cd6f7e6242b7:0x881f7131d4847013!8m2!3d33.5934823!4d-7.6004151?hl=en","H9VX+9R Casablanca, Morocco","33,5934823","-7,6004151",Pharmacy,ok
Pharmacie Chabab صيدلية الشباب,+212 5227-55916,Casablanca,,"Rue 1, Casablanca 20250, Morocco","https://www.google.com/maps/place/Pharmacie+Chabab+%D8%B5%D9%8A%D8%AF%D9%84%D9%8A%D8%A9+%D8%A7%D9%84%D8%B4%D8%A8%D8%A7%D8%A8%E2%80%AD/@33.5811281,-7.7160394,12z/data=!4m9!1m3!2m2!1sPharmacies+in+Casablanca+Morocco!6e2!3m4!1s0xda7cb7d9ee538fb:0xb3154e98a5a105fe!8m2!3d33.6042822!4d-7.5236168?hl=en","JF3G+PH Casablanca, Morocco","33,6042822","-7,5236168",Pharmacy,ok
Pharmacie Chafik,+212 5223-90480,Casablanca,,"Route D' Azemmour, Hay Elmassaoudi Rue 1 N?40 Bis, Casablanca 20100, Morocco","https://www.google.com/maps/place/Pharmacie+Chafik/@33.5811281,-7.7160394,12z/data=!4m9!1m3!2m2!1sPharmacies+in+Casablanca+Morocco!6e2!3m4!1s0xda632cc3d2cbb6b:0x44089e322242b46c!8m2!3d33.577329!4d-7.6828702?hl=en","H8G8+WV Casablanca, Morocco","33,577329","-7,6828702",Pharmacy,ok
Pharmacie Charai,+212 5227-26664,Casablanca,,"Hay Moulay Rachid, Grp. 2 Rue 45 N?9, Casablanca 20100, Morocco","https://www.google.com/maps/place/Pharmacie+Charai/@33.536173,-7.6509668,12z/data=!4m9!1m3!2m2!1sPharmacies+in+Casablanca+Morocco!6e2!3m4!1s0xda632ef320080fb:0x964b44ba2274f8e0!8m2!3d33.536173!4d-7.580929?hl=en","GCP9+FJ Casablanca, Morocco","33,536173","-7,580929",Pharmacy,ok
Pharmacie Chefchaouni,+212 5223-57879,Casablanca,,"168, Bd Chefchaouni, 20250 Quartier: A?n Seba?, Casablanca 20100, Morocco","https://www.google.com/maps/place/Pharmacie+Chefchaouni/@33.6292043,-7.6253702,11z/data=!4m9!1m3!2m2!1sPharmacies+in+Mohammedia+Morocco!6e2!3m4!1s0xda7cb8071e6e86b:0xb0e103b0c25cecf0!8m2!3d33.6139514!4d-7.5240697?hl=en","JF7G+H9 Casablanca, Morocco","33,6139514","-7,5240697",Pharmacy,ok
Pharmacie Chemins de Fer (حي السككيين),,Casablanca,,"Hay Sikakiine, Morocco","https://www.google.com/maps/place/Pharmacie+Chemins+de+Fer+(%D8%AD%D9%8A+%D8%A7%D9%84%D8%B3%D9%83%D9%83%D9%8A%D9%8A%D9%86)%E2%80%AD/@33.5811281,-7.7160394,12z/data=!4m9!1m3!2m2!1sPharmacies+in+Casablanca+Morocco!6e2!3m4!1s0xda7cd54533b19a5:0x5f3366cc037eeb70!8m2!3d33.5997181!4d-7.5642839?hl=en","HCXP+V7 Casablanca, Morocco","33,5997181","-7,5642839",Pharmacy,ok
Pharmacie Chrifa,+212 5225-23516,Casablanca,,"Casablanca, Morocco","https://www.google.com/maps/place/Pharmacie+Chrifa/@33.5346563,-7.6760443,12z/data=!4m9!1m3!2m2!1sPharmacies+in+Casablanca+Morocco!6e2!3m4!1s0xda6329c00a0de4d:0x938fd91df32d4cd9!8m2!3d33.5346563!4d-7.6060065?hl=en","G9MV+VH Casablanca, Morocco","33,5346563","-7,6060065",Pharmacy,ok
Pharmacie CLINIQUE ANDALOUS,+212 5223-97941,Casablanca,,"Clini.andalous, Casablanca 20250, Morocco","https://www.google.com/maps/place/Pharmacie+CLINIQUE+ANDALOUS/@33.5811281,-7.7160394,12z/data=!4m9!1m3!2m2!1sPharmacies+in+Casablanca+Morocco!6e2!3m4!1s0xda7d3fa17005c05:0xf92c46e7c311c261!8m2!3d33.5967861!4d-7.6546193?hl=en","H8WW+P5 Casablanca, Morocco","33,5967861","-7,6546193",Pharmacy,ok
Pharmacie dadi,,Casablanca,,"Boulevard Dakhla, Casablanca, Morocco","https://www.google.com/maps/place/pharmacie+dadi/@33.5456494,-7.6437425,12z/data=!4m9!1m3!2m2!1sPharmacies+in+Casablanca+Morocco!6e2!3m4!1s0xda632dc2bd89943:0x858d9a8b82884efd!8m2!3d33.5456494!4d-7.5737047?hl=en","GCWG+7G Casablanca, Morocco","33,5456494","-7,5737047",Pharmacy,ok
Pharmacie DAHA,+212 5223-55290,Casablanca,,"Lot daha, 48 bis Rue 7, Casablanca 20250, Morocco","https://www.google.com/maps/place/PHARMACIE+DAHA/@33.5811281,-7.7160394,12z/data=!4m9!1m3!2m2!1sPharmacies+in+Casablanca+Morocco!6e2!3m4!1s0xda7cc78c74d89a9:0x28f9fdb3a7081a67!8m2!3d33.6187573!4d-7.5261164?hl=en","JF9F+GH Casablanca, Morocco","33,6187573","-7,5261164",Pharmacy,ok
Pharmacie dar lamane,+212 5226-21353,Casablanca,,"Boulevard Ali Yaâta, Casablanca 20250, Morocco","https://www.google.com/maps/place/pharmacy+dar+lamane/@33.5811281,-7.7160394,12z/data=!4m9!1m3!2m2!1sPharmacies+in+Casablanca+Morocco!6e2!3m4!1s0xda7cd1e1f6f1265:0x4a826327e81ff643!8m2!3d33.5916044!4d-7.5682785?hl=en","HCRJ+JM Casablanca, Morocco","33,5916044","-7,5682785",Pharmacy,ok
Pharmacie Dawliz,,Casablanca,,"Casablanca 20250, Morocco","https://www.google.com/maps/place/Pharmacie+Dawliz/@33.6022756,-7.670801,14z/data=!4m9!1m3!2m2!1sPharmacies+in+Beni+Mellal+Morocco!6e2!3m4!1s0xda7d2ffb782ea17:0xc6f141f4bdeba152!8m2!3d33.6022756!4d-7.6532915?hl=en","J82W+WM Casablanca, Morocco","33,6022756","-7,6532915",Pharmacy,ok
Pharmacie de Casablanca,,Casablanca,,"Boulevard de la Croix, Casablanca 20250, Morocco","https://www.google.com/maps/place/Pharmacie+de+Casablanca/@33.5811281,-7.7160394,12z/data=!4m8!1m2!2m1!1sPharmacies+in+Casablanca+Morocco!3m4!1s0xda7cde7e3fe78dd:0xf298a4c94978d548!8m2!3d33.5748949!4d-7.590787?hl=en","HCF5+XM Casablanca, Morocco","33,5748949","-7,590787",Pharmacy,ok
Pharmacie de la découverte,+212 5229-73223,Casablanca,,"P3007, Casablanca, Morocco","https://www.google.com/maps/place/Pharmacie+de+la+d%C3%A9couverte/@32.7988416,-8.5590874,8z/data=!4m9!1m3!2m2!1sPharmacies+in+Essaouira+Morocco!6e2!3m4!1s0xda62dbeb20eebcd:0x79b3b1ccc5a5710c!8m2!3d33.5274531!4d-7.6497381?hl=en","G9G2+X4 Casablanca, Morocco","33,5274531","-7,6497381",Pharmacy,ok
Pharmacie De La Wilaya صيدلية الولاية,+212 5229-05113,Casablanca,,"Boulevard Moulouya, Casablanca, Morocco","https://www.google.com/maps/place/Pharmacie+De+La+Wilaya+%D8%B5%D9%8A%D8%AF%D9%84%D9%8A%D8%A9+%D8%A7%D9%84%D9%88%D9%84%D8%A7%D9%8A%D8%A9%E2%80%AD/@33.5811281,-7.7160394,12z/data=!4m9!1m3!2m2!1sPharmacies+in+Casablanca+Morocco!6e2!3m4!1s0xda62cb658141233:0xdcc1f82c279d3eb9!8m2!3d33.5506978!4d-7.6791624?hl=en","H82C+78 Casablanca, Morocco","33,5506978","-7,6791624",Pharmacy,ok
Pharmacie de l'oasis,,Casablanca,,"Casablanca, Morocco","https://www.google.com/maps/place/Pharmacie+de+l'oasis/@33.5811281,-7.7160394,12z/data=!4m9!1m3!2m2!1sPharmacies+in+Casablanca+Morocco!6e2!3m4!1s0xda62d35ee2ebf61:0x53299a878df939ea!8m2!3d33.5564203!4d-7.6338164?hl=en","H948+HF Casablanca, Morocco","33,5564203","-7,6338164",Pharmacy,ok
Pharmacie de l'oasis,+212 5222-53974,Casablanca,,,"https://www.google.com/maps/place/Pharmacie+de+l'oasis/@33.5811281,-7.7160394,12z/data=!4m9!1m3!2m2!1sPharmacies+in+Casablanca+Morocco!6e2!3m4!1s0xda62d013dd4bc57:0xa757e5cfa24578b0!8m2!3d33.5594559!4d-7.6363349?hl=en",,"33,5594559","-7,6363349",Pharmacy,ok
Pharmacie de l'Union,+212 5222-88677,Casablanca,,"6 Avenue abdellah, angle boulevard al fida, Casablanca, Morocco","https://www.google.com/maps/place/Pharmacie+de+l'Union/@33.5811281,-7.7160394,12z/data=!4m9!1m3!2m2!1sPharmacies+in+Casablanca+Morocco!6e2!3m4!1s0xda7cd48d9033c0d:0x3b8b9372e74ce44f!8m2!3d33.5720777!4d-7.5942388?hl=en","HCC4+R8 Casablanca, Morocco","33,5720777","-7,5942388",Pharmacy,ok
Pharmacie de picardie,+212 5222-67923,Casablanca,,"Casablanca 20250, Morocco","https://www.google.com/maps/place/Pharmacie+de+picardie/@33.5811281,-7.7160394,12z/data=!4m9!1m3!2m2!1sPharmacies+in+Casablanca+Morocco!6e2!3m4!1s0xda7d29480f66727:0xcf083038c24d219f!8m2!3d33.5889345!4d-7.6305118?hl=en","H9Q9+HQ Casablanca, Morocco","33,5889345","-7,6305118",Pharmacy,ok
Pharmacie Derb Bouchentouf صيدلية درب بوشنتوف,+212 5222-84524,Casablanca,,"Derb Bouchentouf, 223 Rue 40, 20550 Quartier: Nouvelle M?dina, Casablanca 20100, Morocco","https://www.google.com/maps/place/%D8%B5%D9%8A%D8%AF%D9%84%D9%8A%D8%A9+%D8%AF%D8%B1%D8%A8+%D8%A8%D9%88%D8%B4%D9%86%D8%AA%D9%88%D9%81%E2%80%AD/@33.5811281,-7.7160394,12z/data=!4m9!1m3!2m2!1sPharmacies+in+Casablanca+Morocco!6e2!3m4!1s0xda7cd56f06c98b3:0x5d6be63422538896!8m2!3d33.5700275!4d-7.6074743?hl=en","H9CV+22 Casablanca, Morocco","33,5700275","-7,6074743",Pharmacy,ok
Pharmacie Derb Tazi-صيدلية درب التازي,+212 5222-08574,Casablanca,,"22, Rue De Tiznit, 20030 Quartier: Bourgogne, Casablanca 20100, Morocco","https://www.google.com/maps/place/Pharmacie+Derb+Tazi-%D8%B5%D9%8A%D8%AF%D9%84%D9%8A%D8%A9+%D8%AF%D8%B1%D8%A8+%D8%A7%D9%84%D8%AA%D8%A7%D8%B2%D9%8A%E2%80%AD/@33.5811281,-7.7160394,12z/data=!4m9!1m3!2m2!1sPharmacies+in+Casablanca+Morocco!6e2!3m4!1s0xda7d261fd9e357d:0x1786753c35d24949!8m2!3d33.6060271!4d-7.6281927?hl=en","J94C+CP Casablanca, Morocco","33,6060271","-7,6281927",Pharmacy,ok
Pharmacie des autoroutes,+212 5226-09163,Casablanca,,"Hay Mohammedi - Sidi Moumen, Casablanca 20250, Morocco","https://www.google.com/maps/place/Pharmacie+des+autoroutes/@33.5811281,-7.7160394,12z/data=!4m9!1m3!2m2!1sPharmacies+in+Casablanca+Morocco!6e2!3m4!1s0xda7ccc4541079dd:0x5592d519bc9e1941!8m2!3d33.5802274!4d-7.5542343?hl=en","HCJW+38 Casablanca, Morocco","33,5802274","-7,5542343",Pharmacy,ok
Pharmacie des enfants,+212 5222-09044,Casablanca,,"34 Rue Ibnou Jahir, Casablanca 20040, Morocco","https://www.google.com/maps/place/Pharmacie+des+enfants/@33.5811281,-7.7160394,12z/data=!4m8!1m2!2m1!1sPharmacies+in+Casablanca+Morocco!3m4!1s0xda7d38b241a539f:0x4b99921c52d06979!8m2!3d33.601318!4d-7.6447178?hl=en","J924+G4 Casablanca, Morocco","33,601318","-7,6447178",Pharmacy,ok
Pharmacie Des Facultés,+212 5228-62301,Casablanca,,"20250, Casablanca, Morocco","https://www.google.com/maps/place/Pharmacie+Des+Facult%C3%A9s/@33.5811281,-7.7160394,12z/data=!4m9!1m3!2m2!1sPharmacies+in+Casablanca+Morocco!6e2!3m4!1s0xda7d2af7b9a0627:0xb58515986add0953!8m2!3d33.5722426!4d-7.619029?hl=en","H9CJ+V9 Casablanca, Morocco","33,5722426","-7,619029",Homeopathic pharmacy,ok
Pharmacie des générations,+212 5222-07333,Casablanca,,"Rue Jaber Ben Hayane, Casablanca 20250, Morocco","https://www.google.com/maps/place/Pharmacie+des+g%C3%A9n%C3%A9rations/@33.5811281,-7.7160394,12z/data=!4m9!1m3!2m2!1sPharmacies+in+Casablanca+Morocco!6e2!3m4!1s0xda7d28de10a4237:0x4b168c45cb521a5!8m2!3d33.5960312!4d-7.6278293?hl=en","H9WC+CV Casablanca, Morocco","33,5960312","-7,6278293",Pharmacy,ok
Pharmacie des Oudayas,+212 5226-00002,Casablanca,,"Rue des Oudayas, Casablanca 20320, Morocco","https://www.google.com/maps/place/Pharmacie+des+Oudayas/@33.5811281,-7.7160394,12z/data=!4m9!1m3!2m2!1sPharmacies+in+Casablanca+Morocco!6e2!3m4!1s0xda7cdd02eea6159:0x8fc73c88e47a3185!8m2!3d33.5885948!4d-7.5772204?hl=en","HCQF+C4 Casablanca, Morocco","33,5885948","-7,5772204",Pharmacy,ok
Pharmacie des Stades,+212 5222-54925,Casablanca,,"Casablanca, Morocco","https://www.google.com/maps/place/Pharmacie+des+Stades/@33.5811281,-7.7160394,12z/data=!4m9!1m3!2m2!1sPharmacies+in+Casablanca+Morocco!6e2!3m4!1s0xda7d2c24d4a00f1:0xc9f0b1a856515065!8m2!3d33.5801759!4d-7.6404866?hl=en","H9J5+3R Casablanca, Morocco","33,5801759","-7,6404866",Pharmacy,ok
Pharmacie Des Universités,+212 5229-95194,Casablanca,,"Casablanca, Morocco","https://www.google.com/maps/place/Pharmacie+Des+Universit%C3%A9s/@33.5811281,-7.7160394,12z/data=!4m9!1m3!2m2!1sPharmacies+in+Casablanca+Morocco!6e2!3m4!1s0xda62cdeedbce137:0xd864c7397f9c521d!8m2!3d33.5408662!4d-7.6586619?hl=en","G8RR+8G Casablanca, Morocco","33,5408662","-7,6586619",Pharmacy,ok
Pharmacie Dr.SALAH,,Casablanca,Aïn Harrouda,"Aïn Harrouda, Morocco","https://www.google.com/maps/place/Pharmacie+Dr.SALAH/@33.6340675,-7.490823,12z/data=!4m9!1m3!2m2!1sPharmacies+in+Mohammedia+Morocco!6e2!3m4!1s0xda7b5135cb05547:0x25ea632242461a48!8m2!3d33.6340675!4d-7.4207852?hl=en","JHMH+JM Aïn Harrouda, Morocco","33,6340675","-7,4207852",Pharmacy,ok
Pharmacie Du Caf,+212 5223-98973,Casablanca,,"Casablanca 20250, Morocco","https://www.google.com/maps/place/Pharmavie+Du+Caf/@33.5811281,-7.7160394,12z/data=!4m9!1m3!2m2!1sPharmacies+in+Casablanca+Morocco!6e2!3m4!1s0xda7d2d3d8d95f19:0xca6ca33928a253da!8m2!3d33.5656482!4d-7.6476314?hl=en","H982+7W Casablanca, Morocco","33,5656482","-7,6476314",Pharmacy,ok
Pharmacie Du Cedre,+212 5222-51467,Casablanca,,"Casablanca 20250, Morocco","https://www.google.com/maps/place/pharmacie+Du+Cedre/@33.5811281,-7.7160394,12z/data=!4m9!1m3!2m2!1sPharmacies+in+Casablanca+Morocco!6e2!3m4!1s0xda7d2be62c30b0f:0x1f7c74cffcb9fd5d!8m2!3d33.5810197!4d-7.6284368?hl=en","H9JC+CJ Casablanca, Morocco","33,5810197","-7,6284368",Pharmacy,ok
Pharmacie Du Jasmin,+212 5228-11767,Casablanca,,"Casablanca 20250, Morocco","https://www.google.com/maps/place/Pharmacie+Du+Jasmin/@33.5811281,-7.7160394,12z/data=!4m9!1m3!2m2!1sPharmacies+in+Casablanca+Morocco!6e2!3m4!1s0xda7d2a6ed768b6d:0x6d656a9fa3301ef2!8m2!3d33.5768789!4d-7.6152589?hl=en","H9GM+QV Casablanca, Morocco","33,5768789","-7,6152589",Pharmacy,ok
Pharmacie Du Jura,+212 5222-53441,Casablanca,,"Maârif 20250, Morocco","https://www.google.com/maps/place/Pharmacie+Du+Jura/@33.5811281,-7.7160394,12z/data=!4m9!1m3!2m2!1sPharmacies+in+Casablanca+Morocco!6e2!3m4!1s0xda7d2ea14213e95:0xecf1989fda02847d!8m2!3d33.5839383!4d-7.6374433?hl=en","H9M7+H2 Casablanca, Morocco","33,5839383","-7,6374433",Pharmacy,ok
Pharmacie Du Maarif,+212 5222-50128,Casablanca,,"382 Boulevard Brahim Roudani, Casablanca 20250, Morocco","https://www.google.com/maps/place/Pharmacie+Du+Maarif/@33.5811281,-7.7160394,12z/data=!4m8!1m2!2m1!1sPharmacies+in+Casablanca+Morocco!3m4!1s0xda7d2c066512b63:0x7a5781cca6342b66!8m2!3d33.5810831!4d-7.6342689?hl=en","H9J8+C7 Casablanca, Morocco","33,5810831","-7,6342689",Pharmacy,ok
Pharmacie Du Marché Central,+212 5222-21948,Casablanca,,"152 Boulevard Mohammed V, Casablanca 20250, Morocco","https://www.google.com/maps/place/Pharmacie+Du+March%C3%A9+Central/@33.5811281,-7.7160394,12z/data=!4m9!1m3!2m2!1sPharmacies+in+Casablanca+Morocco!6e2!3m4!1s0xda7cd630590ffeb:0x625f8a34b0a52551!8m2!3d33.5937498!4d-7.6080863?hl=en","H9VR+FQ Casablanca, Morocco","33,5937498","-7,6080863",Pharmacy,ok
Pharmacie du Quartier,+212 5227-32258,Casablanca,,"Casablanca 20250, Morocco","https://www.google.com/maps/place/Pharmacie+du+Quartier/@33.5811281,-7.7160394,12z/data=!4m9!1m3!2m2!1sPharmacies+in+Casablanca+Morocco!6e2!3m4!1s0xda7cb73be942c09:0xf31c8aa8767bbdb3!8m2!3d33.6062082!4d-7.5066606?hl=en","JF4V+F8 Casablanca, Morocco","33,6062082","-7,5066606",Pharmacy,ok
Pharmacie du Quartier Ryad صيدلية حي الرياض,+212 5227-44609,Casablanca,Aïn Harrouda,"G27 Lot Riad Echellalalte Ech-Chellalate, 28822, Morocco","https://www.google.com/maps/place/Pharmacie+du+Quartier+Ryad+%D8%B5%D9%8A%D8%AF%D9%84%D9%8A%D8%A9+%D8%AD%D9%8A+%D8%A7%D9%84%D8%B1%D9%8A%D8%A7%D8%B6%E2%80%AD/@33.6614948,-7.5366037,11z/data=!4m9!1m3!2m2!1sPharmacies+in+Mohammedia+Morocco!6e2!3m4!1s0xda7cb808bd42225:0x74322d19b45f0bf7!8m2!3d33.6201433!4d-7.4486725?hl=en","JHC2+3G Aïn Harrouda, Morocco","33,6201433","-7,4486725",Pharmacy,ok
Pharmacie Du Rif,+212 5222-81287,Casablanca,,"306 Boulevard Mohammed VI, Casablanca 20250, Morocco","https://www.google.com/maps/place/Pharmacie+Du+Rif/@33.5811281,-7.7160394,12z/data=!4m9!1m3!2m2!1sPharmacies+in+Casablanca+Morocco!6e2!3m4!1s0xda7cd5b4e11de8f:0x38a82491fa91d0de!8m2!3d33.5722326!4d-7.5972699?hl=en","HCC3+V3 Casablanca, Morocco","33,5722326","-7,5972699",Pharmacy,ok
Pharmacie Du Rond Point Aicha,+212 5222-42555,Casablanca,,"palace emile zola imm E boulevard moulay ismail, Morocco","https://www.google.com/maps/place/Pharmacie+Du+Rond+Point+Aicha/@33.5811281,-7.7160394,12z/data=!4m9!1m3!2m2!1sPharmacies+in+Casablanca+Morocco!6e2!3m4!1s0xda7cd727e1e1fcd:0x5f03a6524a11d720!8m2!3d33.5972593!4d-7.5924563?hl=en","HCW5+W2 Casablanca, Morocco","33,5972593","-7,5924563",Pharmacy,ok
Pharmacie du Soleil,+212 5223-01109,Casablanca,,,"https://www.google.com/maps/place/Pharmacie+du+Soleil/@33.5811281,-7.7160394,12z/data=!4m9!1m3!2m2!1sPharmacies+in+Casablanca+Morocco!6e2!3m4!1s0xda7cd669b3f869d:0x8f1fb4bc7037327!8m2!3d33.5719402!4d-7.5869819?hl=en",,"33,5719402","-7,5869819",Pharmacy,ok
Pharmacie Ech'challalat,,Casablanca,,"N9, Morocco","https://www.google.com/maps/place/Pharmacie+Ech'challalat/@33.6331799,-7.5445652,12z/data=!4m9!1m3!2m2!1sPharmacies+in+Mohammedia+Morocco!6e2!3m4!1s0xda7ca8aac87dc4f:0xd6217b09f049ed73!8m2!3d33.6158545!4d-7.4596095?hl=en","JG8R+85 Casablanca, Morocco","33,6158545","-7,4596095",Pharmacy,ok
Pharmacie El Alaoui,+212 5227-55631,Casablanca,,"Casablanca, Morocco","https://www.google.com/maps/place/Pharmacie+El+Alaoui/@33.6614948,-7.5366037,11z/data=!4m9!1m3!2m2!1sPharmacies+in+Mohammedia+Morocco!6e2!3m4!1s0xda7cb1c94e03785:0x1c035d56f7857d4b!8m2!3d33.601976!4d-7.4855679?hl=en","JG27+QQ Casablanca, Morocco","33,601976","-7,4855679",Pharmacy,ok
Pharmacie EL BACHIR,+212 5223-44127,Casablanca,,"Casablanca 20250, Morocco","https://www.google.com/maps/place/Pharmacie+EL+BACHIR/@33.5811281,-7.7160394,12z/data=!4m9!1m3!2m2!1sPharmacies+in+Casablanca+Morocco!6e2!3m4!1s0xda7cc63a07ab353:0xe1aa0b134713b027!8m2!3d33.6155063!4d-7.5383059?hl=en","JF86+6M Casablanca, Morocco","33,6155063","-7,5383059",Pharmacy,ok
Pharmacie El Baraka2 PARA & VÉTÉRINAIRE,+212 5225-08739,Casablanca,,"Lotissement El baraka 2 rue 48 N 18, Casablanca, Morocco","https://www.google.com/maps/place/PHARMACIE+El+Baraka2+PARA+%26+V%C3%89T%C3%89RINAIRE/@33.5811281,-7.7160394,12z/data=!4m9!1m3!2m2!1sPharmacies+in+Casablanca+Morocco!6e2!3m4!1s0xda6337cd9e9079b:0xce8ab7803b980ae0!8m2!3d33.5237301!4d-7.6004434?hl=en","G9FX+FR Casablanca, Morocco","33,5237301","-7,6004434",Pharmacy,ok
Pharmacie El Farah,+212 5228-15210,Casablanca,,"Casablanca 20320, Morocco","https://www.google.com/maps/place/Pharmacie+El+Farah/@33.5811281,-7.7160394,12z/data=!4m9!1m3!2m2!1sPharmacies+in+Casablanca+Morocco!6e2!3m4!1s0xda7cd3474aa9dff:0xcff31806f7d93def!8m2!3d33.5682823!4d-7.5846558?hl=en","HC98+84 Casablanca, Morocco","33,5682823","-7,5846558",Pharmacy,ok
Pharmacie EL FARAH,,Casablanca,,"Avenue Abdellah Senhaji, Casablanca 20250, Morocco","https://www.google.com/maps/place/Pharmacie+EL+FARAH/@32.7988416,-8.5590874,8z/data=!4m9!1m3!2m2!1sPharmacies+in+Essaouira+Morocco!6e2!3m4!1s0xda7cd4a702b1a31:0x8f84af46dc5318e!8m2!3d33.5674077!4d-7.5904021?hl=en","HC85+XR Casablanca, Morocco","33,5674077","-7,5904021",Pharmacy,ok
Pharmacie El Hachemi,+212 660-033001,Casablanca,,"RESIDENCE ANDALOUSSIA IMM.34 N 1, Casablanca 20100, Morocco","https://www.google.com/maps/place/Pharmacie+El+Hachemi/@33.5811281,-7.7160394,12z/data=!4m9!1m3!2m2!1sPharmacies+in+Casablanca+Morocco!6e2!3m4!1s0xda7d3e175ea356f:0x3db41e6a7bd06475!8m2!3d33.5669182!4d-7.6330706?hl=en","H988+QQ Casablanca, Morocco","33,5669182","-7,6330706",Pharmacy,ok
Pharmacie El Hakim,,Casablanca,,"Casablanca, Morocco","https://www.google.com/maps/place/Pharmacie+El+Hakim/@33.5811281,-7.7160394,12z/data=!4m9!1m3!2m2!1sPharmacies+in+Casablanca+Morocco!6e2!3m4!1s0xda7d356dd88172d:0xdc9066a5f771472a!8m2!3d33.5652283!4d-7.6941431?hl=en","H884+38 Casablanca, Morocco","33,5652283","-7,6941431",Pharmacy,ok
Pharmacie El Harti صيدلية الحارثي,,Casablanca,,"Casablanca, Morocco","https://www.google.com/maps/place/Pharmacie+El+Harti+%D8%B5%D9%8A%D8%AF%D9%84%D9%8A%D8%A9+%D8%A7%D9%84%D8%AD%D8%A7%D8%B1%D8%AB%D9%8A%E2%80%AD/@32.9945585,-8.1797067,9z/data=!4m9!1m3!2m2!1sPharmacies+in+Settat+Morocco!6e2!3m4!1s0xda632d88d32e845:0xcfb806ddc55784ef!8m2!3d33.5505601!4d-7.5694084?hl=en","HC2J+66 Casablanca, Morocco","33,5505601","-7,5694084",Pharmacy,ok
Pharmacie el hassani,+212 5227-40867,Casablanca,,"215 Boulevard Nabouls, Casablanca 20250, Morocco","https://www.google.com/maps/place/pharmacie+el+hassani/@33.5811281,-7.7160394,12z/data=!4m9!1m3!2m2!1sPharmacies+in+Casablanca+Morocco!6e2!3m4!1s0xda7cb80d72ac851:0x436dd44417703e8f!8m2!3d33.6162961!4d-7.4931055?hl=en","JG84+GQ Casablanca, Morocco","33,6162961","-7,4931055",Pharmacy,ok
Pharmacie El Jabr صيدلية الجبر,+212 5225-53429,Casablanca,,"Hay Lalla Meryem Bloc 40 N 61 - Sidi Othmane Casablanca, Casablanca, Morocco","https://www.google.com/maps/place/Pharmacie+El+Jabr+%D8%B5%D9%8A%D8%AF%D9%84%D9%8A%D8%A9+%D8%A7%D9%84%D8%AC%D8%A8%D8%B1%E2%80%AD/@33.5811281,-7.7160394,12z/data=!4m9!1m3!2m2!1sPharmacies+in+Casablanca+Morocco!6e2!3m4!1s0xda633313d64c3ef:0xa574c6572831f2d5!8m2!3d33.5585017!4d-7.5530965?hl=en","HC5W+CQ Casablanca, Morocco","33,5585017","-7,5530965",Pharmacy,ok
Pharmacie El Manar صيدلية المنار,+212 5222-61372,Casablanca,,"Avenue Mehdi Ben Barka, Casablanca 20250, Morocco","https://www.google.com/maps/place/Pharmacie+El+Manar+%D8%B5%D9%8A%D8%AF%D9%84%D9%8A%D8%A9+%D8%A7%D9%84%D9%85%D9%86%D8%A7%D8%B1%E2%80%AD/@33.5811281,-7.7160394,12z/data=!4m9!1m3!2m2!1sPharmacies+in+Casablanca+Morocco!6e2!3m4!1s0xda7d2f6c4a1342b:0xaee2ee0f46284065!8m2!3d33.6006805!4d-7.6406016?hl=en","J925+7Q Casablanca, Morocco","33,6006805","-7,6406016",Pharmacy,ok
Pharmacie El Marwa,,Casablanca,,"Résidence des lilas, avenue Moulay Touhami Errahma 2. Dar Bouazza, Nouaceur, Casablanca 20220, Morocco","https://www.google.com/maps/place/Pharmacie+El+Marwa/@32.9945585,-8.1797067,9z/data=!4m9!1m3!2m2!1sPharmacies+in+Settat+Morocco!6e2!3m4!1s0xda62ae5a9ec5353:0x964b4e61ae135bde!8m2!3d33.5233305!4d-7.7502294?hl=en","G6FX+8W Casablanca, Morocco","33,5233305","-7,7502294",Pharmacy,ok
Pharmacie El mostawsaf,+212 665-323232,Casablanca,Aïn Harrouda,"N9, Aïn Harrouda, Morocco","https://www.google.com/maps/place/Pharmacie+El+mostawsaf/@33.6387308,-7.5183552,12z/data=!4m9!1m3!2m2!1sPharmacies+in+Mohammedia+Morocco!6e2!3m4!1s0xda7ca72ae232e51:0xe243953a94431e8f!8m2!3d33.6387308!4d-7.4483174?hl=en","JHQ2+FM Aïn Harrouda, Morocco","33,6387308","-7,4483174",Pharmacy,ok
Pharmacie El Othmania,+212 5223-71316,Casablanca,,"Boulevard Abou Houraïra, Casablanca, Morocco","https://www.google.com/maps/place/Pharmacie+El+Othmania/@33.5811281,-7.7160394,12z/data=!4m9!1m3!2m2!1sPharmacies+in+Casablanca+Morocco!6e2!3m4!1s0xda632d503242b07:0xcfbbaa25eb2a3adc!8m2!3d33.5627798!4d-7.5705336?hl=en","HC7H+4Q Casablanca, Morocco","33,5627798","-7,5705336",Pharmacy,ok
Pharmacie El Ouazzani,+212 5229-75308,Casablanca,,"Casablanca, Morocco","https://www.google.com/maps/place/Pharmacie+El+Ouazzani/@33.5811281,-7.7160394,12z/data=!4m9!1m3!2m2!1sPharmacies+in+Casablanca+Morocco!6e2!3m4!1s0xda62d1cdcfde071:0xa412b53d42b6da21!8m2!3d33.5278052!4d-7.6515681?hl=en","G8HX+49 Casablanca, Morocco","33,5278052","-7,6515681",Pharmacy,ok
Pharmacie El Rhazi,,Casablanca,,"Casablanca, Morocco","https://www.google.com/maps/place/Pharmacie+El+Rhazi/@32.9945585,-8.1797067,9z/data=!4m9!1m3!2m2!1sPharmacies+in+Settat+Morocco!6e2!3m4!1s0xda62b54ba874f95:0xf0d70849e763eaca!8m2!3d33.5560902!4d-7.7028108?hl=en","H74W+CV Casablanca, Morocco","33,5560902","-7,7028108",Pharmacy,ok
Pharmacie El Taibi,,Casablanca,,"432 Boulevard Commandant Driss Al Harti, Casablanca 20670, Morocco","https://www.google.com/maps/place/Pharmacie+El+Taibi/@33.5471257,-7.5921154,14z/data=!4m9!1m3!2m2!1sPharmacies+in+Settat+Morocco!6e2!3m4!1s0xda632dc096bb35b:0x41925e2b69db9e0c!8m2!3d33.5471257!4d-7.5746059?hl=en","GCWG+V5 Casablanca, Morocco","33,5471257","-7,5746059",Pharmacy,ok
Pharmacie ElBadie,,Casablanca,,"P3006, Casablanca, Morocco","https://www.google.com/maps/place/Pharmacie+ElBadie/@32.7988416,-8.5590874,8z/data=!4m9!1m3!2m2!1sPharmacies+in+Essaouira+Morocco!6e2!3m4!1s0xda7cb1955bf8055:0x6f571e8cffd4baba!8m2!3d33.5977924!4d-7.4870814?hl=en","HGX7+45 Casablanca, Morocco","33,5977924","-7,4870814",Pharmacy,ok
Pharmacie Elfadl,+212 5225-03618,Casablanca,,"196, Bd Smara, 20480 Quartier: A?n Chok, Casablanca 20100, Morocco","https://www.google.com/maps/place/Pharmacie+Elfadl/@33.5811281,-7.7160394,12z/data=!4m9!1m3!2m2!1sPharmacies+in+Casablanca+Morocco!6e2!3m4!1s0xda7cc564c9bfcbd:0xe88d9dd2f7a608fd!8m2!3d33.611903!4d-7.560039?hl=en","JC6Q+QX Casablanca, Morocco","33,611903","-7,560039",Pharmacy,ok
Pharmacie Ennajah,+212 5223-71467,Casablanca,,"Boulevard Dakhla, Casablanca, Morocco","https://www.google.com/maps/place/Pharmacie+Ennajah/@33.5483822,-7.6389999,12z/data=!4m9!1m3!2m2!1sPharmacies+in+Casablanca+Morocco!6e2!3m4!1s0xda632d8b337e103:0xc90a7ff778543200!8m2!3d33.5483822!4d-7.5689621?hl=en","GCXJ+9C Casablanca, Morocco","33,5483822","-7,5689621",Pharmacy,ok
Pharmacie Ernest Renan,+212 5229-94975,Casablanca,,"34, Rue Ahmed Akrad - Ex Aviateurs, 20410 Quartier: Oasis, Casablanca 20100, Morocco","https://www.google.com/maps/place/Pharmacie+Ernest+Renan/@33.5811281,-7.7160394,12z/data=!4m9!1m3!2m2!1sPharmacies+in+Casablanca+Morocco!6e2!3m4!1s0xda7d2befcff14a3:0x9b5e4344bc02b0c5!8m2!3d33.580262!4d-7.630217?hl=en",,"33,580262","-7,630217",,ok
Pharmacie Erraha,+212 5223-70442,Casablanca,,"219 Avenue Lahraouine, Casablanca, Morocco","https://www.google.com/maps/place/Pharmacie+Erraha/@33.5811281,-7.7160394,12z/data=!4m9!1m3!2m2!1sPharmacies+in+Casablanca+Morocco!6e2!3m4!1s0xda632da30cf666d:0x4c201e243b6557c5!8m2!3d33.5513961!4d-7.5744402?hl=en","HC2G+H6 Casablanca, Morocco","33,5513961","-7,5744402",Pharmacy,ok
Pharmacie Er-Ryane,+212 5229-73214,Casablanca,,"Lotiss. Ennour Lot N?1, Sidi Maarouf, 20270 Quartier: Sidi Maaro, Casablanca 20100, Morocco","https://www.google.com/maps/place/Pharmacie+Er-Ryane/@33.2679611,-7.8590119,10z/data=!4m9!1m3!2m2!1sPharmacies+in+Berrechid+Morocco!6e2!3m4!1s0xda62d036c3f0f85:0xa149e05f67d26933!8m2!3d33.5308715!4d-7.6512085?hl=en","G8JX+8G Casablanca, Morocco","33,5308715","-7,6512085",Pharmacy,ok
Pharmacie Espace Santé,,Casablanca,,"Casablanca, Morocco","https://www.google.com/maps/place/Pharmacie+Espace+Sant%C3%A9/@33.544608,-7.7110042,12z/data=!4m9!1m3!2m2!1sPharmacies+in+Casablanca+Morocco!6e2!3m4!1s0xda62d3b834f13b9:0xf24588e43ef77cd5!8m2!3d33.544608!4d-7.6409664?hl=en","G9V5+RJ Casablanca, Morocco","33,544608","-7,6409664",Pharmacy,ok
Pharmacie Es-saada,+212 5226-20353,Casablanca,,"Casablanca 20250, Morocco","https://www.google.com/maps/place/Pharmacie+Es-saada/@33.5925923,-7.634232,12z/data=!4m9!1m3!2m2!1sPharmacies+in+Mohammedia+Morocco!6e2!3m4!1s0xda7cce16649b75b:0x290dc42f7fb43c7!8m2!3d33.5925923!4d-7.5641942?hl=en","HCVP+28 Casablanca, Morocco","33,5925923","-7,5641942",Pharmacy,ok
Pharmacie ESSADIK,+212 5220-11180,Casablanca,,"DYAR EL HANAA 2 GH 2, IMM N 1, MAGASIN N 3, AL AZHAR, Casablanca 20620, Morocco","https://www.google.com/maps/place/Pharmacie+ESSADIK/@33.6614948,-7.5366037,11z/data=!4m9!1m3!2m2!1sPharmacies+in+Mohammedia+Morocco!6e2!3m4!1s0xda7cbfa3ce5e781:0x2cdbf96e0093debc!8m2!3d33.6048346!4d-7.4790217?hl=en","JG3C+W9 Casablanca, Morocco","33,6048346","-7,4790217",Pharmacy,ok
Pharmacie Et Para Espoir Santé,+212 5226-73600,Casablanca,,"28 Avenue Tizi Ousli, Casablanca 20580, Morocco","https://www.google.com/maps/place/Pharmacie+Et+Para+Espoir+Sant%C3%A9/@33.6071901,-7.6031987,12z/data=!4m9!1m3!2m2!1sPharmacies+in+Casablanca+Morocco!6e2!3m4!1s0xda7cc868a080eb9:0x1e39bc6737ab2762!8m2!3d33.6071901!4d-7.5331609?hl=en","JF48+VP Casablanca, Morocco","33,6071901","-7,5331609",Pharmacy,ok
Pharmacie EUCALYPTUS صيدلية الأوكالبتوس,+212 5227-14671,Casablanca,,"Casablanca 20670, Morocco","https://www.google.com/maps/place/Pharmacie+EUCALYPTUS+%D8%B5%D9%8A%D8%AF%D9%84%D9%8A%D8%A9+%D8%A7%D9%84%D8%A3%D9%88%D9%83%D8%A7%D9%84%D8%A8%D8%AA%D9%88%D8%B3%E2%80%AD/@33.5811281,-7.7160394,12z/data=!4m9!1m3!2m2!1sPharmacies+in+Casablanca+Morocco!6e2!3m4!1s0xda63349490c89e3:0x851dd54d2464f722!8m2!3d33.560002!4d-7.5414055?hl=en","HF65+2C Casablanca, Morocco","33,560002","-7,5414055",Pharmacy,ok
Pharmacie Farabi,+212 5222-73582,Casablanca,,"Boulevard de Bourgogne, Casablanca 20250, Morocco","https://www.google.com/maps/place/Pharmacie+Farabi/@33.5811281,-7.7160394,12z/data=!4m9!1m3!2m2!1sPharmacies+in+Casablanca+Morocco!6e2!3m4!1s0xda7d2f13e697423:0x82bdc4251f78fed5!8m2!3d33.598371!4d-7.6401587?hl=en","H9X5+8W Casablanca, Morocco","33,598371","-7,6401587",Pharmacy,ok
Pharmacie Farida,+212 5223-00169,Casablanca,,"79 Boulevard Ibn Tachfine, Casablanca 20250, Morocco","https://www.google.com/maps/place/Pharmacie+Farida/@33.5811281,-7.7160394,12z/data=!4m9!1m3!2m2!1sPharmacies+in+Casablanca+Morocco!6e2!3m4!1s0xda7cd68627e9ae7:0xa29d4628d8e8626!8m2!3d33.5882192!4d-7.599332?hl=en","HCQ2+77 Casablanca, Morocco","33,5882192","-7,599332",Pharmacy,ok
Pharmacie Faris,+212 5222-89090,Casablanca,,"928, R315, Casablanca, Morocco","https://www.google.com/maps/place/Pharmacie+Faris/@33.5811281,-7.7160394,12z/data=!4m9!1m3!2m2!1sPharmacies+in+Casablanca+Morocco!6e2!3m4!1s0xda7cd4c7d2923f7:0x17a2871713115368!8m2!3d33.5663695!4d-7.595805?hl=en","HC83+GM Casablanca, Morocco","33,5663695","-7,595805",Pharmacy,ok
Pharmacie FATH EL KHAIR,+212 5227-55606,Casablanca,,"30 groupe Al Baida,، Casablanca, Morocco","https://www.google.com/maps/place/Pharmacie+FATH+EL+KHAIR/@33.6292043,-7.6253702,11z/data=!4m9!1m3!2m2!1sPharmacies+in+Mohammedia+Morocco!6e2!3m4!1s0xda7cba9fd7cfdcb:0x9047fc57f29b984f!8m2!3d33.6145509!4d-7.4872178?hl=en","JG77+R4 Casablanca, Morocco","33,6145509","-7,4872178",Pharmacy,ok
Pharmacie Fatimaezzahra,,Casablanca,,"Casablanca, Morocco","https://www.google.com/maps/place/Pharmacie+Fatimaezzahra/@33.5828906,-7.5520223,12z/data=!4m9!1m3!2m2!1sPharmacies+in+Mohammedia+Morocco!6e2!3m4!1s0xda7cb27f2cca531:0xafb2750d85faca0d!8m2!3d33.5828906!4d-7.4819845?hl=en","HGM9+56 Casablanca, Morocco","33,5828906","-7,4819845",Pharmacy,ok
Pharmacie Fatma,+212 5229-31029,Casablanca,,"Casablanca, Morocco","https://www.google.com/maps/place/Pharmacie+Fatma/@33.5811281,-7.7160394,12z/data=!4m9!1m3!2m2!1sPharmacies+in+Casablanca+Morocco!6e2!3m4!1s0xda62cca2ff034e5:0xb9fb8c897dec6157!8m2!3d33.5539343!4d-7.6745607?hl=en","H83G+H5 Casablanca, Morocco","33,5539343","-7,6745607",Pharmacy,ok
Pharmacie Feddan Elkheir,+212 5227-35260,Casablanca,,"Route De (R.P. 1), N?1, Casablanca 20100, Morocco","https://www.google.com/maps/place/Pharmacie+Feddan+Elkheir/@33.6226551,-7.6646361,10z/data=!4m9!1m3!2m2!1sPharmacies+in+Mohammedia+Morocco!6e2!3m4!1s0xda7cb7520cba865:0x512f9395acb2b679!8m2!3d33.610869!4d-7.504093?hl=en",,"33,610869","-7,504093",Pharmacy,ok
Pharmacie Ferrara,+212 5229-33235,Casablanca,,"123 n 142, Rue N° 4, Morocco","https://www.google.com/maps/place/Pharmacie+Ferrara/@33.5811281,-7.7160394,12z/data=!4m9!1m3!2m2!1sPharmacies+in+Casablanca+Morocco!6e2!3m4!1s0xda7d35527b8eec3:0x716e4ec872a6ff8e!8m2!3d33.5580667!4d-7.6956491?hl=en","H853+6P Casablanca, Morocco","33,5580667","-7,6956491",Pharmacy,ok
Pharmacie Fourkane,+212 5223-52928,Casablanca,,"Boulevard des Figuiers, Casablanca 20250, Morocco","https://www.google.com/maps/place/Pharmacie+Fourkane/@33.6331799,-7.5445652,12z/data=!4m9!1m3!2m2!1sPharmacies+in+Mohammedia+Morocco!6e2!3m4!1s0xda7cd5587e1e295:0xd3d3b91ee8de83ea!8m2!3d33.6163646!4d-7.5293852?hl=en","JF8C+G6 Casablanca, Morocco","33,6163646","-7,5293852",Pharmacy,ok
Pharmacie GARAN,+212 661-477488,Casablanca,,"Lotissement Ennasr, S22 VICTORIA BOUSKOURA, Casablanca, Morocco","https://www.google.com/maps/place/PHARMACIE+GARAN/@33.2681968,-7.7189014,11z/data=!4m9!1m3!2m2!1sPharmacies+in+Berrechid+Morocco!6e2!3m4!1s0xda62f9ebfeede67:0xb6f382b7459d9183!8m2!3d33.4173497!4d-7.6736759?hl=en","C88G+WG Casablanca, Morocco","33,4173497","-7,6736759",Pharmacy,ok
Pharmacie Ghandi,+212 525-119730,Casablanca,,"63 Boulevard Ghandi, Casablanca, Morocco","https://www.google.com/maps/place/Pharmacie+Ghandi/@33.5811281,-7.7160394,12z/data=!4m9!1m3!2m2!1sPharmacies+in+Casablanca+Morocco!6e2!3m4!1s0xda7d37145db7d0b:0x7396a59b4ef4b1bb!8m2!3d33.5750281!4d-7.651142?hl=en","H8GX+2G Casablanca, Morocco","33,5750281","-7,651142",Pharmacy,ok
Pharmacie Ghofran,,Casablanca,,"Casablanca 20250, Morocco","https://www.google.com/maps/place/Pharmacie+Ghofran/@33.6331799,-7.5445652,12z/data=!4m9!1m3!2m2!1sPharmacies+in+Mohammedia+Morocco!6e2!3m4!1s0xda7cba9279a6697:0x34376bc2f41f7aa7!8m2!3d33.6191788!4d-7.489485?hl=en","JG96+M6 Casablanca, Morocco","33,6191788","-7,489485",Pharmacy,ok
Pharmacie Golf Anfa,+212 5223-97458,Casablanca,,"Casablanca 20250, Morocco","https://www.google.com/maps/place/Pharmacie+Golf+Anfa/@33.5811281,-7.7160394,12z/data=!4m9!1m3!2m2!1sPharmacies+in+Casablanca+Morocco!6e2!3m4!1s0xda7d31cd6e35227:0x9a82432241fe7b18!8m2!3d33.5924954!4d-7.6577369?hl=en","H8RR+XW Casablanca, Morocco","33,5924954","-7,6577369",Pharmacy,ok
Pharmacie Granada,,Casablanca,,"Casablanca, Morocco","https://www.google.com/maps/place/Pharmacie+Granada/@33.5811281,-7.7160394,12z/data=!4m9!1m3!2m2!1sPharmacies+in+Casablanca+Morocco!6e2!3m4!1s0xda7d35740cc3f49:0xbde8c1d04a7c780b!8m2!3d33.5672032!4d-7.6937926?hl=en","H884+VF Casablanca, Morocco","33,5672032","-7,6937926",Pharmacy,ok
Pharmacie Guessous,+212 5227-37828,Casablanca,,"Hay El Qods, Rue 23 N?67, 20600 Quartier:, Casablanca 20100, Morocco","https://www.google.com/maps/place/Pharmacie+Guessous/@33.6331799,-7.5445652,12z/data=!4m9!1m3!2m2!1sPharmacies+in+Mohammedia+Morocco!6e2!3m4!1s0xda7cba887c01ab7:0x6316c65c2567813a!8m2!3d33.6160092!4d-7.4916726?hl=en","JG85+C8 Casablanca, Morocco","33,6160092","-7,4916726",Pharmacy,ok
Pharmacie H2O,+212 5228-90500,Casablanca,,"326 Nassim Quartier Nassim,, Lotissement, Casablanca, Morocco","https://www.google.com/maps/place/Pharmacie+H2O/@33.5229835,-7.7310333,12z/data=!4m9!1m3!2m2!1sPharmacies+in+Casablanca+Morocco!6e2!3m4!1s0xda62cfb9cc1f205:0xc26653f3732bbc07!8m2!3d33.5229835!4d-7.6609955?hl=en","G8FQ+5J Casablanca, Morocco","33,5229835","-7,6609955",Pharmacy,ok
Pharmacie HABIBA,+212 622-650648,Casablanca,,"275 Rue Jebel Toubkal, Casablanca, Morocco","https://www.google.com/maps/place/Pharmacie+HABIBA/@33.5360065,-7.7459685,12z/data=!4m9!1m3!2m2!1sPharmacies+in+Casablanca+Morocco!6e2!3m4!1s0xda62d720c3bf381:0x2887a3f4863f388a!8m2!3d33.5360065!4d-7.6759307?hl=en","G8PF+CJ Casablanca, Morocco","33,5360065","-7,6759307",Pharmacy,ok
Pharmacie Habous,,Casablanca,,"Casablanca 20250, Morocco","https://www.google.com/maps/place/Pharmacie+Habous/@33.5811281,-7.7160394,12z/data=!4m9!1m3!2m2!1sPharmacies+in+Casablanca+Morocco!6e2!3m4!1s0xda7cd5bfd9595a9:0xb2ad9e0fe605b4ac!8m2!3d33.579062!4d-7.6058753?hl=en","H9HV+JJ Casablanca, Morocco","33,579062","-7,6058753",Pharmacy,ok
Pharmacie Harbili صيدلية حربيلي,,Casablanca,,"Casablanca, Morocco","https://www.google.com/maps/place/%D8%B5%D9%8A%D8%AF%D9%84%D9%8A%D8%A9+%D8%AD%D8%B1%D8%A8%D9%8A%D9%84%D9%8A%E2%80%AD/@33.6614948,-7.5366037,11z/data=!4m9!1m3!2m2!1sPharmacies+in+Mohammedia+Morocco!6e2!3m4!1s0xda7cbca8c914413:0xcd2b9213c1a15fd4!8m2!3d33.638332!4d-7.4836998?hl=en","JGQ8+8G Casablanca, Morocco","33,638332","-7,4836998",Pharmacy,ok
"Pharmacie Hassan-II Mosquee, Boulevard Sour Jdid, Casablanca",,Casablanca,,"116 Boulevard Sour Jdid, Casablanca, Morocco","https://www.google.com/maps/place/Pharmacie+Hassan-II+Mosquee,+Boulevard+Sour+Jdid,+Casablanca/@33.5811281,-7.7160394,12z/data=!4m8!1m2!2m1!1sPharmacies+in+Casablanca+Morocco!3m4!1s0xda7d3e056f3c8d1:0x8b4de6c2cd216e2c!8m2!3d33.6074302!4d-7.6290512?hl=en","J94C+X9 Casablanca, Morocco","33,6074302","-7,6290512",Pharmacy,ok
Pharmacie Hassini,,Casablanca,,"Casablanca, Morocco","https://www.google.com/maps/place/Pharmacie+Hassini/@33.6292043,-7.6253702,11z/data=!4m9!1m3!2m2!1sPharmacies+in+Mohammedia+Morocco!6e2!3m4!1s0xda7cb1abef3efe9:0x83747d295c7159d7!8m2!3d33.6020349!4d-7.4910872?hl=en","JG25+RH Casablanca, Morocco","33,6020349","-7,4910872",Pharmacy,ok
Pharmacie Hatim,+212 5222-26802,Casablanca,,"127, Rue Du Prince Moulay Abdallah, 20000 Quartier: Centre Ville, Casablanca 20100, Morocco","https://www.google.com/maps/place/Pharmacie+Hatim/@32.9945585,-8.1797067,9z/data=!4m9!1m3!2m2!1sPharmacies+in+Settat+Morocco!6e2!3m4!1s0xda7d29c701be849:0x4ccecbc9ef1991f6!8m2!3d33.5920255!4d-7.6161922?hl=en","H9RM+RG Casablanca, Morocco","33,5920255","-7,6161922",Pharmacy,ok
Pharmacie Hay Amal 4,,Casablanca,,"Rue 62, Casablanca 20250, Morocco","https://www.google.com/maps/place/Pharmacie+Hay+Amal+4/@33.6025652,-7.5812486,12z/data=!4m9!1m3!2m2!1sPharmacies+in+Casablanca+Morocco!6e2!3m4!1s0xda7cb702d318309:0x2ca44e7e08e9fa44!8m2!3d33.6025652!4d-7.5112108?hl=en","JF3Q+2G Casablanca, Morocco","33,6025652","-7,5112108",Pharmacy,ok
Pharmacie Hay Essaada,+212 5229-72270,Casablanca,,"Casablanca, Morocco","https://www.google.com/maps/place/Pharmacie+Hay+Essaada/@33.5811281,-7.7160394,12z/data=!4m9!1m3!2m2!1sPharmacies+in+Casablanca+Morocco!6e2!3m4!1s0xda62d6347b139cf:0xbf38f7e7eade29d4!8m2!3d33.5155613!4d-7.6583159?hl=en","G88R+6M Casablanca, Morocco","33,5155613","-7,6583159",Pharmacy,ok
Pharmacie hay hakam,+212 5226-24648,Casablanca,,"N, Hakam 1 rue 21, 40 Boulevard Ibn Tachfine, Casablanca, Morocco","https://www.google.com/maps/place/Pharmacie+hay+hakam/@32.0364202,-10.8306049,7z/data=!4m9!1m3!2m2!1sPharmacies+in+Essaouira+Morocco!6e2!3m4!1s0xda7cd52eb0ccd2b:0xd847d342b7e1163f!8m2!3d33.5833564!4d-7.5735432?hl=en","HCMG+8H Casablanca, Morocco","33,5833564","-7,5735432",Pharmacy,ok
Pharmacie Hay Kenza,,Casablanca,,"Casablanca, Morocco","https://www.google.com/maps/place/Pharmacie+Hay+Kenza/@33.5393617,-7.6962706,14z/data=!4m9!1m3!2m2!1sPharmacies+in+Larache+Morocco!6e2!3m4!1s0xda62cbf04f9db8f:0x7890c6ed043897f7!8m2!3d33.5393617!4d-7.6787611?hl=en","G8QC+PF Casablanca, Morocco","33,5393617","-7,6787611",Pharmacy,ok
Pharmacie HAY NAIM,+212 5227-25253,Casablanca,,"Lotissement lot n 230, Rue le Nain, Casablanca, Morocco","https://www.google.com/maps/place/Pharmacie+HAY+NAIM/@32.9945585,-8.1797067,9z/data=!4m9!1m3!2m2!1sPharmacies+in+Settat+Morocco!6e2!3m4!1s0xda634b4c8325001:0x346759ad9eed81e5!8m2!3d33.5683222!4d-7.5071114?hl=en","HF9V+85 Casablanca, Morocco","33,5683222","-7,5071114",Pharmacy,ok
Pharmacie Hay Nast 2 2صيدلية حي النصر ,,Casablanca,,"Casablanca, Morocco","https://www.google.com/maps/place/%D8%B5%D9%8A%D8%AF%D9%84%D9%8A%D8%A9+%D8%AD%D9%8A+%D8%A7%D9%84%D9%86%D8%B5%D8%B1+2%E2%80%AD/@32.9945585,-8.1797067,9z/data=!4m9!1m3!2m2!1sPharmacies+in+Settat+Morocco!6e2!3m4!1s0xda63310717fdce1:0x6bcdecfa610bde5d!8m2!3d33.5341653!4d-7.5567212?hl=en","GCMV+M8 Casablanca, Morocco","33,5341653","-7,5567212",Pharmacy,ok
Pharmacie Hind,+212 5229-14457,Casablanca,,"Casablanca 20250, Morocco","https://www.google.com/maps/place/Pharmacie+Hind/@33.5811281,-7.7160394,12z/data=!4m9!1m3!2m2!1sPharmacies+in+Casablanca+Morocco!6e2!3m4!1s0xda7d333fe8f6eb3:0x67ad061163e51ca6!8m2!3d33.5641688!4d-7.6707993?hl=en","H87H+MM Casablanca, Morocco","33,5641688","-7,6707993",Pharmacy,ok
Pharmacie Ibn Batouta,+212 5222-23434,Casablanca,,"78, Rue Ibn Batouta, 20080 Quartier: Derb Omar, Casablanca 20100, Morocco","https://www.google.com/maps/place/Pharmacie+Ibn+Batouta/@33.5811281,-7.7160394,12z/data=!4m9!1m3!2m2!1sPharmacies+in+Casablanca+Morocco!6e2!3m4!1s0xda7d29dafdeb11b:0xfbde3442467c357b!8m2!3d33.5923242!4d-7.6135056?hl=en","H9RP+WH Casablanca, Morocco","33,5923242","-7,6135056",Pharmacy,ok
Pharmacie IBN EL MOATAZ,+212 5225-95300,Casablanca,,"165 5، Rue Al Alama Al Hafid Bnou Abdessalam Annassiri, Casablanca, Morocco","https://www.google.com/maps/place/Pharmacie+IBN+EL+MOATAZ/@33.5811281,-7.7160394,12z/data=!4m9!1m3!2m2!1sPharmacies+in+Casablanca+Morocco!6e2!3m4!1s0xda632e766070781:0x102ba586ae6f105d!8m2!3d33.5418457!4d-7.5751695?hl=en","GCRF+PW Casablanca, Morocco","33,5418457","-7,5751695",Pharmacy,ok
Pharmacie Ibn Khaldoun,+212 5226-20206,Casablanca,,"422, Bd Abnaa Chouhada, Lot. Inani H.M, 20560 Quartier: Hay Moha, Casablanca 20100, Morocco","https://www.google.com/maps/place/Pharmacie+Ibn+Khaldoun/@33.5811281,-7.7160394,12z/data=!4m9!1m3!2m2!1sPharmacies+in+Casablanca+Morocco!6e2!3m4!1s0xda7cce01ed7456d:0x429238bfc3443ce0!8m2!3d33.58861!4d-7.56776?hl=en","HCQJ+CV Casablanca, Morocco","33,58861","-7,56776",Pharmacy,ok
Pharmacie Ibn Sahl,+212 5223-29011,Casablanca,Aïn Harrouda,"Rte De , Résid. Elwafa N°37, Ain Harrouda, Rabat 20630, Morocco","https://www.google.com/maps/place/Pharmacie+Ibn+Sahl/@33.6717496,-7.4696074,12z/data=!4m9!1m3!2m2!1sPharmacies+in+Mohammedia+Morocco!6e2!3m4!1s0xda7c9f7a0a182dd:0x33596c0cde89043b!8m2!3d33.664052!4d-7.450569?hl=en","MG7X+JQ Aïn Harrouda, Morocco","33,664052","-7,450569",Pharmacy,ok
Pharmacie IBN TAIMIA,+212 5223-35225,Casablanca,,"Casablanca, Morocco","https://www.google.com/maps/place/Pharmacie+IBN+TAIMIA/@33.5336097,-7.9315774,10z/data=!4m9!1m3!2m2!1sPharmacies+in+Sidi+Bennour+Morocco!6e2!3m4!1s0xda62d1e946a7d29:0x28d8cc7ea8107f85!8m2!3d33.5336097!4d-7.651426?hl=en","G8MX+CC Casablanca, Morocco","33,5336097","-7,651426",Pharmacy,ok
Pharmacie Ibnou sahl,,Casablanca,Aïn Harrouda,"N1, Aïn Harrouda, Morocco","https://www.google.com/maps/place/Pharmacie+Ibnou+sahl/@33.6360254,-7.5170879,12z/data=!4m9!1m3!2m2!1sPharmacies+in+Mohammedia+Morocco!6e2!3m4!1s0xda7ca725a462f53:0xfec77d7f630d29ad!8m2!3d33.6360254!4d-7.4470501?hl=en","JHP3+C5 Aïn Harrouda, Morocco","33,6360254","-7,4470501",Pharmacy,ok
Pharmacie Ibork,+212 5229-86484,Casablanca,,"Rue de Salins, Casablanca 20100, Morocco","https://www.google.com/maps/place/Pharmacie+Ibork/@33.5811281,-7.7160394,12z/data=!4m9!1m3!2m2!1sPharmacies+in+Casablanca+Morocco!6e2!3m4!1s0xda7d2ca9efac10b:0xdfd3a7761ce41e3a!8m2!3d33.5629355!4d-7.6282014?hl=en",,"33,5629355","-7,6282014",Pharmacy,ok
Pharmacie Ibtissama صيدلية الابتسامة,+212 5227-30798,Casablanca,,"Casablanca, Morocco","https://www.google.com/maps/place/Pharmacie+Ibtissama+%D8%B5%D9%8A%D8%AF%D9%84%D9%8A%D8%A9+%D8%A7%D9%84%D8%A7%D8%A8%D8%AA%D8%B3%D8%A7%D9%85%D8%A9%E2%80%AD/@33.6331799,-7.5445652,12z/data=!4m9!1m3!2m2!1sPharmacies+in+Mohammedia+Morocco!6e2!3m4!1s0xda7cb0c897fcee1:0xca708c8e407e8a3b!8m2!3d33.6067166!4d-7.5015012?hl=en","JF4X+M9 Casablanca, Morocco","33,6067166","-7,5015012",Pharmacy,ok
Pharmacie ines,+212 5225-02480,Casablanca,,"Casablanca, Morocco","https://www.google.com/maps/place/Pharmacie+ines/@33.5433961,-7.6660444,12z/data=!4m9!1m3!2m2!1sPharmacies+in+Casablanca+Morocco!6e2!3m4!1s0xda632bdc93aff9b:0x5887a4fd7c72f6a4!8m2!3d33.5433961!4d-7.5960066?hl=en","GCV3+9H Casablanca, Morocco","33,5433961","-7,5960066",Pharmacy,ok
Pharmacie Jabrane صيدلية جبران,,Casablanca,,"Casablanca, Morocco","https://www.google.com/maps/place/Pharmacie+Jabrane+%D8%B5%D9%8A%D8%AF%D9%84%D9%8A%D8%A9+%D8%AC%D8%A8%D8%B1%D8%A7%D9%86%E2%80%AD/@33.5811281,-7.7160394,12z/data=!4m9!1m3!2m2!1sPharmacies+in+Casablanca+Morocco!6e2!3m4!1s0xda62cac5ee96131:0x2d599edcd27619b9!8m2!3d33.5547912!4d-7.6910446?hl=en","H835+WH Casablanca, Morocco","33,5547912","-7,6910446",Pharmacy,ok
Pharmacie Jardin Isesco,+212 5222-97545,Casablanca,,"13 Bis Résidence Nora,، Rue de Rome, Casablanca, Morocco","https://www.google.com/maps/place/Pharmacie+Jardin+Isesco/@33.5811281,-7.7160394,12z/data=!4m9!1m3!2m2!1sPharmacies+in+Casablanca+Morocco!6e2!3m4!1s0xda7d2a0af3e02ff:0xb27b2ac239c6d85b!8m2!3d33.5797288!4d-7.6118447?hl=en","H9HQ+V7 Casablanca, Morocco","33,5797288","-7,6118447",Pharmacy,ok
Pharmacie Jardins d'Omar,,Casablanca,,"Kasbat Al Amine IV, ""Les Jardins d'omar"" GH1 E1 M4 Quartier Lissasfa, Casablanca, Morocco","https://www.google.com/maps/place/Pharmacie+Jardins+d'Omar/@33.5708827,-7.695382,14z/data=!4m9!1m3!2m2!1sPharmacies+in+Berrechid+Morocco!6e2!3m4!1s0xda7d302cfdb002b:0xf34bc07900688f0e!8m2!3d33.5708827!4d-7.6778725?hl=en","H8CC+9V Casablanca, Morocco","33,5708827","-7,6778725",Pharmacy,ok
Pharmacie JAWADIEH,+212 5223-70318,Casablanca,,"Avenue du 6 Novembre 1975, Casablanca, Morocco","https://www.google.com/maps/place/PHARMACIE+JAWADIEH/@33.5811281,-7.7160394,12z/data=!4m9!1m3!2m2!1sPharmacies+in+Casablanca+Morocco!6e2!3m4!1s0xda632c619eeefd5:0x321082a1ef48f53f!8m2!3d33.5523464!4d-7.585389?hl=en","HC27+WR Casablanca, Morocco","33,5523464","-7,585389",Pharmacy,ok
Pharmacie Jawharate Al Madina,+212 5227-28248,Casablanca,,"Al Madina Jadida, Hay Jawhara, Rue 1, N°12-14,، Hy Mly Rachid، Casablanca 20660, Morocco","https://www.google.com/maps/place/Pharmacie+Jawharate+Al+Madina/@32.7988416,-8.5590874,8z/data=!4m9!1m3!2m2!1sPharmacies+in+Essaouira+Morocco!6e2!3m4!1s0xda633574a4dcc91:0x2b929ba2200b2720!8m2!3d33.557581!4d-7.529911?hl=en","HF5C+22 Casablanca, Morocco","33,557581","-7,529911",Pharmacy,ok
Pharmacie Jerrada,+212 5229-94720,Casablanca,,"61 Boulevard Abderrahim Bouabid, Casablanca, Morocco","https://www.google.com/maps/place/Pharmacie+Jerrada/@33.5811281,-7.7160394,12z/data=!4m9!1m3!2m2!1sPharmacies+in+Casablanca+Morocco!6e2!3m4!1s0xda7d300dfa11c1b:0xcb06d050b6789ad!8m2!3d33.5626027!4d-7.6428193?hl=en","H974+2V Casablanca, Morocco","33,5626027","-7,6428193",Pharmacy,ok
Pharmacie Jnan El Oulfa,+212 5228-94270,Casablanca,,"Casablanca, Morocco","https://www.google.com/maps/place/Pharmacie+Jnan+El+Oulfa/@33.5811281,-7.7160394,12z/data=!4m9!1m3!2m2!1sPharmacies+in+Casablanca+Morocco!6e2!3m4!1s0xda62b56a08db32d:0xa3d2bb6e8d1cdbff!8m2!3d33.5511913!4d-7.7025003?hl=en","H72W+FX Casablanca, Morocco","33,5511913","-7,7025003",Pharmacy,ok
Pharmacie Jnane California,+212 5228-71112,Casablanca,,"10 Bd Taddert Près Café Famagusta, Jnane Californie, Casablanca, Morocco","https://www.google.com/maps/place/Pharmacy+Jnane+California/@33.5276143,-7.683296,12z/data=!4m9!1m3!2m2!1sPharmacies+in+Casablanca+Morocco!6e2!3m4!1s0xda62d7d3d9b1443:0x56caa7b27aafc9b5!8m2!3d33.5276143!4d-7.6132582?hl=en","G9HP+2M Casablanca, Morocco","33,5276143","-7,6132582",Pharmacy,ok
Pharmacie Jonquiere,,Casablanca,,"Bis, Rue, Beni, Amar Casablanca, 20100, Morocco","https://www.google.com/maps/place/Pharmacie+Jonquiere/@33.5811281,-7.7160394,12z/data=!4m9!1m3!2m2!1sPharmacies+in+Casablanca+Morocco!6e2!3m4!1s0xda7cd4f636102f9:0xb448f2a10fd7de36!8m2!3d33.5877324!4d-7.5741261?hl=en","HCQG+38 Casablanca, Morocco","33,5877324","-7,5741261",Pharmacy,ok
Pharmacie Kabil,+212 5229-73293,Casablanca,,"Casablanca, Morocco","https://www.google.com/maps/place/Pharmacie+Kabil/@32.7988416,-8.5590874,8z/data=!4m9!1m3!2m2!1sPharmacies+in+Essaouira+Morocco!6e2!3m4!1s0xda62da3b796d1e5:0x626b8753a6069e5d!8m2!3d33.5194298!4d-7.6517428?hl=en","G89X+Q8 Casablanca, Morocco","33,5194298","-7,6517428",Pharmacy,ok
Pharmacie KARIMA,+212 5227-67161,Casablanca,,"Casablanca, Morocco","https://www.google.com/maps/place/Pharmacie+KARIMA/@33.6614948,-7.5366037,11z/data=!4m9!1m3!2m2!1sPharmacies+in+Mohammedia+Morocco!6e2!3m4!1s0xda7ca53caad8bc7:0xc21cd930153681e2!8m2!3d33.6235039!4d-7.4773161?hl=en","JGFF+C3 Casablanca, Morocco","33,6235039","-7,4773161",Pharmacy,ok
Pharmacie Kastalani,+212 5224-49698,Casablanca,,"Rue Abi Manssour Taalibi, Casablanca 20250, Morocco","https://www.google.com/maps/place/Pharmacie+Kastalani/@33.5811281,-7.7160394,12z/data=!4m9!1m3!2m2!1sPharmacies+in+Casablanca+Morocco!6e2!3m4!1s0xda7cd57616afb9f:0x2a30e79f05ca04f7!8m2!3d33.5735776!4d-7.6075983?hl=en","H9FR+CX Casablanca, Morocco","33,5735776","-7,6075983",Pharmacy,ok
Pharmacie kawnouka,+212 5227-40635,Casablanca,,"Boulevard Allait Ibn Asaad, Casablanca, Morocco","https://www.google.com/maps/place/Pharmacie+kawnouka/@33.6614948,-7.5366037,11z/data=!4m9!1m3!2m2!1sPharmacies+in+Mohammedia+Morocco!6e2!3m4!1s0xda7cb1db1d2dc77:0xdc39a0a001d0ec8c!8m2!3d33.6131498!4d-7.4818148?hl=en","JG79+77 Casablanca, Morocco","33,6131498","-7,4818148",Pharmacy,ok
Pharmacie Km 15,,Casablanca,Aïn Harrouda,"Aïn Harrouda, Morocco","https://www.google.com/maps/place/Pharmacie+Km+15/@33.6330562,-7.5406387,12z/data=!4m9!1m3!2m2!1sPharmacies+in+Mohammedia+Morocco!6e2!3m4!1s0xda7ca461d5e5d3d:0x9ad976516697b405!8m2!3d33.6330562!4d-7.4706009?hl=en","JGMH+6Q Aïn Harrouda, Morocco","33,6330562","-7,4706009",Pharmacy,ok
Pharmacie Krimate,,Casablanca,,"Casablanca, Morocco","https://www.google.com/maps/place/Pharmacie+Krimate/@32.9945585,-8.1797067,9z/data=!4m9!1m3!2m2!1sPharmacies+in+Settat+Morocco!6e2!3m4!1s0xda632a897aedef7:0x32040fa555dd8f8b!8m2!3d33.5524172!4d-7.607499?hl=en","H92V+X2 Casablanca, Morocco","33,5524172","-7,607499",Pharmacy,ok
Pharmacie L‘ambassadeur (EX:Raji),+212 5222-19775,Casablanca,,"518 Boulevard Tah, Casablanca 20153, Morocco","https://www.google.com/maps/place/Pharmacie+L%E2%80%98ambassadeur+(EX:Raji)/@33.5811281,-7.7160394,12z/data=!4m9!1m3!2m2!1sPharmacies+in+Casablanca+Morocco!6e2!3m4!1s0xda632ed445638cd:0xf453f0a1dbb21a1c!8m2!3d33.5314066!4d-7.5888743?hl=en","GCJ6+HF Casablanca, Morocco","33,5314066","-7,5888743",Pharmacy,ok
Pharmacie la source صيدلية المنبع,+212 5223-62485,Casablanca,,"6-7, Casablanca 20250, Morocco","https://www.google.com/maps/place/Pharmacie+la+source+%D8%B5%D9%8A%D8%AF%D9%84%D9%8A%D8%A9+%D8%A7%D9%84%D9%85%D9%86%D8%A8%D8%B9%E2%80%AD/@32.7988416,-8.5590874,8z/data=!4m9!1m3!2m2!1sPharmacies+in+Essaouira+Morocco!6e2!3m4!1s0xda7d326d2bd37b9:0x3333231d630129cf!8m2!3d33.576333!4d-7.6583647?hl=en","H8GR+GM Casablanca, Morocco","33,576333","-7,6583647",Pharmacy,ok
Pharmacie La Victoire,+212 5223-09364,Casablanca,,"Boulevard de Khouribga, Casablanca 20250, Morocco","https://www.google.com/maps/place/Pharmacie+La+Victoire/@33.5811281,-7.7160394,12z/data=!4m9!1m3!2m2!1sPharmacies+in+Casablanca+Morocco!6e2!3m4!1s0xda7cd6172683307:0xa092e98802ccb33f!8m2!3d33.5893313!4d-7.6081273?hl=en","H9QR+PP Casablanca, Morocco","33,5893313","-7,6081273",Pharmacy,ok
Pharmacie Laayoune,+212 5222-62104,Casablanca,,"Rue de Goulmima, Casablanca 20250, Morocco","https://www.google.com/maps/place/Pharmacie+Laayoune/@33.5811281,-7.7160394,12z/data=!4m9!1m3!2m2!1sPharmacies+in+Casablanca+Morocco!6e2!3m4!1s0xda7d2f48f802977:0x25e989865cfaf142!8m2!3d33.6006898!4d-7.635274?hl=en","J927+7V Casablanca, Morocco","33,6006898","-7,635274",Pharmacy,ok
Pharmacie Lahbabi,+212 5223-73103,Casablanca,,"Boulevard Mohamed Jamal Dora, Casablanca, Morocco","https://www.google.com/maps/place/Pharmacie+Lahbabi/@32.9945585,-8.1797067,9z/data=!4m9!1m3!2m2!1sPharmacies+in+Settat+Morocco!6e2!3m4!1s0xda632e7c7e893c9:0xc111bd3a3b92a079!8m2!3d33.540719!4d-7.5780264?hl=en","GCRC+7Q Casablanca, Morocco","33,540719","-7,5780264",Pharmacy,ok
Pharmacie Lahbabi,+212 671-306279,Casablanca,,"nø 79-81 AV N Jamila 5 Cite Jamaa, waddahab، Casablanca 20000, Morocco","https://www.google.com/maps/place/Pharmacie+Lahbabi/@32.9945585,-8.1797067,9z/data=!4m9!1m3!2m2!1sPharmacies+in+Settat+Morocco!6e2!3m4!1s0xda632d6cc2ab4c5:0xe20ef05918da2d93!8m2!3d33.5395791!4d-7.5771664?hl=en","GCQF+R4 Casablanca, Morocco","33,5395791","-7,5771664",Pharmacy,ok
Pharmacie lamoriciere,+212 5222-79456,Casablanca,,"33 Rue Tarablous, Casablanca 20140, Morocco","https://www.google.com/maps/place/pharmacie+lamoriciere/@33.5811281,-7.7160394,12z/data=!4m9!1m3!2m2!1sPharmacies+in+Casablanca+Morocco!6e2!3m4!1s0xda7d3a34f26e55b:0x273b01170d260!8m2!3d33.5856269!4d-7.6187592?hl=en","H9PJ+7F Casablanca, Morocco","33,5856269","-7,6187592",Homeopathic pharmacy,ok
Pharmacie Le Galien,+212 5228-06787,Casablanca,,"Casablanca 20250, Morocco","https://www.google.com/maps/place/Pharmacie+Le+Galien/@32.7988416,-8.5590874,8z/data=!4m9!1m3!2m2!1sPharmacies+in+Essaouira+Morocco!6e2!3m4!1s0xda7d2a834f10847:0x89b2334b7d6d954c!8m2!3d33.5708904!4d-7.6125517?hl=en","H9CP+9X Casablanca, Morocco","33,5708904","-7,6125517",Pharmacy,ok
Pharmacie le repère,+212 5223-55011,Casablanca,,"Beaulieu, Casablanca 20250, Morocco","https://www.google.com/maps/place/Pharmacie+le+rep%C3%A8re/@33.6045504,-7.6090328,12z/data=!4m9!1m3!2m2!1sPharmacies+in+Casablanca+Morocco!6e2!3m4!1s0xda7cd8c8cdf9699:0xb1e2197f34b425aa!8m2!3d33.6045504!4d-7.538995?hl=en","JF36+RC Casablanca, Morocco","33,6045504","-7,538995",Pharmacy,ok
Pharmacie lekbira,+212 5223-43740,Casablanca,,"des mimoza, Rue 13, Morocco","https://www.google.com/maps/place/Pharmacie+lekbira/@33.6331799,-7.5445652,12z/data=!4m9!1m3!2m2!1sPharmacies+in+Mohammedia+Morocco!6e2!3m4!1s0xda7cc7b7093cc4b:0xfa8fb7c5820235a2!8m2!3d33.6181007!4d-7.5333015?hl=en","JF98+6M Casablanca, Morocco","33,6181007","-7,5333015",Pharmacy,ok
Pharmacie les Capucines,+212 5223-98969,Casablanca,,"38 Boulevard Al Massira Al Khadra, Casablanca 20100, Morocco","https://www.google.com/maps/place/Pharmacie+les+Capucines/@33.5811281,-7.7160394,12z/data=!4m9!1m3!2m2!1sPharmacies+in+Casablanca+Morocco!6e2!3m4!1s0xda7d2ebba5260d5:0xb34a328297632c7b!8m2!3d33.58681!4d-7.63671?hl=en","H9P7+P8 Casablanca, Morocco","33,58681","-7,63671",Pharmacy,ok
Pharmacie les cretes,+212 691-732381,Casablanca,,"Casablanca, Morocco","https://www.google.com/maps/place/Pharmacie+les+cretes/@33.5811281,-7.7160394,12z/data=!4m9!1m3!2m2!1sPharmacies+in+Casablanca+Morocco!6e2!3m4!1s0xda632a5e5d27787:0xeb0aee92282665e2!8m2!3d33.5507026!4d-7.6054784?hl=en","H92V+7R Casablanca, Morocco","33,5507026","-7,6054784",Pharmacy,ok
Pharmacie Les Familles,+212 5222-50560,Casablanca,,"Casablanca 20250, Morocco","https://www.google.com/maps/place/Pharmacie+Les+Familles/@32.6475547,-8.706252,10z/data=!4m9!1m3!2m2!1sPharmacies+in+Sidi+Bennour+Morocco!6e2!3m4!1s0xda7d2e9db0639b7:0x6cc0b58d5ec4076d!8m2!3d33.5834804!4d-7.6403635?hl=en","H9M5+9V Casablanca, Morocco","33,5834804","-7,6403635",Pharmacy,ok
Pharmacie Les Lilas صيدلية ليلج,+212 5222-76580,Casablanca,,"Résidence El Hassounia, 6 Rue Arrachati, Casablanca 20250, Morocco","https://www.google.com/maps/place/Pharmacie+Les+Lilas+%D8%B5%D9%8A%D8%AF%D9%84%D9%8A%D8%A9+%D9%84%D9%8A%D9%84%D8%AC%E2%80%AD/@33.5811281,-7.7160394,12z/data=!4m9!1m3!2m2!1sPharmacies+in+Casablanca+Morocco!6e2!3m4!1s0xda7d2bc8dfec091:0xa8573108240b337c!8m2!3d33.579214!4d-7.6241194?hl=en","H9HG+M9 Casablanca, Morocco","33,579214","-7,6241194",Pharmacy,ok
Pharmacie Les Parents,+212 667-075025,Casablanca,,"Casablanca, Morocco","https://www.google.com/maps/place/Pharmacie+Les+Parents/@33.5811281,-7.7160394,12z/data=!4m9!1m3!2m2!1sPharmacies+in+Casablanca+Morocco!6e2!3m4!1s0xda62cbe9dc358db:0x6e02fc294906fe94!8m2!3d33.5396303!4d-7.6818375?hl=en","G8Q9+V7 Casablanca, Morocco","33,5396303","-7,6818375",Pharmacy,ok
Pharmacie Les Terrasses Marines,+212 662-082313,Casablanca,,"Route d'Azemmour, Résidence Les Terrasses Marines, Orée du Parc - Dar Bouazza, Casablanca, Morocco","https://www.google.com/maps/place/Pharmacie+Les+Terrasses+Marines/@33.5334473,-7.8371428,12z/data=!4m9!1m3!2m2!1sPharmacies+in+Casablanca+Morocco!6e2!3m4!1s0xda62abef67af907:0x84c55295cf2a170e!8m2!3d33.5334473!4d-7.767105?hl=en","G6MM+95 Casablanca, Morocco","33,5334473","-7,767105",Pharmacy,ok
Pharmacie lina,+212 5225-41927,Casablanca,,"Casablanca 20250, Morocco","https://www.google.com/maps/place/pharmacie+lina/@33.5811281,-7.7160394,12z/data=!4m9!1m3!2m2!1sPharmacies+in+Casablanca+Morocco!6e2!3m4!1s0xda7cd5b83102d03:0xffbdc145b17b0ce1!8m2!3d33.5790854!4d-7.603511?hl=en","H9HW+JH Casablanca, Morocco","33,5790854","-7,603511",Pharmacy,ok
Pharmacie L'oasis صيدلية محطة الواحة,+212 5229-90284,Casablanca,,"152 Bis, Route De L' Oasis, 20410 Quartier: Oasis, Casablanca 20100, Morocco","https://www.google.com/maps/place/%D8%B5%D9%8A%D8%AF%D9%84%D9%8A%D8%A9+%D9%85%D8%AD%D8%B7%D8%A9+%D8%A7%D9%84%D9%88%D8%A7%D8%AD%D8%A9%E2%80%AD/@33.5811281,-7.7160394,12z/data=!4m9!1m3!2m2!1sPharmacies+in+Casablanca+Morocco!6e2!3m4!1s0xda62d4a27b4a203:0xf9c00f6c7ecf0cfc!8m2!3d33.5552277!4d-7.6316208?hl=en","H949+39 Casablanca, Morocco","33,5552277","-7,6316208",Pharmacy,ok
Pharmacie LOTF ALLAH صيدلية لطف الله,+212 5226-04884,Casablanca,,"mino, hay, 7 Rue 3, Morocco","https://www.google.com/maps/place/Pharmacie+LOTF+ALLAH+%D8%B5%D9%8A%D8%AF%D9%84%D9%8A%D8%A9+%D9%84%D8%B7%D9%81+%D8%A7%D9%84%D9%84%D9%87%E2%80%AD/@33.5811281,-7.7160394,12z/data=!4m9!1m3!2m2!1sPharmacies+in+Casablanca+Morocco!6e2!3m4!1s0xda7cd279423fd49:0x8af0239904851e8b!8m2!3d33.5779117!4d-7.5691788?hl=en","HCHJ+58 Casablanca, Morocco","33,5779117","-7,5691788",Pharmacy,ok
Pharmacie Loubila,+212 5222-60014,Casablanca,,"Casablanca 20250, Morocco","https://www.google.com/maps/place/Pharmacie+Loubila/@33.5811281,-7.7160394,12z/data=!4m9!1m3!2m2!1sPharmacies+in+Casablanca+Morocco!6e2!3m4!1s0xda7d2f5ad6774c1:0x63af8e41054e5836!8m2!3d33.6027506!4d-7.636472?hl=en","J937+4C Casablanca, Morocco","33,6027506","-7,636472",Pharmacy,ok
Pharmacie lycée Med V,+212 5228-54395,Casablanca,,"Rue de Salonique, Casablanca 20250, Morocco","https://www.google.com/maps/place/pharmacie+lyc%C3%A9e+Med+V/@33.5811281,-7.7160394,12z/data=!4m9!1m3!2m2!1sPharmacies+in+Casablanca+Morocco!6e2!3m4!1s0xda7d2a77aeccf6f:0xac4650bc67151f6a!8m2!3d33.5769267!4d-7.6120123?hl=en","H9GQ+Q5 Casablanca, Morocco","33,5769267","-7,6120123",Pharmacy,ok
Pharmacie Machmach,+212 5229-73912,Casablanca,,"Casablanca, Morocco","https://www.google.com/maps/place/Pharmacie+Machmach/@33.5140488,-7.7869245,11z/data=!4m9!1m3!2m2!1sPharmacies+in+Berrechid+Morocco!6e2!3m4!1s0xda62da9b47d384f:0xd3791dc6361a664d!8m2!3d33.5140488!4d-7.6468488?hl=en","G973+J7 Casablanca, Morocco","33,5140488","-7,6468488",Pharmacy,ok
Pharmacie MADINATI AL AZHAR,+212 5227-57568,Casablanca,,"LOTISSEMENT AL AZHAR GH3 IMM 1 MAGAS 2 AHL LOUGHLAM, CASABLANCA 20600, Maroc, Casablanca, Morocco","https://www.google.com/maps/place/PHARMACIE+MADINATI+AL+AZHAR/@33.5811281,-7.7160394,12z/data=!4m9!1m3!2m2!1sPharmacies+in+Casablanca+Morocco!6e2!3m4!1s0xda7cd337ac78931:0xc034512c9dc86e46!8m2!3d33.5731104!4d-7.5898434?hl=en","HCF6+63 Casablanca, Morocco","33,5731104","-7,5898434",Pharmacy,ok
Pharmacie MAJAL ASSIHA,,Casablanca,,"Casablanca, Morocco","https://www.google.com/maps/place/PHARMACIE+MAJAL+ASSIHA/@33.6292043,-7.6253702,11z/data=!4m9!1m3!2m2!1sPharmacies+in+Mohammedia+Morocco!6e2!3m4!1s0xda7cb0805c55253:0x374e951c2772e2e6!8m2!3d33.6136987!4d-7.4925842?hl=en","JG74+FX Casablanca, Morocco","33,6136987","-7,4925842",Pharmacy,ok
Pharmacie Mandour,+212 5227-34040,Casablanca,,"Casablanca 20250, Morocco","https://www.google.com/maps/place/Pharmacie+Mandour/@33.6292043,-7.6253702,11z/data=!4m9!1m3!2m2!1sPharmacies+in+Mohammedia+Morocco!6e2!3m4!1s0xda7cbac0f678cc3:0xa65b58123b6b5397!8m2!3d33.6206236!4d-7.4861008?hl=en","JGC7+6H Casablanca, Morocco","33,6206236","-7,4861008",Pharmacy,ok
Pharmacie Marché Crio,+212 520-003787,Casablanca,,"Avenue du 10 Mars 1982, Casablanca 20670, Morocco","https://www.google.com/maps/place/Pharmacie+March%C3%A9+Crio/@33.5811281,-7.7160394,12z/data=!4m9!1m3!2m2!1sPharmacies+in+Casablanca+Morocco!6e2!3m4!1s0xda63330753a0b1d:0x7bcd9dc042948ffd!8m2!3d33.5548061!4d-7.5558837?hl=en","HC3V+WJ Casablanca, Morocco","33,5548061","-7,5558837",Pharmacy,ok
Pharmacie MARHABA,+212 5223-11640,Casablanca,,"61 Avenue des FAR, Casablanca 20250, Morocco","https://www.google.com/maps/place/PHARMACIE+MARHABA/@33.5970583,-7.6307786,14z/data=!4m9!1m3!2m2!1sPharmacies+in+Khouribga+Morocco!6e2!3m4!1s0xda7d282e8214101:0xa286dcf212d8e06f!8m2!3d33.5970583!4d-7.6132691?hl=en","H9WP+RM Casablanca, Morocco","33,5970583","-7,6132691",Pharmacy,ok
Pharmacie Masjid CIL,+212 5223-98873,Casablanca,,"Rue De Madiaq Toudgha, Casablanca 20250, Morocco","https://www.google.com/maps/place/Pharmacie+Masjid+CIL/@33.5811281,-7.7160394,12z/data=!4m9!1m3!2m2!1sPharmacies+in+Casablanca+Morocco!6e2!3m4!1s0xda7d328721cfc6d:0xbcf48e98c77d7562!8m2!3d33.5701744!4d-7.6564947?hl=en","H8CV+3C Casablanca, Morocco","33,5701744","-7,6564947",Pharmacy,ok
Pharmacie Maurice Gaud,+212 5222-02064,Casablanca,,"48, LES HOPITAUX, Casablanca, 20250, Morocco","https://www.google.com/maps/place/Pharmacie+Maurice+Gaud/@33.5811281,-7.7160394,12z/data=!4m9!1m3!2m2!1sPharmacies+in+Casablanca+Morocco!6e2!3m4!1s0xda7d2a359a194bd:0x2ffbd179d14b6d55!8m2!3d33.5788039!4d-7.6214362?hl=en","H9HH+GC Casablanca, Morocco","33,5788039","-7,6214362",Pharmacy,ok
Pharmacie Meftaha,+212 5225-80612,Casablanca,,"Casablanca, Morocco","https://www.google.com/maps/place/Pharmacie+Meftaha/@33.510819,-7.7233903,12z/data=!4m9!1m3!2m2!1sPharmacies+in+Casablanca+Morocco!6e2!3m4!1s0xda62dab698a1185:0x110cdfd687d6fc99!8m2!3d33.510819!4d-7.6533525?hl=en","G86W+8M Casablanca, Morocco","33,510819","-7,6533525",Pharmacy,ok
Pharmacie Missimi,+212 5229-00529,Casablanca,,"Casablanca 20250, Morocco","https://www.google.com/maps/place/Pharmacie+Missimi/@33.5811281,-7.7160394,12z/data=!4m9!1m3!2m2!1sPharmacies+in+Casablanca+Morocco!6e2!3m4!1s0xda7d335d00af153:0xdd3ab502dd0776bc!8m2!3d33.5635194!4d-7.6744739?hl=en","H87G+C6 Casablanca, Morocco","33,5635194","-7,6744739",Pharmacy,ok
Pharmacie Mohamed V,,Casablanca,,"Rue de Salonique, Casablanca 20250, Morocco","https://www.google.com/maps/place/Pharmacie+Mohamed+V/@33.5811281,-7.7160394,12z/data=!4m9!1m3!2m2!1sPharmacies+in+Casablanca+Morocco!6e2!3m4!1s0xda7d2a77beb6c53:0x557abc256b7bed91!8m2!3d33.5767509!4d-7.6118315?hl=en","H9GQ+P7 Casablanca, Morocco","33,5767509","-7,6118315",Pharmacy,ok
Pharmacie Moukdad Lahrizi,,Casablanca,,"Casablanca, Morocco","https://www.google.com/maps/place/Pharmacie+Moukdad+Lahrizi/@33.5811281,-7.7160394,12z/data=!4m9!1m3!2m2!1sPharmacies+in+Casablanca+Morocco!6e2!3m4!1s0xda633a8be5955ed:0xdcba31ae033b6a9c!8m2!3d33.53937!4d-7.5699072?hl=en","GCQJ+P2 Casablanca, Morocco","33,53937","-7,5699072",Pharmacy,ok
Pharmacie moulay,+212 5223-13261,Casablanca,,"Rue Bachir Ibrahimi, Casablanca 20250, Morocco","https://www.google.com/maps/place/pharmacie+moulay/@33.6226551,-7.6646361,10z/data=!4m9!1m3!2m2!1sPharmacies+in+Mohammedia+Morocco!6e2!3m4!1s0xda7cdc758b1f3c5:0x6265cd0e7842f155!8m2!3d33.5877778!4d-7.6036753?hl=en","H9QW+4G Casablanca, Morocco","33,5877778","-7,6036753",Pharmacy,ok
Pharmacie moulay idriss 1er,+212 5222-80465,Casablanca,,"60 bis Boulevard Moulay Idriss I, Casablanca 20001, Morocco","https://www.google.com/maps/place/Pharmacie+moulay+idriss+1er/@33.5811281,-7.7160394,12z/data=!4m9!1m3!2m2!1sPharmacies+in+Casablanca+Morocco!6e2!3m4!1s0xda7d3f2e278003d:0xa100f82df3cfe2c0!8m2!3d33.5726279!4d-7.6135683?hl=en","H9FP+3H Casablanca, Morocco","33,5726279","-7,6135683",Pharmacy,ok
Pharmacie Moulay Youssef,+212 5222-22725,Casablanca,,"139 Boulevard Moulay Youssef, Casablanca 20250, Morocco","https://www.google.com/maps/place/Moulay+Youssef+Pharmacy/@33.5811281,-7.7160394,12z/data=!4m8!1m2!2m1!1sPharmacies+in+Casablanca+Morocco!3m4!1s0xda7d28d87831e7f:0x202c2bf371a0638e!8m2!3d33.5984439!4d-7.6325201?hl=en","H9X8+9X Casablanca, Morocco","33,5984439","-7,6325201",Homeopathic pharmacy,ok
Pharmacie Moustaid,+212 5223-29244,Casablanca,Aïn Harrouda,"Boulevard de Palestine, Âïn-Harrouda, Morocco","https://www.google.com/maps/place/Pharmacie+Moustaid/@33.6717496,-7.4696074,12z/data=!4m9!1m3!2m2!1sPharmacies+in+Mohammedia+Morocco!6e2!3m4!1s0xda7ca14b30a602b:0xc79ffb911fc2c95!8m2!3d33.6389273!4d-7.4552818?hl=en","JGQV+HV Aïn Harrouda, Morocco","33,6389273","-7,4552818",Pharmacy,ok
Pharmacie Mrahi صيدلية المراحي,,Casablanca,,"N1, Casablanca 20250, Morocco","https://www.google.com/maps/place/%D8%B5%D9%8A%D8%AF%D9%84%D9%8A%D8%A9+%D8%A7%D9%84%D9%85%D8%B1%D8%A7%D8%AD%D9%8A%E2%80%AD/@33.6614948,-7.5366037,11z/data=!4m9!1m3!2m2!1sPharmacies+in+Mohammedia+Morocco!6e2!3m4!1s0xda7cb6a975992e1:0x2336736bfa7de237!8m2!3d33.6238233!4d-7.4855629?hl=en","JGF7+GQ Casablanca, Morocco","33,6238233","-7,4855629",Pharmacy,ok
Pharmacie Nadir Oasis CIL Beauséjour Californie,+212 5222-50943,Casablanca,,"en face du club OCP، Boulevard Al Abtal, Casablanca 20000, Morocco","https://www.google.com/maps/place/Pharmacie+Nadir+OASIS+CIL+BEAUSEJOUR+CALIFORNIE/@33.5811281,-7.7160394,12z/data=!4m9!1m3!2m2!1sPharmacies+in+Casablanca+Morocco!6e2!3m4!1s0xda62d2eeae64293:0x5a0db066625b9892!8m2!3d33.5533162!4d-7.6470741?hl=en","H933+85 Casablanca, Morocco","33,5533162","-7,6470741",Homeopathic pharmacy,ok
Pharmacie Naima,+212 5229-03100,Casablanca,,"Casablanca 20250, Morocco","https://www.google.com/maps/place/Pharmacie+Naima/@33.5811281,-7.7160394,12z/data=!4m9!1m3!2m2!1sPharmacies+in+Casablanca+Morocco!6e2!3m4!1s0xda7d33ec8c6977f:0xe8da4037e19ad3e7!8m2!3d33.5759653!4d-7.6727271?hl=en","H8GG+9W Casablanca, Morocco","33,5759653","-7,6727271",Pharmacy,ok
Pharmacie Nakhil صيدلية النخيل,+212 5227-35993,Casablanca,,"Boulevard Imam Malik, Casablanca 20250, Morocco","https://www.google.com/maps/place/Pharmacie+Nakhil+%D8%B5%D9%8A%D8%AF%D9%84%D9%8A%D8%A9+%D8%A7%D9%84%D9%86%D8%AE%D9%8A%D9%84%E2%80%AD/@33.6614948,-7.5366037,11z/data=!4m9!1m3!2m2!1sPharmacies+in+Mohammedia+Morocco!6e2!3m4!1s0xda7cbaa8a701ad7:0x660689933414a5e4!8m2!3d33.6159349!4d-7.484082?hl=en","JG88+99 Casablanca, Morocco","33,6159349","-7,484082",Pharmacy,ok
Pharmacie Narjiss صيدلية نرجس,,Casablanca,,"Casablanca 20670, Morocco","https://www.google.com/maps/place/Pharmacie+Narjiss+%D8%B5%D9%8A%D8%AF%D9%84%D9%8A%D8%A9+%D9%86%D8%B1%D8%AC%D8%B3%E2%80%AD/@33.5599737,-8.1171993,9z/data=!4m9!1m3!2m2!1sPharmacies+in+Settat+Morocco!6e2!3m4!1s0xda63331feb45a07:0xcfd546299dd9681c!8m2!3d33.5599737!4d-7.5568966?hl=en","HC5V+X6 Casablanca, Morocco","33,5599737","-7,5568966",Pharmacy,ok
Pharmacie Nasser,+212 5222-80226,Casablanca,,"Casablanca, Morocco","https://www.google.com/maps/place/Pharmacie+Nasser/@33.5811281,-7.7160394,12z/data=!4m9!1m3!2m2!1sPharmacies+in+Casablanca+Morocco!6e2!3m4!1s0xda632acc0dc9e17:0x7367e38e45cda2f8!8m2!3d33.5617861!4d-7.6045112?hl=en","H96W+P5 Casablanca, Morocco","33,5617861","-7,6045112",Pharmacy,ok
Pharmacie Nassim Islane,+212 5229-38598,Casablanca,,"Casablanca 20000, Morocco","https://www.google.com/maps/place/Pharmacie+Nassim+Islane/@33.5811281,-7.7160394,12z/data=!4m9!1m3!2m2!1sPharmacies+in+Casablanca+Morocco!6e2!3m4!1s0xda62c580440a679:0xe816cbc9cac29417!8m2!3d33.5141239!4d-7.6661292?hl=en","G87M+JG Casablanca, Morocco","33,5141239","-7,6661292",Pharmacy,ok
Pharmacie Nassre صيدلية نصر,,Casablanca,,"Casablanca, Morocco","https://www.google.com/maps/place/Pharmacie+Nassre+%D8%B5%D9%8A%D8%AF%D9%84%D9%8A%D8%A9+%D9%86%D8%B5%D8%B1%E2%80%AD/@32.9945585,-8.1797067,9z/data=!4m9!1m3!2m2!1sPharmacies+in+Settat+Morocco!6e2!3m4!1s0xda62cc7dc29cdc5:0xfabdc1f4cf11dabe!8m2!3d33.5470788!4d-7.6749684?hl=en","G8WG+R2 Casablanca, Morocco","33,5470788","-7,6749684",Pharmacy,ok
Pharmacie Noon,+212 5226-37102,Casablanca,,"12 Lyazghi Quartier la villette، Rue Abdelkrim Raisse, Casablanca 20320, Morocco","https://www.google.com/maps/place/Pharmacie+Noon/@33.5811281,-7.7160394,12z/data=!4m9!1m3!2m2!1sPharmacies+in+Casablanca+Morocco!6e2!3m4!1s0xda7cd22acbe93a3:0x298c0ced4d4b8ae!8m2!3d33.586251!4d-7.578876?hl=en","HCPC+GC Casablanca, Morocco","33,586251","-7,578876",Pharmacy,ok
Pharmacie Nouassi,+212 5223-55179,Casablanca,,"Casablanca 20250, Morocco","https://www.google.com/maps/place/Pharmacie+Nouassi/@33.6292043,-7.6253702,11z/data=!4m9!1m3!2m2!1sPharmacies+in+Mohammedia+Morocco!6e2!3m4!1s0xda7cbbd1e00ca75:0xbda7dfdfb2318c29!8m2!3d33.6266357!4d-7.5003804?hl=en","JFGX+MR Casablanca, Morocco","33,6266357","-7,5003804",Pharmacy,ok
Pharmacie noufissa sidi maarouf,+212 5225-81497,Casablanca,,"Centre soufiane boulevard abou bakr el kadiri n 2 Centre commercial، Casablanca 20520, Morocco","https://www.google.com/maps/place/Pharmacie+noufissa+sidi+maarouf/@33.5811281,-7.7160394,12z/data=!4m9!1m3!2m2!1sPharmacies+in+Casablanca+Morocco!6e2!3m4!1s0xda62d031a1ae1ef:0xdc884458a4a0024c!8m2!3d33.5222095!4d-7.6515568?hl=en","G8CX+V9 Casablanca, Morocco","33,5222095","-7,6515568",Pharmacy,ok
Pharmacie Nour صيدلية نور,+212 5223-68911,Casablanca,,"Casablanca 20250, Morocco","https://www.google.com/maps/place/Pharmacie+Nour+%D8%B5%D9%8A%D8%AF%D9%84%D9%8A%D8%A9+%D9%86%D9%88%D8%B1%E2%80%AD/@32.9945585,-8.1797067,9z/data=!4m9!1m3!2m2!1sPharmacies+in+Settat+Morocco!6e2!3m4!1s0xda7d329a8d9badb:0xedb554e0ff1ea623!8m2!3d33.5674532!4d-7.6572347?hl=en","H88V+X4 Casablanca, Morocco","33,5674532","-7,6572347",Pharmacy,ok
Pharmacie Of Dalias,+212 5225-27560,Casablanca,,"492 Boulevard Panoramique, Casablanca, Morocco","https://www.google.com/maps/place/Pharmacy+Of+Dalias/@33.5811281,-7.7160394,12z/data=!4m9!1m3!2m2!1sPharmacies+in+Casablanca+Morocco!6e2!3m4!1s0xda62d59e70a78e7:0x77bcb3623c98703d!8m2!3d33.5505601!4d-7.6155853?hl=en","H92M+6Q Casablanca, Morocco","33,5505601","-7,6155853",Pharmacy,ok
Pharmacie oliveri,,Casablanca,,"69 Rue Othmane Ibn Affane, Casablanca 20250, Morocco","https://www.google.com/maps/place/Pharmacie+oliveri/@33.5811281,-7.7160394,12z/data=!4m9!1m3!2m2!1sPharmacies+in+Casablanca+Morocco!6e2!3m4!1s0xda7d3ad0ea11021:0x1f7205b8e9f8aed3!8m2!3d33.5841875!4d-7.6245885?hl=en","H9MG+M5 Casablanca, Morocco","33,5841875","-7,6245885",Pharmacy,ok
Pharmacie ouadoudy,+212 5228-96889,Casablanca,,"20000, Casablanca 20000, Morocco","https://www.google.com/maps/place/Pharmacie+ouadoudy/@33.5266548,-7.7316532,12z/data=!4m9!1m3!2m2!1sPharmacies+in+Casablanca+Morocco!6e2!3m4!1s0xda62ce4c806d423:0x389affb9ef18e842!8m2!3d33.5266548!4d-7.6616154?hl=en","G8GQ+M9 Casablanca, Morocco","33,5266548","-7,6616154",Pharmacy,ok
Pharmacie Oued Beht,+212 5229-05103,Casablanca,,"Boulevard Oued Beht, Casablanca, Morocco","https://www.google.com/maps/place/Pharmacie+Oued+Beht/@33.5811281,-7.7160394,12z/data=!4m9!1m3!2m2!1sPharmacies+in+Casablanca+Morocco!6e2!3m4!1s0xda62cb55df499e3:0x6da0a38eabb1389e!8m2!3d33.5582974!4d-7.6776295?hl=en","H85C+8W Casablanca, Morocco","33,5582974","-7,6776295",Pharmacy,ok
Pharmacie Oulad Jerrar,+212 5222-90803,Casablanca,,"39 Passage El Yaman Dar Bouazza, Casablanca, Morocco","https://www.google.com/maps/place/Pharmacie+Oulad+Jerrar/@32.6475547,-8.706252,10z/data=!4m9!1m3!2m2!1sPharmacies+in+Sidi+Bennour+Morocco!6e2!3m4!1s0xda88045674e9edf:0x6699541e55b4cdc8!8m2!3d33.5166605!4d-7.816343?hl=en","G58M+MF Casablanca, Morocco","33,5166605","-7,816343",Pharmacy,ok
Pharmacie Ouled Haddou Najia Boustane,+212 5223-35100,Casablanca,,"Hay Najah Sidi Marouf,, Casablanca 20000, Morocco","https://www.google.com/maps/place/Pharmacie+Ouled+Haddou+Najia+Boustane/@33.5811281,-7.7160394,12z/data=!4m9!1m3!2m2!1sPharmacies+in+Casablanca+Morocco!6e2!3m4!1s0xda62daa97995ac9:0xcc2945ff10b7d17f!8m2!3d33.5145853!4d-7.6533093?hl=en","G87W+RM Casablanca, Morocco","33,5145853","-7,6533093",Pharmacy,ok
Pharmacie OUM AL QORA,+212 5227-28372,Casablanca,,"16 Boulevard Moulay Hicham, Casablanca 20400, Morocco","https://www.google.com/maps/place/PHARMACIE+OUM+AL+QORA/@33.5811281,-7.7160394,12z/data=!4m9!1m3!2m2!1sPharmacies+in+Casablanca+Morocco!6e2!3m4!1s0xda7cda22a360ac9:0x9986aac1b1367121!8m2!3d33.5807742!4d-7.5495727?hl=en","HFJ2+85 Casablanca, Morocco","33,5807742","-7,5495727",Pharmacy,ok
Pharmacie Oum El Kheir,,Casablanca,,"Casablanca, Morocco","https://www.google.com/maps/place/Pharmacie+Oum+El+Kheir/@33.5811281,-7.7160394,12z/data=!4m9!1m3!2m2!1sPharmacies+in+Casablanca+Morocco!6e2!3m4!1s0xda62d0f4d5a8475:0xef7048d78bdd235e!8m2!3d33.521584!4d-7.6432496?hl=en","G9C4+JP Casablanca, Morocco","33,521584","-7,6432496",Pharmacy,ok
Pharmacie Oum Rabii,+212 5229-08872,Casablanca,,"Boulevard Oued Oum Rabia, Casablanca 20250, Morocco","https://www.google.com/maps/place/Pharmacie+Oum+Rabii/@33.2763095,-8.5589424,11z/data=!4m9!1m3!2m2!1sPharmacies+in+Azemmour+Morocco!6e2!3m4!1s0xda7d33376e142e5:0x956df50e3e98d7!8m2!3d33.5613991!4d-7.6702378?hl=en","H86H+HW Casablanca, Morocco","33,5613991","-7,6702378",Pharmacy,ok
Pharmacie Oussama,,Casablanca,,"Casablanca, Morocco","https://www.google.com/maps/place/pharmacie+Oussama/@33.5811281,-7.7160394,12z/data=!4m9!1m3!2m2!1sPharmacies+in+Casablanca+Morocco!6e2!3m4!1s0xda7cb0400000001:0xc0f42238056d0c0d!8m2!3d33.6090338!4d-7.4868283?hl=en","JG57+J7 Casablanca, Morocco","33,6090338","-7,4868283",Pharmacy,ok
Pharmacie Ouzineb,+212 5226-20095,Casablanca,,"20000,، Casablanca 20000, Morocco","https://www.google.com/maps/place/Pharmacie+Ouzineb/@33.5811281,-7.7160394,12z/data=!4m9!1m3!2m2!1sPharmacies+in+Casablanca+Morocco!6e2!3m4!1s0xda7ccdf5a05fad3:0x56c898a18eb3d4bd!8m2!3d33.582571!4d-7.5676811?hl=en","HCMJ+2W Casablanca, Morocco","33,582571","-7,5676811",Pharmacy,ok
Pharmacie Panorama صيدلية بانوراما,+212 5227-67157,Casablanca,,"cité Sidi Bernoussi، Panorama Tranche 4، Sidi Moumen، Casablanca 20630, Morocco","https://www.google.com/maps/place/Pharmacie+Panorama+%D8%B5%D9%8A%D8%AF%D9%84%D9%8A%D8%A9+%D8%A8%D8%A7%D9%86%D9%88%D8%B1%D8%A7%D9%85%D8%A7%E2%80%AD/@32.0364202,-10.8306049,7z/data=!4m9!1m3!2m2!1sPharmacies+in+Essaouira+Morocco!6e2!3m4!1s0xda7cb1a7189cfe5:0xd9448cd407f45dd7!8m2!3d33.599397!4d-7.491693?hl=en","HGX5+Q8 Casablanca, Morocco","33,599397","-7,491693",Pharmacy,ok
Pharmacie panoramique,,Casablanca,,"164 Boulevard Panoramique, Casablanca, Morocco","https://www.google.com/maps/place/pharmacie+panoramique/@33.5557146,-7.7384296,11z/data=!4m9!1m3!2m2!1sPharmacies+in+Mohammedia+Morocco!6e2!3m4!1s0xda633e2fd45b335:0xa1d2f2261231b927!8m2!3d33.5557146!4d-7.5983539?hl=en","HC42+7M Casablanca, Morocco","33,5557146","-7,5983539",Pharmacy,ok
Pharmacie Para Pharmacie Yasir,+212 5227-32957,Casablanca,,"Yasser Mind, Amal 1 N42، Rue 28, Casablanca 26000, Morocco","https://www.google.com/maps/place/Pharmacy+Para+Pharmacy+Yasir/@33.5811281,-7.7160394,12z/data=!4m9!1m3!2m2!1sPharmacies+in+Casablanca+Morocco!6e2!3m4!1s0xda7cb70b9dfc333:0x10d9d56a6629c177!8m2!3d33.6066235!4d-7.5127722?hl=en","JF4P+JV Casablanca, Morocco","33,6066235","-7,5127722",Pharmacy,ok
Pharmacie Pitchou,+212 5222-87211,Casablanca,,"Rue 10, Derb Foukara, Casablanca, Morocco","https://www.google.com/maps/place/Pharmacie+Pitchou/@32.7988416,-8.5590874,8z/data=!4m9!1m3!2m2!1sPharmacies+in+Essaouira+Morocco!6e2!3m4!1s0xda7cda9aa96ccd1:0xc623c6c8940100b6!8m2!3d33.5658457!4d-7.6071246?hl=en","H98V+85 Casablanca, Morocco","33,5658457","-7,6071246",Pharmacy,ok
Pharmacie Principale,+212 5222-20174,Casablanca,,"Rond Point Mers Sultan, Casablanca 20000, Morocco","https://www.google.com/maps/place/Pharmacie+Principale/@2.7631268,-141.4680725,3z/data=!4m9!1m3!2m2!1sPharmacies+in+Khenifra+Morocco!6e2!3m4!1s0xda7d2997b6a8777:0x7921bc2c68f25657!8m2!3d33.5876991!4d-7.6173765?hl=en","H9QM+32 Casablanca, Morocco","33,5876991","-7,6173765",Pharmacy,ok
Pharmacie Rabii Al Mostakbal,+212 5225-83415,Casablanca,,"Casablanca, Morocco","https://www.google.com/maps/place/Pharmacie+Rabii+Al+Mostakbal/@33.5811281,-7.7160394,12z/data=!4m9!1m3!2m2!1sPharmacies+in+Casablanca+Morocco!6e2!3m4!1s0xda62d1a421ebb7b:0x5e1086492001d48a!8m2!3d33.5307848!4d-7.645384?hl=en","G9J3+8R Casablanca, Morocco","33,5307848","-7,645384",Pharmacy,ok
Pharmacie Racha,+212 5227-00294,Casablanca,,"Casablanca 20250, Morocco","https://www.google.com/maps/place/Pharmacie+Racha/@33.5811281,-7.7160394,12z/data=!4m9!1m3!2m2!1sPharmacies+in+Casablanca+Morocco!6e2!3m4!1s0xda7cca022938e8f:0x9fda3fe440895265!8m2!3d33.5893671!4d-7.5261484?hl=en","HFQF+PG Casablanca, Morocco","33,5893671","-7,5261484",Pharmacy,ok
Pharmacie Racine,+212 5222-72991,Casablanca,,"12, rue abderrahman al kaouakibi, Casablanca 20250, Morocco","https://www.google.com/maps/place/Pharmacie+Racine/@33.5811281,-7.7160394,12z/data=!4m9!1m3!2m2!1sPharmacies+in+Casablanca+Morocco!6e2!3m4!1s0xda7d2ecda25db1f:0xc76421cc8dbf7754!8m2!3d33.5913983!4d-7.6337981?hl=en","H9R8+HF Casablanca, Morocco","33,5913983","-7,6337981",Pharmacy,ok
Pharmacie RAHIMA,+212 5227-03637,Casablanca,,"Boulevard Mohamed Al Bakkali, Casablanca 20250, Morocco","https://www.google.com/maps/place/Pharmacie+RAHIMA/@33.5937703,-7.5880511,12z/data=!4m9!1m3!2m2!1sPharmacies+in+Mohammedia+Morocco!6e2!3m4!1s0xda7cb96fc470dd1:0x4eec5f1d1b23842!8m2!3d33.5937703!4d-7.5180133?hl=en","HFVJ+GQ Casablanca, Morocco","33,5937703","-7,5180133",Pharmacy,ok
Pharmacie Raïs,+212 5227-98152,Casablanca,,"62 Boulevard de la Mer Baltique، Casablanca, Morocco","https://www.google.com/maps/place/Pharmacie+Ra%C3%AFs/@33.5811281,-7.7160394,12z/data=!4m9!1m3!2m2!1sPharmacies+in+Casablanca+Morocco!6e2!3m4!1s0xda7d36c85c322a5:0xedb7a3deea09e23e!8m2!3d33.5867193!4d-7.6788425?hl=en","H8PC+MF Casablanca, Morocco","33,5867193","-7,6788425",Pharmacy,ok
Pharmacie Rajaa,+212 5229-03249,Casablanca,,"Mosquée Laâlaj, Rue Sidi Al Khadir, Casablanca 20200, Morocco","https://www.google.com/maps/place/Pharmacie+Rajaa/@33.5811281,-7.7160394,12z/data=!4m9!1m3!2m2!1sPharmacies+in+Casablanca+Morocco!6e2!3m4!1s0xda7d345eded3751:0x8468141014f54a70!8m2!3d33.569918!4d-7.6830772?hl=en","H898+XQ Casablanca, Morocco","33,569918","-7,6830772",Pharmacy,ok
Pharmacie Rania صيدلية رانيا,+212 5228-70599,Casablanca,,"Rue 10, Casablanca, Morocco","https://www.google.com/maps/place/Pharmacie+Rania+%D8%B5%D9%8A%D8%AF%D9%84%D9%8A%D8%A9+%D8%B1%D8%A7%D9%86%D9%8A%D8%A7%E2%80%AD/@33.5306897,-7.6820786,12z/data=!4m9!1m3!2m2!1sPharmacies+in+Casablanca+Morocco!6e2!3m4!1s0xda6329d7576d093:0xd0b623e1323a2905!8m2!3d33.5306897!4d-7.6120408?hl=en","G9JQ+75 Casablanca, Morocco","33,5306897","-7,6120408",Pharmacy,ok
Pharmacie Regionale,+212 5223-13394,Casablanca,,"ex Boulevard d'Alsace, Casablanca 20250, Morocco","https://www.google.com/maps/place/pharmacie+Regionale/@33.5811281,-7.7160394,12z/data=!4m9!1m3!2m2!1sPharmacies+in+Casablanca+Morocco!6e2!3m4!1s0xda7cd601ef45bf1:0x9b1d7fa59c955623!8m2!3d33.5859404!4d-7.6114256?hl=en","H9PQ+9C Casablanca, Morocco","33,5859404","-7,6114256",Pharmacy,ok
Pharmacie Résidence Nadia,+212 5222-37269,Casablanca,,"Centre Commercial Nadia, 281 Boulevard Brahim Roudani, Casablanca 20390, Morocco","https://www.google.com/maps/place/Pharmacie+R%C3%A9sidence+Nadia/@33.5811281,-7.7160394,12z/data=!4m9!1m3!2m2!1sPharmacies+in+Casablanca+Morocco!6e2!3m4!1s0xda7d2c58f04c373:0x8a82e933deea6c0a!8m2!3d33.5715002!4d-7.642565?hl=en","H9C4+JX Casablanca, Morocco","33,5715002","-7,642565",Pharmacy,ok
Pharmacie Riad Al Qods صيدلية رياض القدس,,Casablanca,,"Boulevard Al Fouarat, Casablanca 20250, Morocco","https://www.google.com/maps/place/%D8%B5%D9%8A%D8%AF%D9%84%D9%8A%D8%A9+%D8%B1%D9%8A%D8%A7%D8%B6+%D8%A7%D9%84%D9%82%D8%AF%D8%B3%E2%80%AD/@33.6614948,-7.5366037,11z/data=!4m9!1m3!2m2!1sPharmacies+in+Mohammedia+Morocco!6e2!3m4!1s0xda7cb9a2f252b55:0x9de481a0df24c52f!8m2!3d33.618197!4d-7.4828016?hl=en","JG98+7V Casablanca, Morocco","33,618197","-7,4828016",Pharmacy,ok
Pharmacie riad echallalate,,Casablanca,Aïn Harrouda,"Projet Riad Echallalate GH1 Mag 5, Âïn-Harrouda, Morocco","https://www.google.com/maps/place/pharmacie+riad+echallalate/@33.6717496,-7.4696074,12z/data=!4m9!1m3!2m2!1sPharmacies+in+Mohammedia+Morocco!6e2!3m4!1s0xda7cb3a2a3e8f7f:0x971e222726b6ac5b!8m2!3d33.6188386!4d-7.4457569?hl=en","JH93+GM Aïn Harrouda, Morocco","33,6188386","-7,4457569",Pharmacy,ok
Pharmacie Riad-Sofia,+212 5229-09500,Casablanca,,"RESIDENCE RIAD ATLAS GH8 BIS IMM12, MAGASINS 2-3 ZONE RIAD SOFIA, Casablanca 20230, Morocco","https://www.google.com/maps/place/Pharmacie+Riad-Sofia/@2.7631268,-141.4680725,3z/data=!4m9!1m3!2m2!1sPharmacies+in+Khenifra+Morocco!6e2!3m4!1s0xda62cf488d0a3d9:0xe7bc4426920ffb53!8m2!3d33.521561!4d-7.6739557?hl=en","G8CG+JC Casablanca, Morocco","33,521561","-7,6739557",Pharmacy,ok
Pharmacie Riviéra,+212 540 04 57 00,Casablanca,,"14 Rue des Eperviers, Casablanca, Morocco","https://www.google.com/maps/place/Pharmacie+Rivi%C3%A9ra/@33.5811281,-7.7160394,12z/data=!4m9!1m3!2m2!1sPharmacies+in+Casablanca+Morocco!6e2!3m4!1s0xda7d2cbf3dd8cdd:0xbc358b23aade129a!8m2!3d33.5646107!4d-7.6391892?hl=en","H976+R8 Casablanca, Morocco","33,5646107","-7,6391892",Pharmacy,ok
Pharmacie Rochdi,+212 5228-93286,Casablanca,,"Casablanca 20240, Morocco","https://www.google.com/maps/place/Pharmacie+Rochdi/@33.5569382,-7.67595,15z/data=!4m9!1m3!2m2!1sPharmacies+in+Sidi+Bennour+Morocco!6e2!3m4!1s0xda62ccd0d81fa67:0x843f5b27786412d2!8m2!3d33.5569382!4d-7.6671953?hl=en","H84M+Q4 Casablanca, Morocco","33,5569382","-7,6671953",Pharmacy,ok
Pharmacie Roudani,+212 5222-71224,Casablanca,,"26 Boulevard Brahim Roudani, Casablanca 20050, Morocco","https://www.google.com/maps/place/Pharmacie+Roudani/@33.5811281,-7.7160394,12z/data=!4m8!1m2!2m1!1sPharmacies+in+Casablanca+Morocco!3m4!1s0xda7d296b12a08bb:0x7fdfb2da00117ccf!8m2!3d33.5888306!4d-7.6267931?hl=en","H9QF+G7 Casablanca, Morocco","33,5888306","-7,6267931",Pharmacy,ok
Pharmacie ROUTE DE RABAT,+212 5226-63278,Casablanca,,"P3006, Casablanca 20250, Morocco","https://www.google.com/maps/place/Pharmacie+ROUTE+DE+RABAT/@30.495184,-17.5733055,4z/data=!4m9!1m3!2m2!1sPharmacies+in+Rabat+Morocco!6e2!3m4!1s0xda7cb71188ca7dd:0xa8845aea5caea4bc!8m2!3d33.6021541!4d-7.5240977?hl=en","JF2G+V9 Casablanca, Morocco","33,6021541","-7,5240977",Pharmacy,ok
Pharmacie Sakan Al Wahda,+212 603-924052,Casablanca,,Morocco,"https://www.google.com/maps/place/Pharmacie+Sakan+Al+Wahda/@29.2405574,-65.4447862,3z/data=!4m9!1m3!2m2!1sPharmacies+in+Guelmim+Morocco!6e2!3m4!1s0xda62b4f081e1f29:0x84c46ae52167d7ac!8m2!3d33.5472674!4d-7.7117774?hl=en","G7WQ+W7 Casablanca, Morocco","33,5472674","-7,7117774",Pharmacy,ok
Pharmacie sakani,+212 5227-41352,Casablanca,,"imm 8 n 801 residence sakani ahl loughlam hay el azhar, Morocco","https://www.google.com/maps/place/pharmacie+sakani/@33.6012186,-7.5503235,12z/data=!4m9!1m3!2m2!1sPharmacies+in+Mohammedia+Morocco!6e2!3m4!1s0xda7cae28a4f750b:0xeef20c6743772ea5!8m2!3d33.6012186!4d-7.4802857?hl=en","JG29+FV Casablanca, Morocco","33,6012186","-7,4802857",Pharmacy,ok
Pharmacie Salim,+212 5225-65176,Casablanca,,"Casablanca, Morocco","https://www.google.com/maps/place/Pharmacie+Salim/@33.6226551,-7.6646361,10z/data=!4m9!1m3!2m2!1sPharmacies+in+Mohammedia+Morocco!6e2!3m4!1s0xda6331e6aaaaaab:0x852c17c07c4506de!8m2!3d33.5378172!4d-7.5671062?hl=en","GCQM+45 Casablanca, Morocco","33,5378172","-7,5671062",Pharmacy,ok
Pharmacie SedQ,,Casablanca,,"Casablanca quartie nassim, Casablanca, Morocco","https://www.google.com/maps/place/Pharmacie+SedQ/@33.2679611,-7.8590119,10z/data=!4m9!1m3!2m2!1sPharmacies+in+Berrechid+Morocco!6e2!3m4!1s0xda62d7389433553:0xb8ec9f3f01da6d37!8m2!3d33.5230883!4d-7.6574315?hl=en","G8FV+62 Casablanca, Morocco","33,5230883","-7,6574315",Pharmacy,ok
Pharmacie Senhaja,+212 5226-23814,Casablanca,,"Casablanca 20250, Morocco","https://www.google.com/maps/place/Pharmacie+Senhaja/@33.5811281,-7.7160394,12z/data=!4m9!1m3!2m2!1sPharmacies+in+Casablanca+Morocco!6e2!3m4!1s0xda7cd7c87be6357:0x9bd1e184a4e98436!8m2!3d33.5926398!4d-7.5751685?hl=en","HCVF+3W Casablanca, Morocco","33,5926398","-7,5751685",Pharmacy,ok
Pharmacie SEVAM,+212 5227-36363,Casablanca,,"3, Hay Al Azhar Imm. 9 Bloc 7 Magasin N° 3 - Sevam - Bernoussi Boulevard Ahl Laghlam، Casablanca, Morocco","https://www.google.com/maps/place/Pharmacie+SEVAM/@33.5983924,-7.5535662,12z/data=!4m9!1m3!2m2!1sPharmacies+in+Mohammedia+Morocco!6e2!3m4!1s0xda7cb1dd76c3743:0xe31f77e218176ff3!8m2!3d33.5983924!4d-7.4835284?hl=en","HGX8+9H Casablanca, Morocco","33,5983924","-7,4835284",Pharmacy,ok
Pharmacie Sidi Massôud,+212 5229-73981,Casablanca,,"P3020, Casablanca, Morocco","https://www.google.com/maps/place/Pharmacie+Sidi+Mass%C3%B4ud/@32.9945585,-8.1797067,9z/data=!4m9!1m3!2m2!1sPharmacies+in+Settat+Morocco!6e2!3m4!1s0xda62d9e7502f427:0x7840ab8ec130409d!8m2!3d33.5153887!4d-7.6278524?hl=en","G98C+5V Casablanca, Morocco","33,5153887","-7,6278524",Pharmacy,ok
Pharmacie Sidi Othmane,,Casablanca,,"Casablanca, Morocco","https://www.google.com/maps/place/Pharmacie+Sidi+Othmane/@33.6292043,-7.6253702,11z/data=!4m9!1m3!2m2!1sPharmacies+in+Mohammedia+Morocco!6e2!3m4!1s0xda632d3953d615b:0x943037f45ea71e1c!8m2!3d33.5606356!4d-7.5747125?hl=en","HC6G+74 Casablanca, Morocco","33,5606356","-7,5747125",Pharmacy,ok
Pharmacie Sijilmassa,+212 5223-73615,Casablanca,,"Boulevard Al Joulane, Casablanca, Morocco","https://www.google.com/maps/place/Pharmacie+Sijilmassa/@31.3079826,-8.8042272,6z/data=!4m9!1m3!2m2!1sPharmacies+in+Arfoud+Morocco!6e2!3m4!1s0xda632d839dde5b1:0xde8559a51db1ec9e!8m2!3d33.5528834!4d-7.570138?hl=en","HC3H+5W Casablanca, Morocco","33,5528834","-7,570138",Pharmacy,ok
Pharmacie Smires,+212 5225-22161,Casablanca,,"513 Boulevard Smara Hay Osra 1, Casablanca 20100, Morocco","https://www.google.com/maps/place/Pharmacie+Smires/@0.1898345,-164.7102695,3z/data=!4m8!1m2!2m1!1sPharmacies+in+Smara+Morocco!3m4!1s0xda632ee63dcf59f:0x7d6b00e1fa418665!8m2!3d33.533333!4d-7.583333?hl=en",,"33,533333","-7,583333",Pharmacy,ok
Pharmacie Soltana,,Casablanca,,"Casablanca, Morocco","https://www.google.com/maps/place/Pharmacie+Soltana/@33.5811281,-7.7160394,12z/data=!4m9!1m3!2m2!1sPharmacies+in+Casablanca+Morocco!6e2!3m4!1s0xda7d3d82b77bd61:0x597292d8a134a166!8m2!3d33.5582248!4d-7.6837339?hl=en","H858+7G Casablanca, Morocco","33,5582248","-7,6837339",Pharmacy,ok
Pharmacie Soufiane,+212 611-129380,Casablanca,,"154, Rue A, Casablanca, Morocco","https://www.google.com/maps/place/Pharmacie+Soufiane/@33.549233,-7.7513465,12z/data=!4m9!1m3!2m2!1sPharmacies+in+Casablanca+Morocco!6e2!3m4!1s0xda62cb72f908de1:0xfc18853e7816e922!8m2!3d33.549233!4d-7.6813087?hl=en","G8X9+MF Casablanca, Morocco","33,549233","-7,6813087",Pharmacy,ok
Pharmacie Soulaïma,+212 5222-19894,Casablanca,,"Boulevard de Fes, Casablanca, Morocco","https://www.google.com/maps/place/Pharmacie+Soula%C3%AFma/@33.5435287,-7.6860017,12z/data=!4m9!1m3!2m2!1sPharmacies+in+Casablanca+Morocco!6e2!3m4!1s0xda62d5e91b04a6b:0x98cef21f471bcf70!8m2!3d33.5435287!4d-7.6159639?hl=en","G9VM+CJ Casablanca, Morocco","33,5435287","-7,6159639",Pharmacy,ok
Pharmacie Taddart,+212 5222-82167,Casablanca,,"Route de Taddart, Maarif, Morocco","https://www.google.com/maps/place/Pharmacie+Taddart/@32.7988416,-8.5590874,8z/data=!4m9!1m3!2m2!1sPharmacies+in+Essaouira+Morocco!6e2!3m4!1s0xda62d4dd9e79c33:0xe049fd098912527a!8m2!3d33.5563651!4d-7.6243177?hl=en","H94G+G7 Casablanca, Morocco","33,5563651","-7,6243177",Pharmacy,ok
Pharmacie Taha,,Casablanca,,"Casablanca 20250, Morocco","https://www.google.com/maps/place/Pharmacie+Taha/@33.5811281,-7.7160394,12z/data=!4m9!1m3!2m2!1sPharmacies+in+Casablanca+Morocco!6e2!3m4!1s0xda7ccd70ef46bdd:0xc1125b9cbc9011c2!8m2!3d33.5746471!4d-7.5648828?hl=en","HCFP+V2 Casablanca, Morocco","33,5746471","-7,5648828",Pharmacy,ok
Pharmacie Taha Houssine,+212 5228-52225,Casablanca,,"13 Avenue B Hay Drissia 2, Casablanca 20100, Morocco","https://www.google.com/maps/place/Pharmacie+Taha+Houssine/@33.5811281,-7.7160394,12z/data=!4m8!1m2!2m1!1sPharmacies+in+Casablanca+Morocco!3m4!1s0xda632b54003364d:0x10ccdebed8cbc5a8!8m2!3d33.5627254!4d-7.5904356?hl=en","HC75+3R Casablanca, Morocco","33,5627254","-7,5904356",Pharmacy,ok
Pharmacie Taj Almadina,+212 5225-50516,Casablanca,,"Casablanca 20000, Morocco","https://www.google.com/maps/place/Pharmacie+Taj+Almadina/@33.5501588,-7.6163888,12z/data=!4m9!1m3!2m2!1sPharmacies+in+Casablanca+Morocco!6e2!3m4!1s0xda633475602e2a1:0x8363adc2d10ce96d!8m2!3d33.5501588!4d-7.546351?hl=en","HF23+3F Casablanca, Morocco","33,5501588","-7,546351",Pharmacy,ok
Pharmacie TARIK ALKHAIR,,Casablanca,,"Casablanca, Morocco","https://www.google.com/maps/place/Pharmacie+TARIK+ALKHAIR/@33.6292043,-7.6253702,11z/data=!4m9!1m3!2m2!1sPharmacies+in+Mohammedia+Morocco!6e2!3m4!1s0xda7cb08ed4eccb7:0x20cf4a01ebe4e945!8m2!3d33.6106435!4d-7.4936219?hl=en","JG64+7H Casablanca, Morocco","33,6106435","-7,4936219",Pharmacy,ok
Pharmacie Tassnime,+212 5225-84172,Casablanca,,"Doha Al Moustakbal, Casablanca 20100, Morocco","https://www.google.com/maps/place/Pharmacie+Tassnime/@33.5811281,-7.7160394,12z/data=!4m9!1m3!2m2!1sPharmacies+in+Casablanca+Morocco!6e2!3m4!1s0xda62d036c3f0f85:0xc1a08450de9f0aa3!8m2!3d33.5279494!4d-7.6459593?hl=en","G9H3+5J Casablanca, Morocco","33,5279494","-7,6459593",Pharmacy,ok
Pharmacie tilia casablanca,,Casablanca,,"Casablanca, Morocco","https://www.google.com/maps/place/Pharmacie+tilia+casablanca/@33.5464995,-7.7400552,12z/data=!4m9!1m3!2m2!1sPharmacies+in+Casablanca+Morocco!6e2!3m4!1s0xda62cc50733bd31:0xa1363260fd6fa96!8m2!3d33.5464995!4d-7.6700174?hl=en","G8WH+HX Casablanca, Morocco","33,5464995","-7,6700174",Pharmacy,ok
Pharmacie Tissima,,Casablanca,,"Boulevard Al Joulane, Casablanca 20670, Morocco","https://www.google.com/maps/place/Pharmacie+Tissima/@32.9945585,-8.1797067,9z/data=!4m9!1m3!2m2!1sPharmacies+in+Settat+Morocco!6e2!3m4!1s0xda633220b49e85d:0xaed598aa0a1a9322!8m2!3d33.543687!4d-7.5615459?hl=en","GCVQ+F9 Casablanca, Morocco","33,543687","-7,5615459",Pharmacy,ok
Pharmacie Tmime,+212 5229-73111,Casablanca,,"Casablanca, Morocco","https://www.google.com/maps/place/Pharmacie+Tmime/@33.2681968,-7.7189014,11z/data=!4m9!1m3!2m2!1sPharmacies+in+Berrechid+Morocco!6e2!3m4!1s0xda62da8ff8caab3:0xa6a6226acbf55d3d!8m2!3d33.5129586!4d-7.6465886?hl=en","G973+59 Casablanca, Morocco","33,5129586","-7,6465886",Pharmacy,ok
Pharmacie Tontonville,+212 5228-60398,Casablanca,,"33 Allée du Cygne, Casablanca 20250, Morocco","https://www.google.com/maps/place/Pharmacie+Tontonville/@33.5811281,-7.7160394,12z/data=!4m8!1m2!2m1!1sPharmacies+in+Casablanca+Morocco!3m4!1s0xda7d2b21617cecf:0x747c243427f46fc7!8m2!3d33.5660902!4d-7.623581?hl=en","H98G+CH Casablanca, Morocco","33,5660902","-7,623581",Pharmacy,ok
Pharmacie Touati,+212 5226-52070,Casablanca,,"Casablanca, Morocco","https://www.google.com/maps/place/Pharmacie+Touati/@33.2679611,-7.8590119,10z/data=!4m9!1m3!2m2!1sPharmacies+in+Berrechid+Morocco!6e2!3m4!1s0xda62c8b3a157ddf:0x3406749b591e39ca!8m2!3d33.5176446!4d-7.6773735?hl=en","G89F+33 Casablanca, Morocco","33,5176446","-7,6773735",Pharmacy,ok
Pharmacie Touria - صيدلية ثريا,,Casablanca,,"Casablanca, Morocco","https://www.google.com/maps/place/Pharmacie+Touria+-+%D8%B5%D9%8A%D8%AF%D9%84%D9%8A%D8%A9+%D8%AB%D8%B1%D9%8A%D8%A7%E2%80%AD/@33.6292043,-7.6253702,11z/data=!4m9!1m3!2m2!1sPharmacies+in+Mohammedia+Morocco!6e2!3m4!1s0xda7cb095a3e1435:0xc2938d5ede1cddaa!8m2!3d33.609189!4d-7.4972473?hl=en","JG53+M4 Casablanca, Morocco","33,609189","-7,4972473",Pharmacy,ok
Pharmacie Univers Sante,+212 5229-80906,Casablanca,,"116 Rue Jilali El Oufir Maarif Extension, Casablanca 20100, Morocco","https://www.google.com/maps/place/Pharmacie+Univers+Sante/@33.5811281,-7.7160394,12z/data=!4m9!1m3!2m2!1sPharmacies+in+Casablanca+Morocco!6e2!3m4!1s0xda7d2befcff14a3:0x9a8babfb40147d6f!8m2!3d33.580262!4d-7.630217?hl=en",,"33,580262","-7,630217",Pharmacy,ok
Pharmacie Universelle,+212 5222-53142,Casablanca,,"398 Boulevard Brahim Roudani, Casablanca 20100, Morocco","https://www.google.com/maps/place/Pharmacie+Universelle/@33.5811281,-7.7160394,12z/data=!4m9!1m3!2m2!1sPharmacies+in+Casablanca+Morocco!6e2!3m4!1s0xda7d29563fab183:0xda3975c8a00ad82a!8m2!3d33.5808312!4d-7.6346088?hl=en","H9J8+85 Casablanca, Morocco","33,5808312","-7,6346088",Pharmacy,ok
Pharmacie Val Fleuri,+212 5222-32480,Casablanca,,"89 Rue 89, Casablanca, Morocco","https://www.google.com/maps/place/Pharmacie+Val+Fleuri/@33.5811281,-7.7160394,12z/data=!4m9!1m3!2m2!1sPharmacies+in+Casablanca+Morocco!6e2!3m4!1s0xda7d2c70a4939fb:0xeaa96c685ba3b1c8!8m2!3d33.5750999!4d-7.634702?hl=en","H9G8+24 Casablanca, Morocco","33,5750999","-7,634702",Pharmacy,ok
Pharmacie Velodrome,+212 5223-60248,Casablanca,,"Rond Point des Sports, Casablanca 20100, Morocco","https://www.google.com/maps/place/Pharmacie+Velodrome/@33.5811281,-7.7160394,12z/data=!4m9!1m3!2m2!1sPharmacies+in+Casablanca+Morocco!6e2!3m4!1s0xda7d2efb2343bf3:0xaa2d02b773eb18ea!8m2!3d33.5914738!4d-7.6410793?hl=en","H9R5+HH Casablanca, Morocco","33,5914738","-7,6410793",Pharmacy,ok
Pharmacie Vie,+212 5224-05901,Casablanca,,"Boulevard Ba Hmad, Casablanca 20100, Morocco","https://www.google.com/maps/place/Pharmacie+Vie/@32.9945585,-8.1797067,9z/data=!4m9!1m3!2m2!1sPharmacies+in+Settat+Morocco!6e2!3m4!1s0xda7cd1300afac73:0xc90078541af8bba6!8m2!3d33.592084!4d-7.5896715?hl=en","HCR6+R4 Casablanca, Morocco","33,592084","-7,5896715",Pharmacy,ok
Pharmacie VITA,+212 5229-81424,Casablanca,,"Boulevard Brahim Roudani, Casablanca 20390, Morocco","https://www.google.com/maps/place/Pharmacie+VITA/@33.5811281,-7.7160394,12z/data=!4m8!1m2!2m1!1sPharmacies+in+Casablanca+Morocco!3m4!1s0xda7d2c425129213:0xa3cb4e65df1b4b51!8m2!3d33.5755054!4d-7.6391617?hl=en","H9G6+68 Casablanca, Morocco","33,5755054","-7,6391617",Pharmacy,ok
Pharmacie Wiam,+212 5229-11731,Casablanca,,"Boulevard Oued Laou, Casablanca, Morocco","https://www.google.com/maps/place/Pharmacie+Wiam/@32.9945585,-8.1797067,9z/data=!4m9!1m3!2m2!1sPharmacies+in+Settat+Morocco!6e2!3m4!1s0xda62ccadc3c5209:0x8fb1fa66ea9b0a1d!8m2!3d33.5574469!4d-7.674197?hl=en","H84G+X8 Casablanca, Morocco","33,5574469","-7,674197",Pharmacy,ok
Pharmacie WYDADS,+212 5229-42029,Casablanca,,"Casablanca, Morocco","https://www.google.com/maps/place/PHARMACIE+WYDADS/@33.5811281,-7.7160394,12z/data=!4m9!1m3!2m2!1sPharmacies+in+Casablanca+Morocco!6e2!3m4!1s0xda7d30303a642f7:0x9269f99bd5f1b86!8m2!3d33.5952731!4d-7.6577429?hl=en","H8WR+4W Casablanca, Morocco","33,5952731","-7,6577429",Pharmacy,ok
Pharmacie Yassmine,,Casablanca,,"Casablanca, Morocco","https://www.google.com/maps/place/Pharmacie+Yassmine/@33.5279143,-7.7158803,12z/data=!4m9!1m3!2m2!1sPharmacies+in+Casablanca+Morocco!6e2!3m4!1s0xda62d1ac496f253:0x3ddfead71f152cef!8m2!3d33.5279143!4d-7.6458425?hl=en","G9H3+5M Casablanca, Morocco","33,5279143","-7,6458425",Pharmacy,ok
Pharmacie Zahra,+212 5223-21274,Casablanca,,"Casablanca, Morocco","https://www.google.com/maps/place/Pharmacie+Zahra/@33.2679611,-7.8590119,10z/data=!4m9!1m3!2m2!1sPharmacies+in+Berrechid+Morocco!6e2!3m4!1s0xda62c5483d0b7a5:0xdbf80c58ffd60236!8m2!3d33.5097551!4d-7.6571612?hl=en","G85V+W4 Casablanca, Morocco","33,5097551","-7,6571612",Pharmacy,ok
Pharmacie ZAITOUNA,,Casablanca,Aïn Harrouda,"Aïn Harrouda, Morocco","https://www.google.com/maps/place/PHARMACIE+ZAITOUNA/@33.6717496,-7.4696074,12z/data=!4m9!1m3!2m2!1sPharmacies+in+Mohammedia+Morocco!6e2!3m4!1s0xda7b587bbc571e3:0x63a153ac343b9d50!8m2!3d33.6269847!4d-7.4363224?hl=en","JHG7+QF Aïn Harrouda, Morocco","33,6269847","-7,4363224",Pharmacy,ok
Pharmacie Zamzam,,Casablanca,,"Casablanca, Morocco","https://www.google.com/maps/place/Pharmacie+Zamzam/@33.5811281,-7.7160394,12z/data=!4m9!1m3!2m2!1sPharmacies+in+Casablanca+Morocco!6e2!3m4!1s0xda62d063a0c885b:0x2fe55d91f8204180!8m2!3d33.5194472!4d-7.6448768?hl=en","G994+Q2 Casablanca, Morocco","33,5194472","-7,6448768",Pharmacy,ok
Pharmacie Zone Industrielle,+212 5227-09190,Casablanca,,"41 Avenue Abdelkader Essahraoui, Casablanca 20100, Morocco","https://www.google.com/maps/place/Pharmacie+Zone+Industrielle/@32.7988416,-8.5590874,8z/data=!4m9!1m3!2m2!1sPharmacies+in+Essaouira+Morocco!6e2!3m4!1s0xda7cb55022af027:0x5135a1895f0ffb36!8m2!3d33.5702406!4d-7.5224825?hl=en","HFCH+32 Casablanca, Morocco","33,5702406","-7,5224825",Pharmacy,ok
Pharmacie zoubir,+212 5229-34190,Casablanca,,"Casablanca, Morocco","https://www.google.com/maps/place/pharmacie+zoubir/@33.5417027,-7.9654474,10z/data=!4m9!1m3!2m2!1sPharmacies+in+Sidi+Bennour+Morocco!6e2!3m4!1s0xda62db89843c861:0xcc6b74e2857f9850!8m2!3d33.5417027!4d-7.685296?hl=en","G8R7+MV Casablanca, Morocco","33,5417027","-7,685296",Pharmacy,ok
Pharmacie Zouhair,,Casablanca,,"Boulevard Ouled Haddou, Casablanca, Morocco","https://www.google.com/maps/place/Pharmacie+Zouhair/@33.5472634,-7.6789837,12z/data=!4m9!1m3!2m2!1sPharmacies+in+Casablanca+Morocco!6e2!3m4!1s0xda632a721c37ad3:0x516850da1a6b9fbf!8m2!3d33.5472634!4d-7.6089459?hl=en","G9WR+WC Casablanca, Morocco","33,5472634","-7,6089459",Pharmacy,ok
Pharmacie Zahra,+212 660-376943,Casablanca,Aïn Harrouda,"N9, Aïn Harrouda, Morocco","https://www.google.com/maps/place/Pharmacy-Zahra/@33.6717496,-7.4696074,12z/data=!4m9!1m3!2m2!1sPharmacies+in+Mohammedia+Morocco!6e2!3m4!1s0xda7ca6da4db8f0f:0x492b7970d98c3c9c!8m2!3d33.6356162!4d-7.450784?hl=en","JGPX+6M Aïn Harrouda, Morocco","33,6356162","-7,450784",Pharmacy,ok
Pharmacie Rachid ,+212 5225-54200,Casablanca,,"Avenue Sakia El Hamra, Casablanca, Morocco","https://www.google.com/maps/place/Rachid+Pharmacy/@33.5463733,-7.6394363,12z/data=!4m9!1m3!2m2!1sPharmacies+in+Casablanca+Morocco!6e2!3m4!1s0xda632df6d36891f:0x393a891fe115417a!8m2!3d33.5463733!4d-7.5693985?hl=en","GCWJ+G6 Casablanca, Morocco","33,5463733","-7,5693985",Pharmacy,ok
Pharmacie Riad El Oulfa ,+212 681-903603,Casablanca,,"Casablanca, Morocco","https://www.google.com/maps/place/Riad+El+Oulfa+pharmacy/@33.5811281,-7.7160394,12z/data=!4m9!1m3!2m2!1sPharmacies+in+Casablanca+Morocco!6e2!3m4!1s0xda62caabc1125b9:0xb44229954da6bc2b!8m2!3d33.5560499!4d-7.697264?hl=en","H843+C3 Casablanca, Morocco","33,5560499","-7,697264",Pharmacy,ok
Pharmacie Riad Garden ,,Casablanca,,"Boulevard Mohamed Jamal Addora, Casablanca, Morocco","https://www.google.com/maps/place/Riad+Garden+Pharmacy/@33.5790337,-7.5775516,12z/data=!4m9!1m3!2m2!1sPharmacies+in+Casablanca+Morocco!6e2!3m4!1s0xda7cb48bb904635:0xc328cf596a0df67!8m2!3d33.5790337!4d-7.5075138?hl=en","HFHR+JX Casablanca, Morocco","33,5790337","-7,5075138",Pharmacy,ok
Pharmacie Saber  صيدلية صابر,+212 5225-83362,Casablanca,,"Casablanca, Morocco","https://www.google.com/maps/place/Saber+Pharmacy+%D8%B5%D9%8A%D8%AF%D9%84%D9%8A%D8%A9+%D8%B5%D8%A7%D8%A8%D8%B1%E2%80%AD/@33.5335608,-7.7184534,12z/data=!4m9!1m3!2m2!1sPharmacies+in+Casablanca+Morocco!6e2!3m4!1s0xda62d1946d9cbc9:0x8dada610195328f6!8m2!3d33.5335608!4d-7.6484156?hl=en","G9M2+CJ Casablanca, Morocco","33,5335608","-7,6484156",Pharmacy,ok
Pharmacie Safir ,+212 5224-44857,Casablanca,,"Casablanca 20250, Morocco","https://www.google.com/maps/place/Safir+Pharmacy/@33.5811281,-7.7160394,12z/data=!4m9!1m3!2m2!1sPharmacies+in+Casablanca+Morocco!6e2!3m4!1s0xda7cd632038743d:0x16cbd2607e21c80e!8m2!3d33.594714!4d-7.6086715?hl=en","H9VR+VG Casablanca, Morocco","33,594714","-7,6086715",Pharmacy,ok
Pharmacie Saliha ,,Casablanca,,"Route Al Anassi, Casablanca 20250, Morocco","https://www.google.com/maps/place/Saliha+Pharmacy/@33.5731923,-7.6007795,12z/data=!4m9!1m3!2m2!1sPharmacies+in+Casablanca+Morocco!6e2!3m4!1s0xda7ccaea88d7935:0xc5772eeb88b91a2b!8m2!3d33.5731923!4d-7.5307417?hl=en","HFF9+7P Casablanca, Morocco","33,5731923","-7,5307417",Pharmacy,ok
Pharmacie Salma ,+212 5228-95772,Casablanca,,"Boulevard Oued Sebou, Casablanca 20250, Morocco","https://www.google.com/maps/place/Salma+Pharmacy/@33.5811281,-7.7160394,12z/data=!4m9!1m3!2m2!1sPharmacies+in+Casablanca+Morocco!6e2!3m4!1s0xda7d334e7f85fd3:0xf1c59afe93821be7!8m2!3d33.5600505!4d-7.6731578?hl=en","H86G+2P Casablanca, Morocco","33,5600505","-7,6731578",Pharmacy,ok
Pharmacie Sbata ,+212 674-472437,Casablanca,,"259 Avenue Sakia El Hamra, quartier:, Morocco","https://www.google.com/maps/place/Sbata+Pharmacy/@33.5446598,-7.6421366,12z/data=!4m9!1m3!2m2!1sPharmacies+in+Casablanca+Morocco!6e2!3m4!1s0xda632de72756f23:0x96efc6e33e174793!8m2!3d33.5446598!4d-7.5720988?hl=en","GCVH+V5 Casablanca, Morocco","33,5446598","-7,5720988",Pharmacy,ok
"Pharmacie TAM ""ST"" ",+212 5229-01899,Casablanca,,"Boulevard Oued Sebou, Casablanca, Morocco","https://www.google.com/maps/place/TAM+%22ST%22+Pharmacy/@33.5811281,-7.7160394,12z/data=!4m9!1m3!2m2!1sPharmacies+in+Casablanca+Morocco!6e2!3m4!1s0xda62cb5e184c08d:0x33ba8ed7ad94bd16!8m2!3d33.5529654!4d-7.6775738?hl=en","H83C+5X Casablanca, Morocco","33,5529654","-7,6775738",Pharmacy,ok
Pharmacie Val d'Anfa ,+212 5223-64348,Casablanca,,"Quartier Racine، 194 Boulevard d'Anfa, Casablanca 20050, Morocco","https://www.google.com/maps/place/Val+d'Anfa+Pharmacy/@33.5811281,-7.7160394,12z/data=!4m9!1m3!2m2!1sPharmacies+in+Casablanca+Morocco!6e2!3m4!1s0xda7d2ef529e9c53:0x7590613496ec6956!8m2!3d33.5883966!4d-7.6432763?hl=en","H9Q4+9M Casablanca, Morocco","33,5883966","-7,6432763",Pharmacy,ok
Pharmacie Verdun ,+212 5222-74662,Casablanca,,"7 Rue Abou Abdellah Mahassibi, Casablanca 20100, Morocco","https://www.google.com/maps/place/Verdun+Pharmacy/@33.5811281,-7.7160394,12z/data=!4m9!1m3!2m2!1sPharmacies+in+Casablanca+Morocco!6e2!3m4!1s0xda7d28e6a827487:0xd3815ac23e9866cb!8m2!3d33.5964764!4d-7.6263349?hl=en","H9WF+HF Casablanca, Morocco","33,5964764","-7,6263349",Pharmacy,ok